{
  "type": "FeatureCollection",
  "features": [
    {
      "type": "Feature",
      "properties": {
        "year": 2026,
        "target_year": 2026,
        "actual_year": 2026,
        "sensor": "Sentinel-2B",
        "actual_acquisition_period": "2026-04-05 to 2026-04-05",
        "acquisition_period": "2026-04-05 to 2026-04-05",
        "scene_count": 1,
        "method": "MNDWI otsu, single tide-stage-constrained scene, conservative morphology, edge-connected ocean exterior, corridor-guided continuous trace",
        "threshold": 0.02734,
        "mndwi_threshold": 0.02734,
        "threshold_candidates": {
          "otsu": {
            "threshold": 0.02734,
            "ocean_fraction": 0.4578
          },
          "fixed_zero": {
            "threshold": 0.0,
            "ocean_fraction": 0.4608
          },
          "percentile_60": {
            "threshold": 0.23184,
            "ocean_fraction": 0.395
          }
        },
        "tide_status": "SCENE_STAGE_CONSTRAINED_NOT_FULLY_TIDE_NORMALIZED",
        "source_resolution_m": 20,
        "interpretation": "image-derived water-land boundary, not a true/surveyed shoreline",
        "qa_status": "tide-stage sensitivity extraction; visual review required",
        "segment_id": 1,
        "length_m": 6332.1
      },
      "geometry": {
        "type": "LineString",
        "coordinates": [
          [
            99.21618381892104,
            9.326349055880085
          ],
          [
            99.21691433186149,
            9.329604762932009
          ],
          [
            99.21727914572871,
            9.330509026748608
          ],
          [
            99.21819203245407,
            9.334126413003283
          ],
          [
            99.21837427437616,
            9.33430719837944
          ],
          [
            99.21983335021895,
            9.33756244893095
          ],
          [
            99.22087337450678,
            9.337561804350786
          ],
          [
            99.22147264424311,
            9.337742328710874
          ],
          [
            99.22202951283084,
            9.338284672812513
          ],
          [
            99.22256599769963,
            9.338634268002059
          ],
          [
            99.22280019771395,
            9.338645984916878
          ],
          [
            99.22311286046727,
            9.339369377307797
          ],
          [
            99.22329510765387,
            9.339550159987006
          ],
          [
            99.22400896577692,
            9.338826122407834
          ],
          [
            99.22456968467465,
            9.339006665739534
          ],
          [
            99.22563536177297,
            9.339005990924713
          ],
          [
            99.22604368115655,
            9.3417191876037
          ],
          [
            99.22675713781474,
            9.341899630141157
          ],
          [
            99.22894332753599,
            9.342802713558825
          ],
          [
            99.22985399603894,
            9.342802125663466
          ],
          [
            99.23222257280324,
            9.344066864432241
          ],
          [
            99.23295147077796,
            9.344609078125055
          ],
          [
            99.23362515098667,
            9.344789532700991
          ],
          [
            99.23459068202112,
            9.344607999537143
          ],
          [
            99.23586623271378,
            9.345511639529692
          ],
          [
            99.23623111251122,
            9.346415881538544
          ],
          [
            99.23677739673136,
            9.346234620936203
          ],
          [
            99.23768880992571,
            9.347319393442067
          ],
          [
            99.23787092611795,
            9.347290186487193
          ],
          [
            99.2391463912814,
            9.348042002380062
          ],
          [
            99.23932852757643,
            9.348041879689987
          ],
          [
            99.2391466382539,
            9.348403795878525
          ],
          [
            99.2391480174908,
            9.350423990554075
          ],
          [
            99.2424293522035,
            9.354552059938433
          ],
          [
            99.24352256749346,
            9.355094001650114
          ],
          [
            99.2449800664421,
            9.35563568860619
          ],
          [
            99.24661945528997,
            9.35581544976687
          ],
          [
            99.24858930435984,
            9.35653766185791
          ],
          [
            99.24916993346169,
            9.356537254616113
          ],
          [
            99.25062757615149,
            9.357259814454201
          ],
          [
            99.25154583586297,
            9.357440061224956
          ],
          [
            99.25244898536016,
            9.357258523210621
          ],
          [
            99.25339313521413,
            9.357257850199145
          ],
          [
            99.25427065716013,
            9.357619015514475
          ]
        ]
      }
    }
  ]
}
