{"type":"FeatureCollection","name":"rayong_coastal_analysis_aoi","features":[{"type":"Feature","properties":{"name":"Rayong coastal analysis AOI around planting plots","status":"derived-analysis-aoi","source":"rayong_planting_plots.geojson","sourceDriveFileId":"11HQSiM37zPvbkG5mIsI_z47nf8WXBbEO","bufferBasisM":2000,"derivation":"convex hull of 2 km buffers around all 14 planting plot geometries","purpose":"Satellite shoreline/mangrove change analysis with surrounding reference coast","analysisCrs":"EPSG:32647","officialProjectBoundary":false},"geometry":{"type":"Polygon","coordinates":[[[101.65962445580244,12.652482968422989],[101.65601567014967,12.652835777974014],[101.6527476509185,12.653724729038862],[101.64944249991181,12.655074285600962],[101.64646595481423,12.657026696461708],[101.64393066853516,12.659508080028592],[101.64193260401073,12.662424532685506],[101.64054740130008,12.665665680891363],[101.63982751233719,12.669108857107677],[101.64087327534743,12.727867488957209],[101.64154260664301,12.731539920154033],[101.64296606086998,12.734999092199669],[101.64508296395282,12.73809749563448],[101.64914429552128,12.741803211918901],[101.65220422099786,12.743667283395347],[101.65557537863121,12.744910729950375],[101.79990988142991,12.776825953124435],[101.80509152618295,12.776869260997382],[101.81008005740468,12.775493216447696],[101.8136435811618,12.773470051093517],[101.8175779790901,12.769871251891],[101.8202844231503,12.765309797106761],[101.82129675497595,12.761875251375093],[101.82160936094097,12.758269580698697],[101.82148838354576,12.756461846039326],[101.82031370908834,12.750283379324346],[101.81782036527208,12.745515554447634],[101.80298025877161,12.727556179210282],[101.80046090050574,12.725118153995332],[101.79751291678342,12.723198394692243],[101.66834267107036,12.654634795165503],[101.66499435516857,12.653266661591513],[101.65962445580244,12.652482968422989]]]}}]}
