{
  "type": "FeatureCollection",
  "features": [
    {
      "type": "Feature",
      "properties": {
        "transect_id": "T001",
        "chainage_m": 0.0,
        "spacing_m": 100.0,
        "length_m": 3000.0,
        "observations": 2,
        "positions_m": {
          "1985": null,
          "1990": null,
          "2000": null,
          "2010": 3.33,
          "2017": null,
          "2018": null,
          "2019": null,
          "2020": null,
          "2021": null,
          "2022": null,
          "2023": null,
          "2024": null,
          "2025": null,
          "2026": 0.0
        },
        "net_change_m": null,
        "net_movement_m": null,
        "rate_m_per_year": null,
        "end_point_rate_m_per_year": null,
        "regression_rate_m_per_year": -0.2,
        "start_year": 1985,
        "end_year": 2026,
        "n_observations": 2,
        "classification": "insufficient_data",
        "classification_detail": "insufficient_data",
        "confidence": "LOW",
        "confidence_reasons": [
          "tide level unavailable for every epoch",
          "intertidal mudflat exposure can move the observed wet/dry edge",
          "sensor resolution and wet/dry pixel mixing limit positional precision",
          "automated spectral boundary requires field or orthophoto validation"
        ],
        "interpretation": "positive is apparent seaward movement; not tide-normalized shoreline change"
      },
      "geometry": {
        "type": "LineString",
        "coordinates": [
          [
            99.20276357262208,
            9.32964985484181
          ],
          [
            99.2297622528401,
            9.325507438950021
          ]
        ]
      }
    },
    {
      "type": "Feature",
      "properties": {
        "transect_id": "T002",
        "chainage_m": 100.0,
        "spacing_m": 100.0,
        "length_m": 3000.0,
        "observations": 11,
        "positions_m": {
          "1985": null,
          "1990": null,
          "2000": null,
          "2010": 6.05,
          "2017": 8.53,
          "2018": 10.94,
          "2019": 14.87,
          "2020": 10.94,
          "2021": 9.63,
          "2022": 7.01,
          "2023": 3.01,
          "2024": 1.14,
          "2025": 8.18,
          "2026": 0.0
        },
        "net_change_m": null,
        "net_movement_m": null,
        "rate_m_per_year": null,
        "end_point_rate_m_per_year": null,
        "regression_rate_m_per_year": -0.36,
        "start_year": 1985,
        "end_year": 2026,
        "n_observations": 11,
        "classification": "insufficient_data",
        "classification_detail": "insufficient_data",
        "confidence": "LOW",
        "confidence_reasons": [
          "tide level unavailable for every epoch",
          "intertidal mudflat exposure can move the observed wet/dry edge",
          "sensor resolution and wet/dry pixel mixing limit positional precision",
          "automated spectral boundary requires field or orthophoto validation"
        ],
        "interpretation": "positive is apparent seaward movement; not tide-normalized shoreline change"
      },
      "geometry": {
        "type": "LineString",
        "coordinates": [
          [
            99.20290255810488,
            9.330543745151434
          ],
          [
            99.2299013049356,
            9.326401317399094
          ]
        ]
      }
    },
    {
      "type": "Feature",
      "properties": {
        "transect_id": "T003",
        "chainage_m": 200.0,
        "spacing_m": 100.0,
        "length_m": 3000.0,
        "observations": 14,
        "positions_m": {
          "1985": 121.8,
          "1990": -30.0,
          "2000": -5.15,
          "2010": 8.37,
          "2017": 9.39,
          "2018": 15.0,
          "2019": 18.92,
          "2020": 15.0,
          "2021": 11.95,
          "2022": 11.07,
          "2023": -0.23,
          "2024": -0.34,
          "2025": 14.35,
          "2026": -0.41
        },
        "net_change_m": -122.21,
        "net_movement_m": -122.21,
        "rate_m_per_year": -3.13,
        "end_point_rate_m_per_year": -3.13,
        "regression_rate_m_per_year": -0.93,
        "start_year": 1985,
        "end_year": 2026,
        "n_observations": 14,
        "classification": "apparent_erosion",
        "classification_detail": "apparent_erosion",
        "confidence": "LOW",
        "confidence_reasons": [
          "tide level unavailable for every epoch",
          "intertidal mudflat exposure can move the observed wet/dry edge",
          "sensor resolution and wet/dry pixel mixing limit positional precision",
          "automated spectral boundary requires field or orthophoto validation"
        ],
        "interpretation": "positive is apparent seaward movement; not tide-normalized shoreline change"
      },
      "geometry": {
        "type": "LineString",
        "coordinates": [
          [
            99.20321895338962,
            9.33234711654389
          ],
          [
            99.22987017816503,
            9.326384148566856
          ]
        ]
      }
    },
    {
      "type": "Feature",
      "properties": {
        "transect_id": "T004",
        "chainage_m": 300.0,
        "spacing_m": 100.0,
        "length_m": 3000.0,
        "observations": 14,
        "positions_m": {
          "1985": 123.77,
          "1990": -46.72,
          "2000": -22.52,
          "2010": 3.13,
          "2017": 4.93,
          "2018": 19.87,
          "2019": 27.34,
          "2020": 17.66,
          "2021": 12.4,
          "2022": 12.4,
          "2023": 7.41,
          "2024": 8.67,
          "2025": 17.66,
          "2026": 5.13
        },
        "net_change_m": -118.64,
        "net_movement_m": -118.64,
        "rate_m_per_year": -3.04,
        "end_point_rate_m_per_year": -3.04,
        "regression_rate_m_per_year": -0.49,
        "start_year": 1985,
        "end_year": 2026,
        "n_observations": 14,
        "classification": "apparent_erosion",
        "classification_detail": "apparent_erosion",
        "confidence": "LOW",
        "confidence_reasons": [
          "tide level unavailable for every epoch",
          "intertidal mudflat exposure can move the observed wet/dry edge",
          "sensor resolution and wet/dry pixel mixing limit positional precision",
          "automated spectral boundary requires field or orthophoto validation"
        ],
        "interpretation": "positive is apparent seaward movement; not tide-normalized shoreline change"
      },
      "geometry": {
        "type": "LineString",
        "coordinates": [
          [
            99.20365091261743,
            9.333935326622086
          ],
          [
            99.22993478521397,
            9.326536376378689
          ]
        ]
      }
    },
    {
      "type": "Feature",
      "properties": {
        "transect_id": "T005",
        "chainage_m": 400.0,
        "spacing_m": 100.0,
        "length_m": 3000.0,
        "observations": 14,
        "positions_m": {
          "1985": 126.06,
          "1990": -55.51,
          "2000": -39.85,
          "2010": 7.75,
          "2017": 15.47,
          "2018": 30.4,
          "2019": 37.87,
          "2020": 25.0,
          "2021": 22.94,
          "2022": 22.94,
          "2023": 16.59,
          "2024": 19.2,
          "2025": 25.0,
          "2026": 11.89
        },
        "net_change_m": -114.17,
        "net_movement_m": -114.17,
        "rate_m_per_year": -2.93,
        "end_point_rate_m_per_year": -2.93,
        "regression_rate_m_per_year": -0.02,
        "start_year": 1985,
        "end_year": 2026,
        "n_observations": 14,
        "classification": "apparent_erosion",
        "classification_detail": "apparent_erosion",
        "confidence": "LOW",
        "confidence_reasons": [
          "tide level unavailable for every epoch",
          "intertidal mudflat exposure can move the observed wet/dry edge",
          "sensor resolution and wet/dry pixel mixing limit positional precision",
          "automated spectral boundary requires field or orthophoto validation"
        ],
        "interpretation": "positive is apparent seaward movement; not tide-normalized shoreline change"
      },
      "geometry": {
        "type": "LineString",
        "coordinates": [
          [
            99.20389919249425,
            9.334805547723706
          ],
          [
            99.23018312417561,
            9.327406578135014
          ]
        ]
      }
    },
    {
      "type": "Feature",
      "properties": {
        "transect_id": "T006",
        "chainage_m": 500.0,
        "spacing_m": 100.0,
        "length_m": 3000.0,
        "observations": 14,
        "positions_m": {
          "1985": 128.35,
          "1990": -43.13,
          "2000": -41.99,
          "2010": 12.38,
          "2017": 22.49,
          "2018": 27.81,
          "2019": 35.84,
          "2020": 25.79,
          "2021": 25.79,
          "2022": 25.79,
          "2023": 23.79,
          "2024": 15.15,
          "2025": 25.79,
          "2026": 18.64
        },
        "net_change_m": -109.71,
        "net_movement_m": -109.71,
        "rate_m_per_year": -2.81,
        "end_point_rate_m_per_year": -2.81,
        "regression_rate_m_per_year": -0.11,
        "start_year": 1985,
        "end_year": 2026,
        "n_observations": 14,
        "classification": "apparent_erosion",
        "classification_detail": "apparent_erosion",
        "confidence": "LOW",
        "confidence_reasons": [
          "tide level unavailable for every epoch",
          "intertidal mudflat exposure can move the observed wet/dry edge",
          "sensor resolution and wet/dry pixel mixing limit positional precision",
          "automated spectral boundary requires field or orthophoto validation"
        ],
        "interpretation": "positive is apparent seaward movement; not tide-normalized shoreline change"
      },
      "geometry": {
        "type": "LineString",
        "coordinates": [
          [
            99.20414747364572,
            9.335675768583263
          ],
          [
            99.2304314644167,
            9.328276779645895
          ]
        ]
      }
    },
    {
      "type": "Feature",
      "properties": {
        "transect_id": "T007",
        "chainage_m": 600.0,
        "spacing_m": 100.0,
        "length_m": 3000.0,
        "observations": 14,
        "positions_m": {
          "1985": 132.28,
          "1990": -30.75,
          "2000": -32.8,
          "2010": 17.0,
          "2017": 11.4,
          "2018": 17.0,
          "2019": 29.38,
          "2020": 17.0,
          "2021": 17.0,
          "2022": 16.37,
          "2023": 20.73,
          "2024": 7.31,
          "2025": 16.37,
          "2026": 5.8
        },
        "net_change_m": -126.48,
        "net_movement_m": -126.48,
        "rate_m_per_year": -3.24,
        "end_point_rate_m_per_year": -3.24,
        "regression_rate_m_per_year": -0.66,
        "start_year": 1985,
        "end_year": 2026,
        "n_observations": 14,
        "classification": "apparent_erosion",
        "classification_detail": "apparent_erosion",
        "confidence": "LOW",
        "confidence_reasons": [
          "tide level unavailable for every epoch",
          "intertidal mudflat exposure can move the observed wet/dry edge",
          "sensor resolution and wet/dry pixel mixing limit positional precision",
          "automated spectral boundary requires field or orthophoto validation"
        ],
        "interpretation": "positive is apparent seaward movement; not tide-normalized shoreline change"
      },
      "geometry": {
        "type": "LineString",
        "coordinates": [
          [
            99.204395756072,
            9.336545989200635
          ],
          [
            99.23067980593741,
            9.329146980911338
          ]
        ]
      }
    },
    {
      "type": "Feature",
      "properties": {
        "transect_id": "T008",
        "chainage_m": 700.0,
        "spacing_m": 100.0,
        "length_m": 3000.0,
        "observations": 14,
        "positions_m": {
          "1985": 130.86,
          "1990": -46.98,
          "2000": -39.51,
          "2010": 6.45,
          "2017": 3.48,
          "2018": 6.45,
          "2019": 8.28,
          "2020": 6.45,
          "2021": 6.45,
          "2022": 1.46,
          "2023": 2.62,
          "2024": -0.16,
          "2025": 1.46,
          "2026": -4.74
        },
        "net_change_m": -135.6,
        "net_movement_m": -135.6,
        "rate_m_per_year": -3.48,
        "end_point_rate_m_per_year": -3.48,
        "regression_rate_m_per_year": -0.81,
        "start_year": 1985,
        "end_year": 2026,
        "n_observations": 14,
        "classification": "apparent_erosion",
        "classification_detail": "apparent_erosion",
        "confidence": "LOW",
        "confidence_reasons": [
          "tide level unavailable for every epoch",
          "intertidal mudflat exposure can move the observed wet/dry edge",
          "sensor resolution and wet/dry pixel mixing limit positional precision",
          "automated spectral boundary requires field or orthophoto validation"
        ],
        "interpretation": "positive is apparent seaward movement; not tide-normalized shoreline change"
      },
      "geometry": {
        "type": "LineString",
        "coordinates": [
          [
            99.20625057371936,
            9.340722520796911
          ],
          [
            99.22957797348144,
            9.32659968438967
          ]
        ]
      }
    },
    {
      "type": "Feature",
      "properties": {
        "transect_id": "T009",
        "chainage_m": 800.0,
        "spacing_m": 100.0,
        "length_m": 3000.0,
        "observations": 14,
        "positions_m": {
          "1985": 117.94,
          "1990": -74.5,
          "2000": -57.67,
          "2010": 16.73,
          "2017": -5.51,
          "2018": 9.04,
          "2019": -4.1,
          "2020": -0.76,
          "2021": -4.1,
          "2022": -0.86,
          "2023": -0.86,
          "2024": -5.51,
          "2025": -4.64,
          "2026": -5.51
        },
        "net_change_m": -123.45,
        "net_movement_m": -123.45,
        "rate_m_per_year": -3.17,
        "end_point_rate_m_per_year": -3.17,
        "regression_rate_m_per_year": -0.41,
        "start_year": 1985,
        "end_year": 2026,
        "n_observations": 14,
        "classification": "apparent_erosion",
        "classification_detail": "apparent_erosion",
        "confidence": "LOW",
        "confidence_reasons": [
          "tide level unavailable for every epoch",
          "intertidal mudflat exposure can move the observed wet/dry edge",
          "sensor resolution and wet/dry pixel mixing limit positional precision",
          "automated spectral boundary requires field or orthophoto validation"
        ],
        "interpretation": "positive is apparent seaward movement; not tide-normalized shoreline change"
      },
      "geometry": {
        "type": "LineString",
        "coordinates": [
          [
            99.20672452649536,
            9.341494856442763
          ],
          [
            99.23005195708707,
            9.327371988822836
          ]
        ]
      }
    },
    {
      "type": "Feature",
      "properties": {
        "transect_id": "T010",
        "chainage_m": 900.0,
        "spacing_m": 100.0,
        "length_m": 3000.0,
        "observations": 14,
        "positions_m": {
          "1985": 105.01,
          "1990": -72.68,
          "2000": -64.08,
          "2010": 56.7,
          "2017": 114.24,
          "2018": 5.52,
          "2019": 5.79,
          "2020": -5.16,
          "2021": 45.01,
          "2022": -1.65,
          "2023": -1.65,
          "2024": 41.97,
          "2025": -0.52,
          "2026": 41.97
        },
        "net_change_m": -63.04,
        "net_movement_m": -63.04,
        "rate_m_per_year": -1.62,
        "end_point_rate_m_per_year": -1.62,
        "regression_rate_m_per_year": 0.46,
        "start_year": 1985,
        "end_year": 2026,
        "n_observations": 14,
        "classification": "apparent_erosion",
        "classification_detail": "apparent_erosion",
        "confidence": "LOW",
        "confidence_reasons": [
          "tide level unavailable for every epoch",
          "intertidal mudflat exposure can move the observed wet/dry edge",
          "sensor resolution and wet/dry pixel mixing limit positional precision",
          "automated spectral boundary requires field or orthophoto validation"
        ],
        "interpretation": "positive is apparent seaward movement; not tide-normalized shoreline change"
      },
      "geometry": {
        "type": "LineString",
        "coordinates": [
          [
            99.20719848138306,
            9.342267191377886
          ],
          [
            99.23052594280388,
            9.328144292541076
          ]
        ]
      }
    },
    {
      "type": "Feature",
      "properties": {
        "transect_id": "T011",
        "chainage_m": 1000.0,
        "spacing_m": 100.0,
        "length_m": 3000.0,
        "observations": 14,
        "positions_m": {
          "1985": 233.17,
          "1990": -68.56,
          "2000": -59.43,
          "2010": 30.59,
          "2017": 213.1,
          "2018": -2.81,
          "2019": -2.64,
          "2020": -9.55,
          "2021": 22.12,
          "2022": -7.34,
          "2023": -7.34,
          "2024": 10.83,
          "2025": -16.36,
          "2026": 10.83
        },
        "net_change_m": -222.34,
        "net_movement_m": -222.34,
        "rate_m_per_year": -5.7,
        "end_point_rate_m_per_year": -5.7,
        "regression_rate_m_per_year": -1.59,
        "start_year": 1985,
        "end_year": 2026,
        "n_observations": 14,
        "classification": "apparent_erosion",
        "classification_detail": "apparent_erosion",
        "confidence": "LOW",
        "confidence_reasons": [
          "tide level unavailable for every epoch",
          "intertidal mudflat exposure can move the observed wet/dry edge",
          "sensor resolution and wet/dry pixel mixing limit positional precision",
          "automated spectral boundary requires field or orthophoto validation"
        ],
        "interpretation": "positive is apparent seaward movement; not tide-normalized shoreline change"
      },
      "geometry": {
        "type": "LineString",
        "coordinates": [
          [
            99.2076724383827,
            9.343039525602142
          ],
          [
            99.2309999306321,
            9.3289165955442
          ]
        ]
      }
    },
    {
      "type": "Feature",
      "properties": {
        "transect_id": "T012",
        "chainage_m": 1100.0,
        "spacing_m": 100.0,
        "length_m": 3000.0,
        "observations": 14,
        "positions_m": {
          "1985": 272.43,
          "1990": -64.44,
          "2000": -16.18,
          "2010": 4.49,
          "2017": 295.6,
          "2018": -11.14,
          "2019": -11.07,
          "2020": -13.95,
          "2021": -0.77,
          "2022": -13.03,
          "2023": -13.03,
          "2024": -20.3,
          "2025": -32.21,
          "2026": -20.3
        },
        "net_change_m": -292.73,
        "net_movement_m": -292.73,
        "rate_m_per_year": -7.51,
        "end_point_rate_m_per_year": -7.51,
        "regression_rate_m_per_year": -2.79,
        "start_year": 1985,
        "end_year": 2026,
        "n_observations": 14,
        "classification": "apparent_erosion",
        "classification_detail": "apparent_erosion",
        "confidence": "LOW",
        "confidence_reasons": [
          "tide level unavailable for every epoch",
          "intertidal mudflat exposure can move the observed wet/dry edge",
          "sensor resolution and wet/dry pixel mixing limit positional precision",
          "automated spectral boundary requires field or orthophoto validation"
        ],
        "interpretation": "positive is apparent seaward movement; not tide-normalized shoreline change"
      },
      "geometry": {
        "type": "LineString",
        "coordinates": [
          [
            99.2081463974945,
            9.343811859115341
          ],
          [
            99.23147392057199,
            9.329688897832073
          ]
        ]
      }
    },
    {
      "type": "Feature",
      "properties": {
        "transect_id": "T013",
        "chainage_m": 1200.0,
        "spacing_m": 100.0,
        "length_m": 3000.0,
        "observations": 14,
        "positions_m": {
          "1985": 287.24,
          "1990": -100.4,
          "2000": 14.96,
          "2010": 14.96,
          "2017": 278.01,
          "2018": 4.25,
          "2019": 4.25,
          "2020": 4.25,
          "2021": 4.25,
          "2022": 4.25,
          "2023": 4.25,
          "2024": 4.25,
          "2025": 4.25,
          "2026": 4.25
        },
        "net_change_m": -282.99,
        "net_movement_m": -282.99,
        "rate_m_per_year": -7.26,
        "end_point_rate_m_per_year": -7.26,
        "regression_rate_m_per_year": -2.16,
        "start_year": 1985,
        "end_year": 2026,
        "n_observations": 14,
        "classification": "apparent_erosion",
        "classification_detail": "apparent_erosion",
        "confidence": "LOW",
        "confidence_reasons": [
          "tide level unavailable for every epoch",
          "intertidal mudflat exposure can move the observed wet/dry edge",
          "sensor resolution and wet/dry pixel mixing limit positional precision",
          "automated spectral boundary requires field or orthophoto validation"
        ],
        "interpretation": "positive is apparent seaward movement; not tide-normalized shoreline change"
      },
      "geometry": {
        "type": "LineString",
        "coordinates": [
          [
            99.21547610357503,
            9.35008741896659
          ],
          [
            99.22524451148583,
            9.32474670739232
          ]
        ]
      }
    },
    {
      "type": "Feature",
      "properties": {
        "transect_id": "T014",
        "chainage_m": 1300.0,
        "spacing_m": 100.0,
        "length_m": 3000.0,
        "observations": 14,
        "positions_m": {
          "1985": 247.61,
          "1990": -137.49,
          "2000": 58.04,
          "2010": 9.38,
          "2017": 252.48,
          "2018": 11.82,
          "2019": 8.91,
          "2020": 8.91,
          "2021": 11.82,
          "2022": 11.82,
          "2023": 11.82,
          "2024": 8.91,
          "2025": 8.91,
          "2026": 8.91
        },
        "net_change_m": -238.7,
        "net_movement_m": -238.7,
        "rate_m_per_year": -6.12,
        "end_point_rate_m_per_year": -6.12,
        "regression_rate_m_per_year": -1.36,
        "start_year": 1985,
        "end_year": 2026,
        "n_observations": 14,
        "classification": "apparent_erosion",
        "classification_detail": "apparent_erosion",
        "confidence": "LOW",
        "confidence_reasons": [
          "tide level unavailable for every epoch",
          "intertidal mudflat exposure can move the observed wet/dry edge",
          "sensor resolution and wet/dry pixel mixing limit positional precision",
          "automated spectral boundary requires field or orthophoto validation"
        ],
        "interpretation": "positive is apparent seaward movement; not tide-normalized shoreline change"
      },
      "geometry": {
        "type": "LineString",
        "coordinates": [
          [
            99.21359008797725,
            9.3489925443718
          ],
          [
            99.2288107905683,
            9.326459372174755
          ]
        ]
      }
    },
    {
      "type": "Feature",
      "properties": {
        "transect_id": "T015",
        "chainage_m": 1400.0,
        "spacing_m": 100.0,
        "length_m": 3000.0,
        "observations": 14,
        "positions_m": {
          "1985": 241.77,
          "1990": -160.16,
          "2000": 58.14,
          "2010": -3.31,
          "2017": 208.71,
          "2018": 1.28,
          "2019": 1.28,
          "2020": 1.28,
          "2021": 1.28,
          "2022": 1.28,
          "2023": 1.28,
          "2024": 1.28,
          "2025": 1.28,
          "2026": 1.28
        },
        "net_change_m": -240.49,
        "net_movement_m": -240.49,
        "rate_m_per_year": -6.17,
        "end_point_rate_m_per_year": -6.17,
        "regression_rate_m_per_year": -1.33,
        "start_year": 1985,
        "end_year": 2026,
        "n_observations": 14,
        "classification": "apparent_erosion",
        "classification_detail": "apparent_erosion",
        "confidence": "LOW",
        "confidence_reasons": [
          "tide level unavailable for every epoch",
          "intertidal mudflat exposure can move the observed wet/dry edge",
          "sensor resolution and wet/dry pixel mixing limit positional precision",
          "automated spectral boundary requires field or orthophoto validation"
        ],
        "interpretation": "positive is apparent seaward movement; not tide-normalized shoreline change"
      },
      "geometry": {
        "type": "LineString",
        "coordinates": [
          [
            99.21434633296671,
            9.349496478113387
          ],
          [
            99.22956700731736,
            9.326963274796908
          ]
        ]
      }
    },
    {
      "type": "Feature",
      "properties": {
        "transect_id": "T016",
        "chainage_m": 1500.0,
        "spacing_m": 100.0,
        "length_m": 3000.0,
        "observations": 14,
        "positions_m": {
          "1985": 240.22,
          "1990": -214.09,
          "2000": -113.51,
          "2010": -3.97,
          "2017": 186.56,
          "2018": 6.45,
          "2019": -2.81,
          "2020": -3.59,
          "2021": 3.43,
          "2022": -2.81,
          "2023": 3.43,
          "2024": -3.59,
          "2025": -3.59,
          "2026": -2.81
        },
        "net_change_m": -243.03,
        "net_movement_m": -243.03,
        "rate_m_per_year": -6.23,
        "end_point_rate_m_per_year": -6.23,
        "regression_rate_m_per_year": 0.32,
        "start_year": 1985,
        "end_year": 2026,
        "n_observations": 14,
        "classification": "apparent_erosion",
        "classification_detail": "apparent_erosion",
        "confidence": "LOW",
        "confidence_reasons": [
          "tide level unavailable for every epoch",
          "intertidal mudflat exposure can move the observed wet/dry edge",
          "sensor resolution and wet/dry pixel mixing limit positional precision",
          "automated spectral boundary requires field or orthophoto validation"
        ],
        "interpretation": "positive is apparent seaward movement; not tide-normalized shoreline change"
      },
      "geometry": {
        "type": "LineString",
        "coordinates": [
          [
            99.21862748642295,
            9.351591228185532
          ],
          [
            99.22687332723261,
            9.325722147596142
          ]
        ]
      }
    },
    {
      "type": "Feature",
      "properties": {
        "transect_id": "T017",
        "chainage_m": 1600.0,
        "spacing_m": 100.0,
        "length_m": 3000.0,
        "observations": 14,
        "positions_m": {
          "1985": 210.59,
          "1990": -219.83,
          "2000": -156.18,
          "2010": -73.36,
          "2017": 58.02,
          "2018": 35.66,
          "2019": 35.66,
          "2020": 35.66,
          "2021": -71.23,
          "2022": 35.66,
          "2023": 35.66,
          "2024": 35.66,
          "2025": 35.66,
          "2026": 35.66
        },
        "net_change_m": -174.93,
        "net_movement_m": -174.93,
        "rate_m_per_year": -4.49,
        "end_point_rate_m_per_year": -4.49,
        "regression_rate_m_per_year": 1.9,
        "start_year": 1985,
        "end_year": 2026,
        "n_observations": 14,
        "classification": "apparent_erosion",
        "classification_detail": "apparent_erosion",
        "confidence": "LOW",
        "confidence_reasons": [
          "tide level unavailable for every epoch",
          "intertidal mudflat exposure can move the observed wet/dry edge",
          "sensor resolution and wet/dry pixel mixing limit positional precision",
          "automated spectral boundary requires field or orthophoto validation"
        ],
        "interpretation": "positive is apparent seaward movement; not tide-normalized shoreline change"
      },
      "geometry": {
        "type": "LineString",
        "coordinates": [
          [
            99.21433917816985,
            9.349092326176816
          ],
          [
            99.2327411859967,
            9.329036737799527
          ]
        ]
      }
    },
    {
      "type": "Feature",
      "properties": {
        "transect_id": "T018",
        "chainage_m": 1700.0,
        "spacing_m": 100.0,
        "length_m": 3000.0,
        "observations": 14,
        "positions_m": {
          "1985": 292.36,
          "1990": -238.08,
          "2000": -166.23,
          "2010": -81.56,
          "2017": 90.84,
          "2018": 30.37,
          "2019": 30.37,
          "2020": -5.24,
          "2021": -75.9,
          "2022": 12.7,
          "2023": 6.46,
          "2024": 0.0,
          "2025": 6.46,
          "2026": 0.0
        },
        "net_change_m": -292.36,
        "net_movement_m": -292.36,
        "rate_m_per_year": -7.5,
        "end_point_rate_m_per_year": -7.5,
        "regression_rate_m_per_year": 0.37,
        "start_year": 1985,
        "end_year": 2026,
        "n_observations": 14,
        "classification": "apparent_erosion",
        "classification_detail": "apparent_erosion",
        "confidence": "LOW",
        "confidence_reasons": [
          "tide level unavailable for every epoch",
          "intertidal mudflat exposure can move the observed wet/dry edge",
          "sensor resolution and wet/dry pixel mixing limit positional precision",
          "automated spectral boundary requires field or orthophoto validation"
        ],
        "interpretation": "positive is apparent seaward movement; not tide-normalized shoreline change"
      },
      "geometry": {
        "type": "LineString",
        "coordinates": [
          [
            99.21094693863638,
            9.34344802587186
          ],
          [
            99.23723156383618,
            9.336049267214412
          ]
        ]
      }
    },
    {
      "type": "Feature",
      "properties": {
        "transect_id": "T019",
        "chainage_m": 1800.0,
        "spacing_m": 100.0,
        "length_m": 3000.0,
        "observations": 14,
        "positions_m": {
          "1985": 312.83,
          "1990": -93.38,
          "2000": -80.52,
          "2010": -41.6,
          "2017": 108.73,
          "2018": 43.42,
          "2019": 43.42,
          "2020": -10.91,
          "2021": -43.53,
          "2022": 25.09,
          "2023": 13.0,
          "2024": 0.0,
          "2025": 13.0,
          "2026": 0.0
        },
        "net_change_m": -312.83,
        "net_movement_m": -312.83,
        "rate_m_per_year": -8.02,
        "end_point_rate_m_per_year": -8.02,
        "regression_rate_m_per_year": -1.92,
        "start_year": 1985,
        "end_year": 2026,
        "n_observations": 14,
        "classification": "apparent_erosion",
        "classification_detail": "apparent_erosion",
        "confidence": "LOW",
        "confidence_reasons": [
          "tide level unavailable for every epoch",
          "intertidal mudflat exposure can move the observed wet/dry edge",
          "sensor resolution and wet/dry pixel mixing limit positional precision",
          "automated spectral boundary requires field or orthophoto validation"
        ],
        "interpretation": "positive is apparent seaward movement; not tide-normalized shoreline change"
      },
      "geometry": {
        "type": "LineString",
        "coordinates": [
          [
            99.21290788420329,
            9.34807218536048
          ],
          [
            99.23574082093835,
            9.333172823694408
          ]
        ]
      }
    },
    {
      "type": "Feature",
      "properties": {
        "transect_id": "T020",
        "chainage_m": 1900.0,
        "spacing_m": 100.0,
        "length_m": 3000.0,
        "observations": 14,
        "positions_m": {
          "1985": 289.36,
          "1990": -56.33,
          "2000": -51.22,
          "2010": -45.59,
          "2017": 98.28,
          "2018": -17.24,
          "2019": -17.24,
          "2020": -49.2,
          "2021": -41.9,
          "2022": -40.29,
          "2023": -57.41,
          "2024": -62.23,
          "2025": -56.78,
          "2026": -62.23
        },
        "net_change_m": -351.59,
        "net_movement_m": -351.59,
        "rate_m_per_year": -9.02,
        "end_point_rate_m_per_year": -9.02,
        "regression_rate_m_per_year": -4.03,
        "start_year": 1985,
        "end_year": 2026,
        "n_observations": 14,
        "classification": "apparent_erosion",
        "classification_detail": "apparent_erosion",
        "confidence": "LOW",
        "confidence_reasons": [
          "tide level unavailable for every epoch",
          "intertidal mudflat exposure can move the observed wet/dry edge",
          "sensor resolution and wet/dry pixel mixing limit positional precision",
          "automated spectral boundary requires field or orthophoto validation"
        ],
        "interpretation": "positive is apparent seaward movement; not tide-normalized shoreline change"
      },
      "geometry": {
        "type": "LineString",
        "coordinates": [
          [
            99.2180042648591,
            9.352716392309699
          ],
          [
            99.23215176433544,
            9.329503476739106
          ]
        ]
      }
    },
    {
      "type": "Feature",
      "properties": {
        "transect_id": "T021",
        "chainage_m": 2000.0,
        "spacing_m": 100.0,
        "length_m": 3000.0,
        "observations": 14,
        "positions_m": {
          "1985": 278.84,
          "1990": -38.53,
          "2000": -28.52,
          "2010": -11.75,
          "2017": 60.09,
          "2018": -7.73,
          "2019": -7.73,
          "2020": -20.77,
          "2021": -10.7,
          "2022": -16.5,
          "2023": -29.76,
          "2024": -31.03,
          "2025": -18.56,
          "2026": -31.03
        },
        "net_change_m": -309.87,
        "net_movement_m": -309.87,
        "rate_m_per_year": -7.95,
        "end_point_rate_m_per_year": -7.95,
        "regression_rate_m_per_year": -3.48,
        "start_year": 1985,
        "end_year": 2026,
        "n_observations": 14,
        "classification": "apparent_erosion",
        "classification_detail": "apparent_erosion",
        "confidence": "LOW",
        "confidence_reasons": [
          "tide level unavailable for every epoch",
          "intertidal mudflat exposure can move the observed wet/dry edge",
          "sensor resolution and wet/dry pixel mixing limit positional precision",
          "automated spectral boundary requires field or orthophoto validation"
        ],
        "interpretation": "positive is apparent seaward movement; not tide-normalized shoreline change"
      },
      "geometry": {
        "type": "LineString",
        "coordinates": [
          [
            99.21878333311767,
            9.35318478960665
          ],
          [
            99.23293079842914,
            9.329971844405067
          ]
        ]
      }
    },
    {
      "type": "Feature",
      "properties": {
        "transect_id": "T022",
        "chainage_m": 2100.0,
        "spacing_m": 100.0,
        "length_m": 3000.0,
        "observations": 14,
        "positions_m": {
          "1985": 268.31,
          "1990": -20.74,
          "2000": -5.82,
          "2010": 22.09,
          "2017": 21.9,
          "2018": 26.61,
          "2019": 19.79,
          "2020": 19.6,
          "2021": 29.52,
          "2022": 19.73,
          "2023": 19.01,
          "2024": 6.94,
          "2025": 19.67,
          "2026": 6.94
        },
        "net_change_m": -261.37,
        "net_movement_m": -261.37,
        "rate_m_per_year": -6.7,
        "end_point_rate_m_per_year": -6.7,
        "regression_rate_m_per_year": -2.6,
        "start_year": 1985,
        "end_year": 2026,
        "n_observations": 14,
        "classification": "apparent_erosion",
        "classification_detail": "apparent_erosion",
        "confidence": "LOW",
        "confidence_reasons": [
          "tide level unavailable for every epoch",
          "intertidal mudflat exposure can move the observed wet/dry edge",
          "sensor resolution and wet/dry pixel mixing limit positional precision",
          "automated spectral boundary requires field or orthophoto validation"
        ],
        "interpretation": "positive is apparent seaward movement; not tide-normalized shoreline change"
      },
      "geometry": {
        "type": "LineString",
        "coordinates": [
          [
            99.2195624034355,
            9.353653185133705
          ],
          [
            99.23370983457498,
            9.330440210302324
          ]
        ]
      }
    },
    {
      "type": "Feature",
      "properties": {
        "transect_id": "T023",
        "chainage_m": 2200.0,
        "spacing_m": 100.0,
        "length_m": 3000.0,
        "observations": 14,
        "positions_m": {
          "1985": 114.08,
          "1990": -2.94,
          "2000": 7.59,
          "2010": 6.42,
          "2017": 2.21,
          "2018": 32.12,
          "2019": 26.1,
          "2020": 24.08,
          "2021": 20.45,
          "2022": 5.52,
          "2023": 2.21,
          "2024": -4.54,
          "2025": 2.21,
          "2026": -4.54
        },
        "net_change_m": -118.62,
        "net_movement_m": -118.62,
        "rate_m_per_year": -3.04,
        "end_point_rate_m_per_year": -3.04,
        "regression_rate_m_per_year": -1.24,
        "start_year": 1985,
        "end_year": 2026,
        "n_observations": 14,
        "classification": "apparent_erosion",
        "classification_detail": "apparent_erosion",
        "confidence": "LOW",
        "confidence_reasons": [
          "tide level unavailable for every epoch",
          "intertidal mudflat exposure can move the observed wet/dry edge",
          "sensor resolution and wet/dry pixel mixing limit positional precision",
          "automated spectral boundary requires field or orthophoto validation"
        ],
        "interpretation": "positive is apparent seaward movement; not tide-normalized shoreline change"
      },
      "geometry": {
        "type": "LineString",
        "coordinates": [
          [
            99.22050679821265,
            9.354219399956742
          ],
          [
            99.2343235577788,
            9.330810759572573
          ]
        ]
      }
    },
    {
      "type": "Feature",
      "properties": {
        "transect_id": "T024",
        "chainage_m": 2300.0,
        "spacing_m": 100.0,
        "length_m": 3000.0,
        "observations": 14,
        "positions_m": {
          "1985": 107.94,
          "1990": -11.4,
          "2000": -8.55,
          "2010": -8.87,
          "2017": -12.86,
          "2018": 8.35,
          "2019": 7.04,
          "2020": 22.84,
          "2021": 5.86,
          "2022": 11.76,
          "2023": -12.86,
          "2024": -14.32,
          "2025": -12.86,
          "2026": -14.32
        },
        "net_change_m": -122.26,
        "net_movement_m": -122.26,
        "rate_m_per_year": -3.13,
        "end_point_rate_m_per_year": -3.13,
        "regression_rate_m_per_year": -1.28,
        "start_year": 1985,
        "end_year": 2026,
        "n_observations": 14,
        "classification": "apparent_erosion",
        "classification_detail": "apparent_erosion",
        "confidence": "LOW",
        "confidence_reasons": [
          "tide level unavailable for every epoch",
          "intertidal mudflat exposure can move the observed wet/dry edge",
          "sensor resolution and wet/dry pixel mixing limit positional precision",
          "automated spectral boundary requires field or orthophoto validation"
        ],
        "interpretation": "positive is apparent seaward movement; not tide-normalized shoreline change"
      },
      "geometry": {
        "type": "LineString",
        "coordinates": [
          [
            99.22575753419694,
            9.356099505643234
          ],
          [
            99.2307991403393,
            9.329430986847228
          ]
        ]
      }
    },
    {
      "type": "Feature",
      "properties": {
        "transect_id": "T025",
        "chainage_m": 2400.0,
        "spacing_m": 100.0,
        "length_m": 3000.0,
        "observations": 14,
        "positions_m": {
          "1985": 122.12,
          "1990": -5.77,
          "2000": -5.77,
          "2010": -5.77,
          "2017": -5.77,
          "2018": 14.58,
          "2019": 14.58,
          "2020": 14.58,
          "2021": 14.58,
          "2022": 14.58,
          "2023": -5.77,
          "2024": -5.77,
          "2025": -5.77,
          "2026": -5.77
        },
        "net_change_m": -127.89,
        "net_movement_m": -127.89,
        "rate_m_per_year": -3.28,
        "end_point_rate_m_per_year": -3.28,
        "regression_rate_m_per_year": -1.35,
        "start_year": 1985,
        "end_year": 2026,
        "n_observations": 14,
        "classification": "apparent_erosion",
        "classification_detail": "apparent_erosion",
        "confidence": "LOW",
        "confidence_reasons": [
          "tide level unavailable for every epoch",
          "intertidal mudflat exposure can move the observed wet/dry edge",
          "sensor resolution and wet/dry pixel mixing limit positional precision",
          "automated spectral boundary requires field or orthophoto validation"
        ],
        "interpretation": "positive is apparent seaward movement; not tide-normalized shoreline change"
      },
      "geometry": {
        "type": "LineString",
        "coordinates": [
          [
            99.22665259594912,
            9.356266422344733
          ],
          [
            99.23169413578175,
            9.329597892672226
          ]
        ]
      }
    },
    {
      "type": "Feature",
      "properties": {
        "transect_id": "T026",
        "chainage_m": 2500.0,
        "spacing_m": 100.0,
        "length_m": 3000.0,
        "observations": 14,
        "positions_m": {
          "1985": 136.29,
          "1990": -19.46,
          "2000": -18.02,
          "2010": 10.37,
          "2017": 10.3,
          "2018": 23.94,
          "2019": 19.6,
          "2020": 17.56,
          "2021": 23.94,
          "2022": 17.56,
          "2023": 10.93,
          "2024": 10.3,
          "2025": 10.3,
          "2026": 4.79
        },
        "net_change_m": -131.5,
        "net_movement_m": -131.5,
        "rate_m_per_year": -3.37,
        "end_point_rate_m_per_year": -3.37,
        "regression_rate_m_per_year": -0.97,
        "start_year": 1985,
        "end_year": 2026,
        "n_observations": 14,
        "classification": "apparent_erosion",
        "classification_detail": "apparent_erosion",
        "confidence": "LOW",
        "confidence_reasons": [
          "tide level unavailable for every epoch",
          "intertidal mudflat exposure can move the observed wet/dry edge",
          "sensor resolution and wet/dry pixel mixing limit positional precision",
          "automated spectral boundary requires field or orthophoto validation"
        ],
        "interpretation": "positive is apparent seaward movement; not tide-normalized shoreline change"
      },
      "geometry": {
        "type": "LineString",
        "coordinates": [
          [
            99.22754765850269,
            9.35643333676677
          ],
          [
            99.23258913202181,
            9.32976479622385
          ]
        ]
      }
    },
    {
      "type": "Feature",
      "properties": {
        "transect_id": "T027",
        "chainage_m": 2600.0,
        "spacing_m": 100.0,
        "length_m": 3000.0,
        "observations": 14,
        "positions_m": {
          "1985": -4.89,
          "1990": -18.55,
          "2000": -9.8,
          "2010": 8.32,
          "2017": 3.84,
          "2018": 19.15,
          "2019": 12.8,
          "2020": 12.8,
          "2021": 19.55,
          "2022": 12.8,
          "2023": 7.15,
          "2024": 3.84,
          "2025": 3.84,
          "2026": -3.01
        },
        "net_change_m": 1.88,
        "net_movement_m": 1.88,
        "rate_m_per_year": 0.05,
        "end_point_rate_m_per_year": 0.05,
        "regression_rate_m_per_year": 0.57,
        "start_year": 1985,
        "end_year": 2026,
        "n_observations": 14,
        "classification": "stable",
        "classification_detail": "stable_within_resolution",
        "confidence": "LOW",
        "confidence_reasons": [
          "tide level unavailable for every epoch",
          "intertidal mudflat exposure can move the observed wet/dry edge",
          "sensor resolution and wet/dry pixel mixing limit positional precision",
          "automated spectral boundary requires field or orthophoto validation"
        ],
        "interpretation": "positive is apparent seaward movement; not tide-normalized shoreline change"
      },
      "geometry": {
        "type": "LineString",
        "coordinates": [
          [
            99.22413633109667,
            9.355237643146754
          ],
          [
            99.2376557424587,
            9.331658343864527
          ]
        ]
      }
    },
    {
      "type": "Feature",
      "properties": {
        "transect_id": "T028",
        "chainage_m": 2700.0,
        "spacing_m": 100.0,
        "length_m": 3000.0,
        "observations": 14,
        "positions_m": {
          "1985": -35.61,
          "1990": -13.08,
          "2000": 7.99,
          "2010": 13.79,
          "2017": 9.31,
          "2018": 21.05,
          "2019": 18.27,
          "2020": 18.27,
          "2021": 21.99,
          "2022": 18.27,
          "2023": 13.49,
          "2024": 9.31,
          "2025": 9.31,
          "2026": 8.38
        },
        "net_change_m": 43.99,
        "net_movement_m": 43.99,
        "rate_m_per_year": 1.13,
        "end_point_rate_m_per_year": 1.13,
        "regression_rate_m_per_year": 0.96,
        "start_year": 1985,
        "end_year": 2026,
        "n_observations": 14,
        "classification": "apparent_accretion",
        "classification_detail": "apparent_accretion",
        "confidence": "LOW",
        "confidence_reasons": [
          "tide level unavailable for every epoch",
          "intertidal mudflat exposure can move the observed wet/dry edge",
          "sensor resolution and wet/dry pixel mixing limit positional precision",
          "automated spectral boundary requires field or orthophoto validation"
        ],
        "interpretation": "positive is apparent seaward movement; not tide-normalized shoreline change"
      },
      "geometry": {
        "type": "LineString",
        "coordinates": [
          [
            99.22492770257675,
            9.355685242675401
          ],
          [
            99.23844707648841,
            9.332105914745393
          ]
        ]
      }
    },
    {
      "type": "Feature",
      "properties": {
        "transect_id": "T029",
        "chainage_m": 2800.0,
        "spacing_m": 100.0,
        "length_m": 3000.0,
        "observations": 14,
        "positions_m": {
          "1985": -7.68,
          "1990": -12.87,
          "2000": 12.37,
          "2010": 12.37,
          "2017": 8.57,
          "2018": 19.78,
          "2019": 19.78,
          "2020": 13.24,
          "2021": 24.42,
          "2022": 14.35,
          "2023": 11.67,
          "2024": 8.57,
          "2025": 8.57,
          "2026": 4.3
        },
        "net_change_m": 11.98,
        "net_movement_m": 11.98,
        "rate_m_per_year": 0.31,
        "end_point_rate_m_per_year": 0.31,
        "regression_rate_m_per_year": 0.52,
        "start_year": 1985,
        "end_year": 2026,
        "n_observations": 14,
        "classification": "stable",
        "classification_detail": "stable_within_resolution",
        "confidence": "LOW",
        "confidence_reasons": [
          "tide level unavailable for every epoch",
          "intertidal mudflat exposure can move the observed wet/dry edge",
          "sensor resolution and wet/dry pixel mixing limit positional precision",
          "automated spectral boundary requires field or orthophoto validation"
        ],
        "interpretation": "positive is apparent seaward movement; not tide-normalized shoreline change"
      },
      "geometry": {
        "type": "LineString",
        "coordinates": [
          [
            99.22571907605224,
            9.356132840380415
          ],
          [
            99.2392384125065,
            9.33255348380429
          ]
        ]
      }
    },
    {
      "type": "Feature",
      "properties": {
        "transect_id": "T030",
        "chainage_m": 2900.0,
        "spacing_m": 100.0,
        "length_m": 3000.0,
        "observations": 14,
        "positions_m": {
          "1985": -6.14,
          "1990": -24.07,
          "2000": -4.47,
          "2010": -4.47,
          "2017": -1.66,
          "2018": 7.43,
          "2019": 7.43,
          "2020": 3.02,
          "2021": 10.3,
          "2022": 5.78,
          "2023": -0.91,
          "2024": -1.66,
          "2025": -1.66,
          "2026": -2.68
        },
        "net_change_m": 3.46,
        "net_movement_m": 3.46,
        "rate_m_per_year": 0.09,
        "end_point_rate_m_per_year": 0.09,
        "regression_rate_m_per_year": 0.44,
        "start_year": 1985,
        "end_year": 2026,
        "n_observations": 14,
        "classification": "stable",
        "classification_detail": "stable_within_resolution",
        "confidence": "LOW",
        "confidence_reasons": [
          "tide level unavailable for every epoch",
          "intertidal mudflat exposure can move the observed wet/dry edge",
          "sensor resolution and wet/dry pixel mixing limit positional precision",
          "automated spectral boundary requires field or orthophoto validation"
        ],
        "interpretation": "positive is apparent seaward movement; not tide-normalized shoreline change"
      },
      "geometry": {
        "type": "LineString",
        "coordinates": [
          [
            99.22651045152323,
            9.356580436261593
          ],
          [
            99.24002975051283,
            9.33300105104091
          ]
        ]
      }
    },
    {
      "type": "Feature",
      "properties": {
        "transect_id": "T031",
        "chainage_m": 3000.0,
        "spacing_m": 100.0,
        "length_m": 3000.0,
        "observations": 14,
        "positions_m": {
          "1985": -8.16,
          "1990": -23.36,
          "2000": 1.73,
          "2010": -1.6,
          "2017": 12.11,
          "2018": 6.38,
          "2019": 6.38,
          "2020": 3.25,
          "2021": 2.22,
          "2022": 6.38,
          "2023": 3.25,
          "2024": -1.15,
          "2025": 3.25,
          "2026": -1.15
        },
        "net_change_m": 7.01,
        "net_movement_m": 7.01,
        "rate_m_per_year": 0.18,
        "end_point_rate_m_per_year": 0.18,
        "regression_rate_m_per_year": 0.45,
        "start_year": 1985,
        "end_year": 2026,
        "n_observations": 14,
        "classification": "stable",
        "classification_detail": "stable_within_resolution",
        "confidence": "LOW",
        "confidence_reasons": [
          "tide level unavailable for every epoch",
          "intertidal mudflat exposure can move the observed wet/dry edge",
          "sensor resolution and wet/dry pixel mixing limit positional precision",
          "automated spectral boundary requires field or orthophoto validation"
        ],
        "interpretation": "positive is apparent seaward movement; not tide-normalized shoreline change"
      },
      "geometry": {
        "type": "LineString",
        "coordinates": [
          [
            99.22679674114464,
            9.35672786546233
          ],
          [
            99.24132615582297,
            9.33374876229199
          ]
        ]
      }
    },
    {
      "type": "Feature",
      "properties": {
        "transect_id": "T032",
        "chainage_m": 3100.0,
        "spacing_m": 100.0,
        "length_m": 3000.0,
        "observations": 14,
        "positions_m": {
          "1985": -34.57,
          "1990": -34.57,
          "2000": -8.42,
          "2010": -5.6,
          "2017": 82.13,
          "2018": 2.52,
          "2019": 22.45,
          "2020": 9.04,
          "2021": 28.02,
          "2022": -6.32,
          "2023": -10.95,
          "2024": -11.92,
          "2025": 15.17,
          "2026": -11.92
        },
        "net_change_m": 22.65,
        "net_movement_m": 22.65,
        "rate_m_per_year": 0.58,
        "end_point_rate_m_per_year": 0.58,
        "regression_rate_m_per_year": 1.05,
        "start_year": 1985,
        "end_year": 2026,
        "n_observations": 14,
        "classification": "stable",
        "classification_detail": "stable_within_resolution",
        "confidence": "LOW",
        "confidence_reasons": [
          "tide level unavailable for every epoch",
          "intertidal mudflat exposure can move the observed wet/dry edge",
          "sensor resolution and wet/dry pixel mixing limit positional precision",
          "automated spectral boundary requires field or orthophoto validation"
        ],
        "interpretation": "positive is apparent seaward movement; not tide-normalized shoreline change"
      },
      "geometry": {
        "type": "LineString",
        "coordinates": [
          [
            99.22489584201271,
            9.35526643925372
          ],
          [
            99.24455797543631,
            9.336427050696862
          ]
        ]
      }
    },
    {
      "type": "Feature",
      "properties": {
        "transect_id": "T033",
        "chainage_m": 3200.0,
        "spacing_m": 100.0,
        "length_m": 3000.0,
        "observations": 14,
        "positions_m": {
          "1985": -17.65,
          "1990": -17.65,
          "2000": -5.94,
          "2010": 35.72,
          "2017": 99.55,
          "2018": 67.57,
          "2019": 66.25,
          "2020": 66.25,
          "2021": 77.81,
          "2022": -10.67,
          "2023": -10.67,
          "2024": -18.51,
          "2025": 92.47,
          "2026": -18.51
        },
        "net_change_m": -0.86,
        "net_movement_m": -0.86,
        "rate_m_per_year": -0.02,
        "end_point_rate_m_per_year": -0.02,
        "regression_rate_m_per_year": 1.35,
        "start_year": 1985,
        "end_year": 2026,
        "n_observations": 14,
        "classification": "stable",
        "classification_detail": "stable_within_resolution",
        "confidence": "LOW",
        "confidence_reasons": [
          "tide level unavailable for every epoch",
          "intertidal mudflat exposure can move the observed wet/dry edge",
          "sensor resolution and wet/dry pixel mixing limit positional precision",
          "automated spectral boundary requires field or orthophoto validation"
        ],
        "interpretation": "positive is apparent seaward movement; not tide-normalized shoreline change"
      },
      "geometry": {
        "type": "LineString",
        "coordinates": [
          [
            99.22552812142108,
            9.355917404029526
          ],
          [
            99.24519025563207,
            9.337077981100643
          ]
        ]
      }
    },
    {
      "type": "Feature",
      "properties": {
        "transect_id": "T034",
        "chainage_m": 3300.0,
        "spacing_m": 100.0,
        "length_m": 3000.0,
        "observations": 14,
        "positions_m": {
          "1985": -19.5,
          "1990": -19.5,
          "2000": -13.38,
          "2010": 2.38,
          "2017": 55.06,
          "2018": 23.41,
          "2019": 23.41,
          "2020": 23.41,
          "2021": 31.0,
          "2022": -3.3,
          "2023": -3.3,
          "2024": -7.61,
          "2025": 61.9,
          "2026": -7.61
        },
        "net_change_m": 11.89,
        "net_movement_m": 11.89,
        "rate_m_per_year": 0.3,
        "end_point_rate_m_per_year": 0.3,
        "regression_rate_m_per_year": 1.06,
        "start_year": 1985,
        "end_year": 2026,
        "n_observations": 14,
        "classification": "stable",
        "classification_detail": "stable_within_resolution",
        "confidence": "LOW",
        "confidence_reasons": [
          "tide level unavailable for every epoch",
          "intertidal mudflat exposure can move the observed wet/dry edge",
          "sensor resolution and wet/dry pixel mixing limit positional precision",
          "automated spectral boundary requires field or orthophoto validation"
        ],
        "interpretation": "positive is apparent seaward movement; not tide-normalized shoreline change"
      },
      "geometry": {
        "type": "LineString",
        "coordinates": [
          [
            99.2324938891593,
            9.35999648100942
          ],
          [
            99.23976493163238,
            9.333840577812449
          ]
        ]
      }
    },
    {
      "type": "Feature",
      "properties": {
        "transect_id": "T035",
        "chainage_m": 3400.0,
        "spacing_m": 100.0,
        "length_m": 3000.0,
        "observations": 14,
        "positions_m": {
          "1985": -45.4,
          "1990": -45.4,
          "2000": -44.96,
          "2010": -39.94,
          "2017": 18.54,
          "2018": 6.97,
          "2019": 6.97,
          "2020": 6.97,
          "2021": 9.75,
          "2022": -19.87,
          "2023": -19.87,
          "2024": -21.18,
          "2025": -0.07,
          "2026": -21.18
        },
        "net_change_m": 24.22,
        "net_movement_m": 24.22,
        "rate_m_per_year": 0.62,
        "end_point_rate_m_per_year": 0.62,
        "regression_rate_m_per_year": 1.22,
        "start_year": 1985,
        "end_year": 2026,
        "n_observations": 14,
        "classification": "stable",
        "classification_detail": "stable_within_resolution",
        "confidence": "LOW",
        "confidence_reasons": [
          "tide level unavailable for every epoch",
          "intertidal mudflat exposure can move the observed wet/dry edge",
          "sensor resolution and wet/dry pixel mixing limit positional precision",
          "automated spectral boundary requires field or orthophoto validation"
        ],
        "interpretation": "positive is apparent seaward movement; not tide-normalized shoreline change"
      },
      "geometry": {
        "type": "LineString",
        "coordinates": [
          [
            99.23337175525083,
            9.36023720738467
          ],
          [
            99.24064273628555,
            9.334081288068926
          ]
        ]
      }
    },
    {
      "type": "Feature",
      "properties": {
        "transect_id": "T036",
        "chainage_m": 3500.0,
        "spacing_m": 100.0,
        "length_m": 3000.0,
        "observations": 14,
        "positions_m": {
          "1985": -21.87,
          "1990": -21.87,
          "2000": -24.57,
          "2010": -21.87,
          "2017": 17.24,
          "2018": 9.26,
          "2019": 9.26,
          "2020": 9.26,
          "2021": 9.26,
          "2022": 9.26,
          "2023": 9.26,
          "2024": 4.81,
          "2025": 4.81,
          "2026": 4.81
        },
        "net_change_m": 26.68,
        "net_movement_m": 26.68,
        "rate_m_per_year": 0.68,
        "end_point_rate_m_per_year": 0.68,
        "regression_rate_m_per_year": 0.99,
        "start_year": 1985,
        "end_year": 2026,
        "n_observations": 14,
        "classification": "stable",
        "classification_detail": "stable_within_resolution",
        "confidence": "LOW",
        "confidence_reasons": [
          "tide level unavailable for every epoch",
          "intertidal mudflat exposure can move the observed wet/dry edge",
          "sensor resolution and wet/dry pixel mixing limit positional precision",
          "automated spectral boundary requires field or orthophoto validation"
        ],
        "interpretation": "positive is apparent seaward movement; not tide-normalized shoreline change"
      },
      "geometry": {
        "type": "LineString",
        "coordinates": [
          [
            99.2342496225008,
            9.360477931554563
          ],
          [
            99.24152054209202,
            9.33432199612529
          ]
        ]
      }
    },
    {
      "type": "Feature",
      "properties": {
        "transect_id": "T037",
        "chainage_m": 3600.0,
        "spacing_m": 100.0,
        "length_m": 3000.0,
        "observations": 14,
        "positions_m": {
          "1985": -48.49,
          "1990": -48.49,
          "2000": -34.26,
          "2010": -5.5,
          "2017": 22.65,
          "2018": 34.39,
          "2019": 34.39,
          "2020": 22.65,
          "2021": 34.34,
          "2022": 22.65,
          "2023": 24.08,
          "2024": 24.08,
          "2025": 24.08,
          "2026": 24.08
        },
        "net_change_m": 72.57,
        "net_movement_m": 72.57,
        "rate_m_per_year": 1.86,
        "end_point_rate_m_per_year": 1.86,
        "regression_rate_m_per_year": 2.25,
        "start_year": 1985,
        "end_year": 2026,
        "n_observations": 14,
        "classification": "apparent_accretion",
        "classification_detail": "apparent_accretion",
        "confidence": "LOW",
        "confidence_reasons": [
          "tide level unavailable for every epoch",
          "intertidal mudflat exposure can move the observed wet/dry edge",
          "sensor resolution and wet/dry pixel mixing limit positional precision",
          "automated spectral boundary requires field or orthophoto validation"
        ],
        "interpretation": "positive is apparent seaward movement; not tide-normalized shoreline change"
      },
      "geometry": {
        "type": "LineString",
        "coordinates": [
          [
            99.23227909180058,
            9.359714152358606
          ],
          [
            99.24515918234631,
            9.33578434793174
          ]
        ]
      }
    },
    {
      "type": "Feature",
      "properties": {
        "transect_id": "T038",
        "chainage_m": 3700.0,
        "spacing_m": 100.0,
        "length_m": 3000.0,
        "observations": 14,
        "positions_m": {
          "1985": -44.53,
          "1990": -44.53,
          "2000": -31.93,
          "2010": -11.97,
          "2017": 17.94,
          "2018": 23.16,
          "2019": 17.94,
          "2020": 17.94,
          "2021": 17.94,
          "2022": 17.94,
          "2023": 3.16,
          "2024": 3.16,
          "2025": 3.16,
          "2026": 3.16
        },
        "net_change_m": 47.69,
        "net_movement_m": 47.69,
        "rate_m_per_year": 1.22,
        "end_point_rate_m_per_year": 1.22,
        "regression_rate_m_per_year": 1.63,
        "start_year": 1985,
        "end_year": 2026,
        "n_observations": 14,
        "classification": "apparent_accretion",
        "classification_detail": "apparent_accretion",
        "confidence": "LOW",
        "confidence_reasons": [
          "tide level unavailable for every epoch",
          "intertidal mudflat exposure can move the observed wet/dry edge",
          "sensor resolution and wet/dry pixel mixing limit positional precision",
          "automated spectral boundary requires field or orthophoto validation"
        ],
        "interpretation": "positive is apparent seaward movement; not tide-normalized shoreline change"
      },
      "geometry": {
        "type": "LineString",
        "coordinates": [
          [
            99.2254631045113,
            9.348807108108216
          ],
          [
            99.25277269352328,
            9.348041000502631
          ]
        ]
      }
    },
    {
      "type": "Feature",
      "properties": {
        "transect_id": "T039",
        "chainage_m": 3800.0,
        "spacing_m": 100.0,
        "length_m": 3000.0,
        "observations": 14,
        "positions_m": {
          "1985": 129.17,
          "1990": -29.83,
          "2000": 0.4,
          "2010": 0.4,
          "2017": 0.4,
          "2018": 20.56,
          "2019": 0.4,
          "2020": 0.4,
          "2021": 0.4,
          "2022": 0.4,
          "2023": 0.4,
          "2024": 0.4,
          "2025": 0.4,
          "2026": 0.4
        },
        "net_change_m": -128.77,
        "net_movement_m": -128.77,
        "rate_m_per_year": -3.3,
        "end_point_rate_m_per_year": -3.3,
        "regression_rate_m_per_year": -1.25,
        "start_year": 1985,
        "end_year": 2026,
        "n_observations": 14,
        "classification": "apparent_erosion",
        "classification_detail": "apparent_erosion",
        "confidence": "LOW",
        "confidence_reasons": [
          "tide level unavailable for every epoch",
          "intertidal mudflat exposure can move the observed wet/dry edge",
          "sensor resolution and wet/dry pixel mixing limit positional precision",
          "automated spectral boundary requires field or orthophoto validation"
        ],
        "interpretation": "positive is apparent seaward movement; not tide-normalized shoreline change"
      },
      "geometry": {
        "type": "LineString",
        "coordinates": [
          [
            99.22558855814505,
            9.351009293462825
          ],
          [
            99.25269856408902,
            9.347647071796995
          ]
        ]
      }
    },
    {
      "type": "Feature",
      "properties": {
        "transect_id": "T040",
        "chainage_m": 3900.0,
        "spacing_m": 100.0,
        "length_m": 3000.0,
        "observations": 14,
        "positions_m": {
          "1985": 324.93,
          "1990": -68.97,
          "2000": -36.37,
          "2010": -36.37,
          "2017": -36.37,
          "2018": -14.63,
          "2019": -36.37,
          "2020": -36.37,
          "2021": -36.37,
          "2022": -36.37,
          "2023": -36.37,
          "2024": -36.37,
          "2025": -36.37,
          "2026": -36.37
        },
        "net_change_m": -361.3,
        "net_movement_m": -361.3,
        "rate_m_per_year": -9.26,
        "end_point_rate_m_per_year": -9.26,
        "regression_rate_m_per_year": -4.15,
        "start_year": 1985,
        "end_year": 2026,
        "n_observations": 14,
        "classification": "apparent_erosion",
        "classification_detail": "apparent_erosion",
        "confidence": "LOW",
        "confidence_reasons": [
          "tide level unavailable for every epoch",
          "intertidal mudflat exposure can move the observed wet/dry edge",
          "sensor resolution and wet/dry pixel mixing limit positional precision",
          "automated spectral boundary requires field or orthophoto validation"
        ],
        "interpretation": "positive is apparent seaward movement; not tide-normalized shoreline change"
      },
      "geometry": {
        "type": "LineString",
        "coordinates": [
          [
            99.2268853957108,
            9.355489095317347
          ],
          [
            99.25201943293591,
            9.34485241402287
          ]
        ]
      }
    },
    {
      "type": "Feature",
      "properties": {
        "transect_id": "T041",
        "chainage_m": 4000.0,
        "spacing_m": 100.0,
        "length_m": 3000.0,
        "observations": 14,
        "positions_m": {
          "1985": 356.74,
          "1990": -41.44,
          "2000": -24.76,
          "2010": -25.53,
          "2017": -24.04,
          "2018": -2.96,
          "2019": -18.54,
          "2020": -24.04,
          "2021": -21.25,
          "2022": -24.04,
          "2023": -24.04,
          "2024": -24.04,
          "2025": -24.04,
          "2026": -17.98
        },
        "net_change_m": -374.72,
        "net_movement_m": -374.72,
        "rate_m_per_year": -9.61,
        "end_point_rate_m_per_year": -9.61,
        "regression_rate_m_per_year": -4.51,
        "start_year": 1985,
        "end_year": 2026,
        "n_observations": 14,
        "classification": "apparent_erosion",
        "classification_detail": "apparent_erosion",
        "confidence": "LOW",
        "confidence_reasons": [
          "tide level unavailable for every epoch",
          "intertidal mudflat exposure can move the observed wet/dry edge",
          "sensor resolution and wet/dry pixel mixing limit positional precision",
          "automated spectral boundary requires field or orthophoto validation"
        ],
        "interpretation": "positive is apparent seaward movement; not tide-normalized shoreline change"
      },
      "geometry": {
        "type": "LineString",
        "coordinates": [
          [
            99.22724236052211,
            9.356321202437808
          ],
          [
            99.25237644533564,
            9.345684495145052
          ]
        ]
      }
    },
    {
      "type": "Feature",
      "properties": {
        "transect_id": "T042",
        "chainage_m": 4100.0,
        "spacing_m": 100.0,
        "length_m": 3000.0,
        "observations": 14,
        "positions_m": {
          "1985": 361.77,
          "1990": -14.0,
          "2000": -6.47,
          "2010": -8.17,
          "2017": -12.68,
          "2018": 10.67,
          "2019": -1.16,
          "2020": -12.68,
          "2021": -6.79,
          "2022": -12.68,
          "2023": -12.68,
          "2024": -12.68,
          "2025": -12.68,
          "2026": 0.0
        },
        "net_change_m": -361.77,
        "net_movement_m": -361.77,
        "rate_m_per_year": -9.28,
        "end_point_rate_m_per_year": -9.28,
        "regression_rate_m_per_year": -4.61,
        "start_year": 1985,
        "end_year": 2026,
        "n_observations": 14,
        "classification": "apparent_erosion",
        "classification_detail": "apparent_erosion",
        "confidence": "LOW",
        "confidence_reasons": [
          "tide level unavailable for every epoch",
          "intertidal mudflat exposure can move the observed wet/dry edge",
          "sensor resolution and wet/dry pixel mixing limit positional precision",
          "automated spectral boundary requires field or orthophoto validation"
        ],
        "interpretation": "positive is apparent seaward movement; not tide-normalized shoreline change"
      },
      "geometry": {
        "type": "LineString",
        "coordinates": [
          [
            99.22951470715499,
            9.360200402365532
          ],
          [
            99.25095841723574,
            9.34338682270659
          ]
        ]
      }
    },
    {
      "type": "Feature",
      "properties": {
        "transect_id": "T043",
        "chainage_m": 4200.0,
        "spacing_m": 100.0,
        "length_m": 3000.0,
        "observations": 14,
        "positions_m": {
          "1985": 370.42,
          "1990": -6.05,
          "2000": -6.4,
          "2010": -9.02,
          "2017": -19.25,
          "2018": 6.79,
          "2019": -1.76,
          "2020": -19.25,
          "2021": -10.3,
          "2022": -19.25,
          "2023": -19.25,
          "2024": -19.25,
          "2025": -19.25,
          "2026": 0.0
        },
        "net_change_m": -370.42,
        "net_movement_m": -370.42,
        "rate_m_per_year": -9.5,
        "end_point_rate_m_per_year": -9.5,
        "regression_rate_m_per_year": -4.96,
        "start_year": 1985,
        "end_year": 2026,
        "n_observations": 14,
        "classification": "apparent_erosion",
        "classification_detail": "apparent_erosion",
        "confidence": "LOW",
        "confidence_reasons": [
          "tide level unavailable for every epoch",
          "intertidal mudflat exposure can move the observed wet/dry edge",
          "sensor resolution and wet/dry pixel mixing limit positional precision",
          "automated spectral boundary requires field or orthophoto validation"
        ],
        "interpretation": "positive is apparent seaward movement; not tide-normalized shoreline change"
      },
      "geometry": {
        "type": "LineString",
        "coordinates": [
          [
            99.23007900013738,
            9.360910336798622
          ],
          [
            99.25152272485899,
            9.344096723311706
          ]
        ]
      }
    },
    {
      "type": "Feature",
      "properties": {
        "transect_id": "T044",
        "chainage_m": 4300.0,
        "spacing_m": 100.0,
        "length_m": 3000.0,
        "observations": 14,
        "positions_m": {
          "1985": 377.84,
          "1990": 1.91,
          "2000": -6.33,
          "2010": -9.87,
          "2017": -25.82,
          "2018": 2.91,
          "2019": -2.36,
          "2020": -25.82,
          "2021": -13.82,
          "2022": -25.82,
          "2023": -25.82,
          "2024": -25.82,
          "2025": -25.82,
          "2026": 0.0
        },
        "net_change_m": -377.84,
        "net_movement_m": -377.84,
        "rate_m_per_year": -9.69,
        "end_point_rate_m_per_year": -9.69,
        "regression_rate_m_per_year": -5.3,
        "start_year": 1985,
        "end_year": 2026,
        "n_observations": 14,
        "classification": "apparent_erosion",
        "classification_detail": "apparent_erosion",
        "confidence": "LOW",
        "confidence_reasons": [
          "tide level unavailable for every epoch",
          "intertidal mudflat exposure can move the observed wet/dry edge",
          "sensor resolution and wet/dry pixel mixing limit positional precision",
          "automated spectral boundary requires field or orthophoto validation"
        ],
        "interpretation": "positive is apparent seaward movement; not tide-normalized shoreline change"
      },
      "geometry": {
        "type": "LineString",
        "coordinates": [
          [
            99.23064329542322,
            9.361620270250558
          ],
          [
            99.25208703478268,
            9.344806622932097
          ]
        ]
      }
    },
    {
      "type": "Feature",
      "properties": {
        "transect_id": "T045",
        "chainage_m": 4400.0,
        "spacing_m": 100.0,
        "length_m": 3000.0,
        "observations": 14,
        "positions_m": {
          "1985": 377.51,
          "1990": -3.63,
          "2000": -20.26,
          "2010": -24.92,
          "2017": -48.05,
          "2018": -14.87,
          "2019": -16.86,
          "2020": -48.05,
          "2021": -31.97,
          "2022": -48.05,
          "2023": -48.05,
          "2024": -48.05,
          "2025": -48.05,
          "2026": -13.78
        },
        "net_change_m": -391.29,
        "net_movement_m": -391.29,
        "rate_m_per_year": -10.03,
        "end_point_rate_m_per_year": -10.03,
        "regression_rate_m_per_year": -5.75,
        "start_year": 1985,
        "end_year": 2026,
        "n_observations": 14,
        "classification": "apparent_erosion",
        "classification_detail": "apparent_erosion",
        "confidence": "LOW",
        "confidence_reasons": [
          "tide level unavailable for every epoch",
          "intertidal mudflat exposure can move the observed wet/dry edge",
          "sensor resolution and wet/dry pixel mixing limit positional precision",
          "automated spectral boundary requires field or orthophoto validation"
        ],
        "interpretation": "positive is apparent seaward movement; not tide-normalized shoreline change"
      },
      "geometry": {
        "type": "LineString",
        "coordinates": [
          [
            99.2338637416358,
            9.364723846326118
          ],
          [
            99.25016550430178,
            9.342948917179788
          ]
        ]
      }
    },
    {
      "type": "Feature",
      "properties": {
        "transect_id": "T046",
        "chainage_m": 4500.0,
        "spacing_m": 100.0,
        "length_m": 3000.0,
        "observations": 14,
        "positions_m": {
          "1985": 254.74,
          "1990": -22.22,
          "2000": -40.58,
          "2010": -26.42,
          "2017": -37.84,
          "2018": -21.63,
          "2019": -22.91,
          "2020": -30.97,
          "2021": -28.17,
          "2022": -36.68,
          "2023": -37.84,
          "2024": -36.68,
          "2025": -36.68,
          "2026": -33.43
        },
        "net_change_m": -288.17,
        "net_movement_m": -288.17,
        "rate_m_per_year": -7.39,
        "end_point_rate_m_per_year": -7.39,
        "regression_rate_m_per_year": -3.73,
        "start_year": 1985,
        "end_year": 2026,
        "n_observations": 14,
        "classification": "apparent_erosion",
        "classification_detail": "apparent_erosion",
        "confidence": "LOW",
        "confidence_reasons": [
          "tide level unavailable for every epoch",
          "intertidal mudflat exposure can move the observed wet/dry edge",
          "sensor resolution and wet/dry pixel mixing limit positional precision",
          "automated spectral boundary requires field or orthophoto validation"
        ],
        "interpretation": "positive is apparent seaward movement; not tide-normalized shoreline change"
      },
      "geometry": {
        "type": "LineString",
        "coordinates": [
          [
            99.2345945706343,
            9.365263546618047
          ],
          [
            99.2508963112515,
            9.343488585080397
          ]
        ]
      }
    },
    {
      "type": "Feature",
      "properties": {
        "transect_id": "T047",
        "chainage_m": 4600.0,
        "spacing_m": 100.0,
        "length_m": 3000.0,
        "observations": 14,
        "positions_m": {
          "1985": 244.93,
          "1990": -21.98,
          "2000": -3.96,
          "2010": -3.87,
          "2017": -13.88,
          "2018": 2.33,
          "2019": -1.85,
          "2020": -6.52,
          "2021": -1.62,
          "2022": -11.2,
          "2023": -13.88,
          "2024": -11.2,
          "2025": -11.2,
          "2026": -15.61
        },
        "net_change_m": -260.54,
        "net_movement_m": -260.54,
        "rate_m_per_year": -6.68,
        "end_point_rate_m_per_year": -6.68,
        "regression_rate_m_per_year": -3.13,
        "start_year": 1985,
        "end_year": 2026,
        "n_observations": 14,
        "classification": "apparent_erosion",
        "classification_detail": "apparent_erosion",
        "confidence": "LOW",
        "confidence_reasons": [
          "tide level unavailable for every epoch",
          "intertidal mudflat exposure can move the observed wet/dry edge",
          "sensor resolution and wet/dry pixel mixing limit positional precision",
          "automated spectral boundary requires field or orthophoto validation"
        ],
        "interpretation": "positive is apparent seaward movement; not tide-normalized shoreline change"
      },
      "geometry": {
        "type": "LineString",
        "coordinates": [
          [
            99.23532540187207,
            9.365803245331803
          ],
          [
            99.25162712043371,
            9.34402825140244
          ]
        ]
      }
    },
    {
      "type": "Feature",
      "properties": {
        "transect_id": "T048",
        "chainage_m": 4700.0,
        "spacing_m": 100.0,
        "length_m": 3000.0,
        "observations": 14,
        "positions_m": {
          "1985": 247.09,
          "1990": -13.22,
          "2000": 15.84,
          "2010": 3.25,
          "2017": -5.26,
          "2018": 18.31,
          "2019": 3.84,
          "2020": -3.98,
          "2021": 9.18,
          "2022": -1.18,
          "2023": -5.26,
          "2024": -1.18,
          "2025": -1.18,
          "2026": -3.9
        },
        "net_change_m": -250.99,
        "net_movement_m": -250.99,
        "rate_m_per_year": -6.44,
        "end_point_rate_m_per_year": -6.44,
        "regression_rate_m_per_year": -3.09,
        "start_year": 1985,
        "end_year": 2026,
        "n_observations": 14,
        "classification": "apparent_erosion",
        "classification_detail": "apparent_erosion",
        "confidence": "LOW",
        "confidence_reasons": [
          "tide level unavailable for every epoch",
          "intertidal mudflat exposure can move the observed wet/dry edge",
          "sensor resolution and wet/dry pixel mixing limit positional precision",
          "automated spectral boundary requires field or orthophoto validation"
        ],
        "interpretation": "positive is apparent seaward movement; not tide-normalized shoreline change"
      },
      "geometry": {
        "type": "LineString",
        "coordinates": [
          [
            99.24074428083303,
            9.368441605076564
          ],
          [
            99.24778917178416,
            9.342224706144247
          ]
        ]
      }
    },
    {
      "type": "Feature",
      "properties": {
        "transect_id": "T049",
        "chainage_m": 4800.0,
        "spacing_m": 100.0,
        "length_m": 3000.0,
        "observations": 14,
        "positions_m": {
          "1985": 195.5,
          "1990": -22.86,
          "2000": 13.09,
          "2010": -0.59,
          "2017": -4.34,
          "2018": 12.28,
          "2019": 3.36,
          "2020": -7.01,
          "2021": -0.4,
          "2022": -10.84,
          "2023": -0.69,
          "2024": -10.84,
          "2025": -10.84,
          "2026": -10.84
        },
        "net_change_m": -206.34,
        "net_movement_m": -206.34,
        "rate_m_per_year": -5.29,
        "end_point_rate_m_per_year": -5.29,
        "regression_rate_m_per_year": -2.49,
        "start_year": 1985,
        "end_year": 2026,
        "n_observations": 14,
        "classification": "apparent_erosion",
        "classification_detail": "apparent_erosion",
        "confidence": "LOW",
        "confidence_reasons": [
          "tide level unavailable for every epoch",
          "intertidal mudflat exposure can move the observed wet/dry edge",
          "sensor resolution and wet/dry pixel mixing limit positional precision",
          "automated spectral boundary requires field or orthophoto validation"
        ],
        "interpretation": "positive is apparent seaward movement; not tide-normalized shoreline change"
      },
      "geometry": {
        "type": "LineString",
        "coordinates": [
          [
            99.24162421591727,
            9.368674838346237
          ],
          [
            99.24866904475621,
            9.342457923855134
          ]
        ]
      }
    },
    {
      "type": "Feature",
      "properties": {
        "transect_id": "T050",
        "chainage_m": 4900.0,
        "spacing_m": 100.0,
        "length_m": 3000.0,
        "observations": 14,
        "positions_m": {
          "1985": 143.9,
          "1990": -16.26,
          "2000": 10.34,
          "2010": 3.69,
          "2017": 0.71,
          "2018": 13.18,
          "2019": 14.29,
          "2020": 7.21,
          "2021": 9.93,
          "2022": -2.65,
          "2023": 8.97,
          "2024": -2.65,
          "2025": -2.65,
          "2026": -2.65
        },
        "net_change_m": -146.55,
        "net_movement_m": -146.55,
        "rate_m_per_year": -3.76,
        "end_point_rate_m_per_year": -3.76,
        "regression_rate_m_per_year": -1.62,
        "start_year": 1985,
        "end_year": 2026,
        "n_observations": 14,
        "classification": "apparent_erosion",
        "classification_detail": "apparent_erosion",
        "confidence": "LOW",
        "confidence_reasons": [
          "tide level unavailable for every epoch",
          "intertidal mudflat exposure can move the observed wet/dry edge",
          "sensor resolution and wet/dry pixel mixing limit positional precision",
          "automated spectral boundary requires field or orthophoto validation"
        ],
        "interpretation": "positive is apparent seaward movement; not tide-normalized shoreline change"
      },
      "geometry": {
        "type": "LineString",
        "coordinates": [
          [
            99.24250415212394,
            9.36890806939845
          ],
          [
            99.24954891884562,
            9.342691139353882
          ]
        ]
      }
    },
    {
      "type": "Feature",
      "properties": {
        "transect_id": "T051",
        "chainage_m": 5000.0,
        "spacing_m": 100.0,
        "length_m": 3000.0,
        "observations": 14,
        "positions_m": {
          "1985": 99.22,
          "1990": 4.2,
          "2000": 7.58,
          "2010": 7.98,
          "2017": 5.75,
          "2018": 25.2,
          "2019": 25.22,
          "2020": 14.7,
          "2021": 25.13,
          "2022": 5.53,
          "2023": 9.8,
          "2024": 5.53,
          "2025": 5.53,
          "2026": 5.53
        },
        "net_change_m": -93.69,
        "net_movement_m": -93.69,
        "rate_m_per_year": -2.4,
        "end_point_rate_m_per_year": -2.4,
        "regression_rate_m_per_year": -1.01,
        "start_year": 1985,
        "end_year": 2026,
        "n_observations": 14,
        "classification": "apparent_erosion",
        "classification_detail": "apparent_erosion",
        "confidence": "LOW",
        "confidence_reasons": [
          "tide level unavailable for every epoch",
          "intertidal mudflat exposure can move the observed wet/dry edge",
          "sensor resolution and wet/dry pixel mixing limit positional precision",
          "automated spectral boundary requires field or orthophoto validation"
        ],
        "interpretation": "positive is apparent seaward movement; not tide-normalized shoreline change"
      },
      "geometry": {
        "type": "LineString",
        "coordinates": [
          [
            99.2433840894528,
            9.369141298233014
          ],
          [
            99.25042879405228,
            9.342924352640345
          ]
        ]
      }
    },
    {
      "type": "Feature",
      "properties": {
        "transect_id": "T052",
        "chainage_m": 5100.0,
        "spacing_m": 100.0,
        "length_m": 3000.0,
        "observations": 14,
        "positions_m": {
          "1985": 154.69,
          "1990": 3.68,
          "2000": 4.83,
          "2010": 3.68,
          "2017": -7.29,
          "2018": 5.35,
          "2019": 5.35,
          "2020": 0.49,
          "2021": 5.35,
          "2022": -12.91,
          "2023": -4.64,
          "2024": -7.29,
          "2025": -11.97,
          "2026": -7.29
        },
        "net_change_m": -161.98,
        "net_movement_m": -161.98,
        "rate_m_per_year": -4.15,
        "end_point_rate_m_per_year": -4.15,
        "regression_rate_m_per_year": -2.2,
        "start_year": 1985,
        "end_year": 2026,
        "n_observations": 14,
        "classification": "apparent_erosion",
        "classification_detail": "apparent_erosion",
        "confidence": "LOW",
        "confidence_reasons": [
          "tide level unavailable for every epoch",
          "intertidal mudflat exposure can move the observed wet/dry edge",
          "sensor resolution and wet/dry pixel mixing limit positional precision",
          "automated spectral boundary requires field or orthophoto validation"
        ],
        "interpretation": "positive is apparent seaward movement; not tide-normalized shoreline change"
      },
      "geometry": {
        "type": "LineString",
        "coordinates": [
          [
            99.24426402790374,
            9.369374524849778
          ],
          [
            99.25130867037593,
            9.343157563714339
          ]
        ]
      }
    },
    {
      "type": "Feature",
      "properties": {
        "transect_id": "T053",
        "chainage_m": 5200.0,
        "spacing_m": 100.0,
        "length_m": 3000.0,
        "observations": 14,
        "positions_m": {
          "1985": 181.95,
          "1990": -2.35,
          "2000": 2.08,
          "2010": -2.35,
          "2017": -10.59,
          "2018": -0.4,
          "2019": -0.4,
          "2020": -8.28,
          "2021": -0.4,
          "2022": -14.89,
          "2023": -11.86,
          "2024": -18.19,
          "2025": -14.46,
          "2026": -10.59
        },
        "net_change_m": -192.54,
        "net_movement_m": -192.54,
        "rate_m_per_year": -4.94,
        "end_point_rate_m_per_year": -4.94,
        "regression_rate_m_per_year": -2.62,
        "start_year": 1985,
        "end_year": 2026,
        "n_observations": 14,
        "classification": "apparent_erosion",
        "classification_detail": "apparent_erosion",
        "confidence": "LOW",
        "confidence_reasons": [
          "tide level unavailable for every epoch",
          "intertidal mudflat exposure can move the observed wet/dry edge",
          "sensor resolution and wet/dry pixel mixing limit positional precision",
          "automated spectral boundary requires field or orthophoto validation"
        ],
        "interpretation": "positive is apparent seaward movement; not tide-normalized shoreline change"
      },
      "geometry": {
        "type": "LineString",
        "coordinates": [
          [
            99.24514396747657,
            9.369607749248573
          ],
          [
            99.25218854781647,
            9.34339077257571
          ]
        ]
      }
    },
    {
      "type": "Feature",
      "properties": {
        "transect_id": "T054",
        "chainage_m": 5300.0,
        "spacing_m": 100.0,
        "length_m": 3000.0,
        "observations": 14,
        "positions_m": {
          "1985": 202.63,
          "1990": -6.93,
          "2000": 0.77,
          "2010": -6.93,
          "2017": 2.31,
          "2018": 2.07,
          "2019": 2.31,
          "2020": 2.07,
          "2021": 2.31,
          "2022": -11.55,
          "2023": -16.42,
          "2024": -22.74,
          "2025": -15.52,
          "2026": 2.07
        },
        "net_change_m": -200.56,
        "net_movement_m": -200.56,
        "rate_m_per_year": -5.14,
        "end_point_rate_m_per_year": -5.14,
        "regression_rate_m_per_year": -2.71,
        "start_year": 1985,
        "end_year": 2026,
        "n_observations": 14,
        "classification": "apparent_erosion",
        "classification_detail": "apparent_erosion",
        "confidence": "LOW",
        "confidence_reasons": [
          "tide level unavailable for every epoch",
          "intertidal mudflat exposure can move the observed wet/dry edge",
          "sensor resolution and wet/dry pixel mixing limit positional precision",
          "automated spectral boundary requires field or orthophoto validation"
        ],
        "interpretation": "positive is apparent seaward movement; not tide-normalized shoreline change"
      },
      "geometry": {
        "type": "LineString",
        "coordinates": [
          [
            99.24490938574246,
            9.369508154324059
          ],
          [
            99.25417454407749,
            9.343981582620103
          ]
        ]
      }
    },
    {
      "type": "Feature",
      "properties": {
        "transect_id": "T055",
        "chainage_m": 5400.0,
        "spacing_m": 100.0,
        "length_m": 3000.0,
        "observations": 14,
        "positions_m": {
          "1985": 150.73,
          "1990": -0.36,
          "2000": 10.26,
          "2010": 5.74,
          "2017": -2.29,
          "2018": -6.25,
          "2019": -2.29,
          "2020": -4.47,
          "2021": -2.29,
          "2022": -9.07,
          "2023": -7.78,
          "2024": -16.58,
          "2025": -5.8,
          "2026": -7.78
        },
        "net_change_m": -158.51,
        "net_movement_m": -158.51,
        "rate_m_per_year": -4.06,
        "end_point_rate_m_per_year": -4.06,
        "regression_rate_m_per_year": -2.22,
        "start_year": 1985,
        "end_year": 2026,
        "n_observations": 14,
        "classification": "apparent_erosion",
        "classification_detail": "apparent_erosion",
        "confidence": "LOW",
        "confidence_reasons": [
          "tide level unavailable for every epoch",
          "intertidal mudflat exposure can move the observed wet/dry edge",
          "sensor resolution and wet/dry pixel mixing limit positional precision",
          "automated spectral boundary requires field or orthophoto validation"
        ],
        "interpretation": "positive is apparent seaward movement; not tide-normalized shoreline change"
      },
      "geometry": {
        "type": "LineString",
        "coordinates": [
          [
            99.24528290296347,
            9.36966754343606
          ],
          [
            99.25549050454057,
            9.344498041393475
          ]
        ]
      }
    },
    {
      "type": "Feature",
      "properties": {
        "transect_id": "T056",
        "chainage_m": 5500.0,
        "spacing_m": 100.0,
        "length_m": 3000.0,
        "observations": 14,
        "positions_m": {
          "1985": 78.31,
          "1990": 2.62,
          "2000": 5.76,
          "2010": 4.4,
          "2017": 4.14,
          "2018": -1.57,
          "2019": 4.14,
          "2020": 5.59,
          "2021": 4.14,
          "2022": -9.55,
          "2023": -7.96,
          "2024": -15.91,
          "2025": -8.03,
          "2026": -7.96
        },
        "net_change_m": -86.27,
        "net_movement_m": -86.27,
        "rate_m_per_year": -2.21,
        "end_point_rate_m_per_year": -2.21,
        "regression_rate_m_per_year": -1.25,
        "start_year": 1985,
        "end_year": 2026,
        "n_observations": 14,
        "classification": "apparent_erosion",
        "classification_detail": "apparent_erosion",
        "confidence": "LOW",
        "confidence_reasons": [
          "tide level unavailable for every epoch",
          "intertidal mudflat exposure can move the observed wet/dry edge",
          "sensor resolution and wet/dry pixel mixing limit positional precision",
          "automated spectral boundary requires field or orthophoto validation"
        ],
        "interpretation": "positive is apparent seaward movement; not tide-normalized shoreline change"
      },
      "geometry": {
        "type": "LineString",
        "coordinates": [
          [
            99.25034628837194,
            9.370833547595275
          ],
          [
            99.25217408452951,
            9.343759857391886
          ]
        ]
      }
    },
    {
      "type": "Feature",
      "properties": {
        "transect_id": "T057",
        "chainage_m": 5600.0,
        "spacing_m": 100.0,
        "length_m": 3000.0,
        "observations": 14,
        "positions_m": {
          "1985": 19.97,
          "1990": 0.89,
          "2000": 0.89,
          "2010": 0.89,
          "2017": 10.91,
          "2018": -9.13,
          "2019": 10.91,
          "2020": -9.13,
          "2021": 10.91,
          "2022": -9.13,
          "2023": -9.13,
          "2024": -9.13,
          "2025": -9.13,
          "2026": -9.13
        },
        "net_change_m": -29.1,
        "net_movement_m": -29.1,
        "rate_m_per_year": -0.75,
        "end_point_rate_m_per_year": -0.75,
        "regression_rate_m_per_year": -0.44,
        "start_year": 1985,
        "end_year": 2026,
        "n_observations": 14,
        "classification": "stable",
        "classification_detail": "stable_within_resolution",
        "confidence": "LOW",
        "confidence_reasons": [
          "tide level unavailable for every epoch",
          "intertidal mudflat exposure can move the observed wet/dry edge",
          "sensor resolution and wet/dry pixel mixing limit positional precision",
          "automated spectral boundary requires field or orthophoto validation"
        ],
        "interpretation": "positive is apparent seaward movement; not tide-normalized shoreline change"
      },
      "geometry": {
        "type": "LineString",
        "coordinates": [
          [
            99.25125498829996,
            9.370894058070157
          ],
          [
            99.25308271423116,
            9.343820365118125
          ]
        ]
      }
    },
    {
      "type": "Feature",
      "properties": {
        "transect_id": "T058",
        "chainage_m": 5700.0,
        "spacing_m": 100.0,
        "length_m": 3000.0,
        "observations": 14,
        "positions_m": {
          "1985": 7.67,
          "1990": 7.67,
          "2000": 7.67,
          "2010": 7.67,
          "2017": 17.69,
          "2018": -2.35,
          "2019": 17.69,
          "2020": 17.69,
          "2021": 17.69,
          "2022": -2.35,
          "2023": 17.69,
          "2024": -2.35,
          "2025": -2.35,
          "2026": -2.35
        },
        "net_change_m": -10.02,
        "net_movement_m": -10.02,
        "rate_m_per_year": -0.26,
        "end_point_rate_m_per_year": -0.26,
        "regression_rate_m_per_year": -0.07,
        "start_year": 1985,
        "end_year": 2026,
        "n_observations": 14,
        "classification": "stable",
        "classification_detail": "stable_within_resolution",
        "confidence": "LOW",
        "confidence_reasons": [
          "tide level unavailable for every epoch",
          "intertidal mudflat exposure can move the observed wet/dry edge",
          "sensor resolution and wet/dry pixel mixing limit positional precision",
          "automated spectral boundary requires field or orthophoto validation"
        ],
        "interpretation": "positive is apparent seaward movement; not tide-normalized shoreline change"
      },
      "geometry": {
        "type": "LineString",
        "coordinates": [
          [
            99.25216368848103,
            9.370954566206064
          ],
          [
            99.25399134418437,
            9.343880870512185
          ]
        ]
      }
    }
  ]
}
