{
  "type": "FeatureCollection",
  "features": [
    {
      "type": "Feature",
      "properties": {
        "transect_id": "T001",
        "chainage_m": 0.0,
        "spacing_m": 100.0,
        "length_m": 3000.0,
        "observations": 1,
        "positions_m": {
          "2023": null,
          "2024": null,
          "2025": null,
          "2026": 0.0
        },
        "net_change_m": null,
        "net_movement_m": null,
        "rate_m_per_year": null,
        "end_point_rate_m_per_year": null,
        "regression_rate_m_per_year": null,
        "start_year": 2023,
        "end_year": 2026,
        "n_observations": 1,
        "classification": "insufficient_data",
        "classification_detail": "insufficient_data",
        "confidence": "LOW",
        "confidence_reasons": [
          "tide level unavailable for every epoch",
          "intertidal mudflat exposure can move the observed wet/dry edge",
          "sensor resolution and wet/dry pixel mixing limit positional precision",
          "automated spectral boundary requires field or orthophoto validation"
        ],
        "interpretation": "positive is apparent seaward movement; not tide-normalized shoreline change"
      },
      "geometry": {
        "type": "LineString",
        "coordinates": [
          [
            99.20309340729021,
            9.330342077830316
          ],
          [
            99.22953822934569,
            9.323533321500804
          ]
        ]
      }
    },
    {
      "type": "Feature",
      "properties": {
        "transect_id": "T002",
        "chainage_m": 100.0,
        "spacing_m": 100.0,
        "length_m": 3000.0,
        "observations": 2,
        "positions_m": {
          "2023": -18.89,
          "2024": null,
          "2025": null,
          "2026": -3.44
        },
        "net_change_m": 15.45,
        "net_movement_m": 15.45,
        "rate_m_per_year": 5.15,
        "end_point_rate_m_per_year": 5.15,
        "regression_rate_m_per_year": 5.15,
        "start_year": 2023,
        "end_year": 2026,
        "n_observations": 2,
        "classification": "insufficient_data",
        "classification_detail": "insufficient_data",
        "confidence": "LOW",
        "confidence_reasons": [
          "tide level unavailable for every epoch",
          "intertidal mudflat exposure can move the observed wet/dry edge",
          "sensor resolution and wet/dry pixel mixing limit positional precision",
          "automated spectral boundary requires field or orthophoto validation"
        ],
        "interpretation": "positive is apparent seaward movement; not tide-normalized shoreline change"
      },
      "geometry": {
        "type": "LineString",
        "coordinates": [
          [
            99.20332187720145,
            9.33121763542568
          ],
          [
            99.22976675998697,
            9.324408861056488
          ]
        ]
      }
    },
    {
      "type": "Feature",
      "properties": {
        "transect_id": "T003",
        "chainage_m": 200.0,
        "spacing_m": 100.0,
        "length_m": 3000.0,
        "observations": 4,
        "positions_m": {
          "2023": -26.22,
          "2024": -37.21,
          "2025": -26.41,
          "2026": -6.87
        },
        "net_change_m": 19.35,
        "net_movement_m": 19.35,
        "rate_m_per_year": 6.45,
        "end_point_rate_m_per_year": 6.45,
        "regression_rate_m_per_year": 6.89,
        "start_year": 2023,
        "end_year": 2026,
        "n_observations": 4,
        "classification": "stable",
        "classification_detail": "stable_within_resolution",
        "confidence": "LOW",
        "confidence_reasons": [
          "tide level unavailable for every epoch",
          "intertidal mudflat exposure can move the observed wet/dry edge",
          "sensor resolution and wet/dry pixel mixing limit positional precision",
          "automated spectral boundary requires field or orthophoto validation"
        ],
        "interpretation": "positive is apparent seaward movement; not tide-normalized shoreline change"
      },
      "geometry": {
        "type": "LineString",
        "coordinates": [
          [
            99.2035503482966,
            9.332093192807074
          ],
          [
            99.2299952918173,
            9.325284400395086
          ]
        ]
      }
    },
    {
      "type": "Feature",
      "properties": {
        "transect_id": "T004",
        "chainage_m": 300.0,
        "spacing_m": 100.0,
        "length_m": 3000.0,
        "observations": 4,
        "positions_m": {
          "2023": -33.55,
          "2024": -47.75,
          "2025": -29.53,
          "2026": -10.31
        },
        "net_change_m": 23.24,
        "net_movement_m": 23.24,
        "rate_m_per_year": 7.75,
        "end_point_rate_m_per_year": 7.75,
        "regression_rate_m_per_year": 8.79,
        "start_year": 2023,
        "end_year": 2026,
        "n_observations": 4,
        "classification": "apparent_accretion",
        "classification_detail": "apparent_accretion",
        "confidence": "LOW",
        "confidence_reasons": [
          "tide level unavailable for every epoch",
          "intertidal mudflat exposure can move the observed wet/dry edge",
          "sensor resolution and wet/dry pixel mixing limit positional precision",
          "automated spectral boundary requires field or orthophoto validation"
        ],
        "interpretation": "positive is apparent seaward movement; not tide-normalized shoreline change"
      },
      "geometry": {
        "type": "LineString",
        "coordinates": [
          [
            99.2037788205758,
            9.332968749974446
          ],
          [
            99.23022382483687,
            9.326159939516547
          ]
        ]
      }
    },
    {
      "type": "Feature",
      "properties": {
        "transect_id": "T005",
        "chainage_m": 400.0,
        "spacing_m": 100.0,
        "length_m": 3000.0,
        "observations": 4,
        "positions_m": {
          "2023": -20.78,
          "2024": -31.08,
          "2025": -22.64,
          "2026": 2.2
        },
        "net_change_m": 22.98,
        "net_movement_m": 22.98,
        "rate_m_per_year": 7.66,
        "end_point_rate_m_per_year": 7.66,
        "regression_rate_m_per_year": 7.74,
        "start_year": 2023,
        "end_year": 2026,
        "n_observations": 4,
        "classification": "apparent_accretion",
        "classification_detail": "apparent_accretion",
        "confidence": "LOW",
        "confidence_reasons": [
          "tide level unavailable for every epoch",
          "intertidal mudflat exposure can move the observed wet/dry edge",
          "sensor resolution and wet/dry pixel mixing limit positional precision",
          "automated spectral boundary requires field or orthophoto validation"
        ],
        "interpretation": "positive is apparent seaward movement; not tide-normalized shoreline change"
      },
      "geometry": {
        "type": "LineString",
        "coordinates": [
          [
            99.20400729403924,
            9.333844306927736
          ],
          [
            99.23045235904581,
            9.327035478420852
          ]
        ]
      }
    },
    {
      "type": "Feature",
      "properties": {
        "transect_id": "T006",
        "chainage_m": 500.0,
        "spacing_m": 100.0,
        "length_m": 3000.0,
        "observations": 4,
        "positions_m": {
          "2023": -4.11,
          "2024": -17.72,
          "2025": -15.76,
          "2026": 2.58
        },
        "net_change_m": 6.69,
        "net_movement_m": 6.69,
        "rate_m_per_year": 2.23,
        "end_point_rate_m_per_year": 2.23,
        "regression_rate_m_per_year": 2.2,
        "start_year": 2023,
        "end_year": 2026,
        "n_observations": 4,
        "classification": "stable",
        "classification_detail": "stable_within_resolution",
        "confidence": "LOW",
        "confidence_reasons": [
          "tide level unavailable for every epoch",
          "intertidal mudflat exposure can move the observed wet/dry edge",
          "sensor resolution and wet/dry pixel mixing limit positional precision",
          "automated spectral boundary requires field or orthophoto validation"
        ],
        "interpretation": "positive is apparent seaward movement; not tide-normalized shoreline change"
      },
      "geometry": {
        "type": "LineString",
        "coordinates": [
          [
            99.20423576868708,
            9.334719863666914
          ],
          [
            99.23068089444429,
            9.327911017107926
          ]
        ]
      }
    },
    {
      "type": "Feature",
      "properties": {
        "transect_id": "T007",
        "chainage_m": 600.0,
        "spacing_m": 100.0,
        "length_m": 3000.0,
        "observations": 4,
        "positions_m": {
          "2023": -4.7,
          "2024": -25.05,
          "2025": -12.77,
          "2026": 1.78
        },
        "net_change_m": 6.48,
        "net_movement_m": 6.48,
        "rate_m_per_year": 2.16,
        "end_point_rate_m_per_year": 2.16,
        "regression_rate_m_per_year": 3.17,
        "start_year": 2023,
        "end_year": 2026,
        "n_observations": 4,
        "classification": "stable",
        "classification_detail": "stable_within_resolution",
        "confidence": "LOW",
        "confidence_reasons": [
          "tide level unavailable for every epoch",
          "intertidal mudflat exposure can move the observed wet/dry edge",
          "sensor resolution and wet/dry pixel mixing limit positional precision",
          "automated spectral boundary requires field or orthophoto validation"
        ],
        "interpretation": "positive is apparent seaward movement; not tide-normalized shoreline change"
      },
      "geometry": {
        "type": "LineString",
        "coordinates": [
          [
            99.20446424451947,
            9.335595420191936
          ],
          [
            99.23090943103249,
            9.32878655557773
          ]
        ]
      }
    },
    {
      "type": "Feature",
      "properties": {
        "transect_id": "T008",
        "chainage_m": 700.0,
        "spacing_m": 100.0,
        "length_m": 3000.0,
        "observations": 4,
        "positions_m": {
          "2023": -7.32,
          "2024": -32.38,
          "2025": -13.58,
          "2026": 0.97
        },
        "net_change_m": 8.29,
        "net_movement_m": 8.29,
        "rate_m_per_year": 2.76,
        "end_point_rate_m_per_year": 2.76,
        "regression_rate_m_per_year": 4.37,
        "start_year": 2023,
        "end_year": 2026,
        "n_observations": 4,
        "classification": "stable",
        "classification_detail": "stable_within_resolution",
        "confidence": "LOW",
        "confidence_reasons": [
          "tide level unavailable for every epoch",
          "intertidal mudflat exposure can move the observed wet/dry edge",
          "sensor resolution and wet/dry pixel mixing limit positional precision",
          "automated spectral boundary requires field or orthophoto validation"
        ],
        "interpretation": "positive is apparent seaward movement; not tide-normalized shoreline change"
      },
      "geometry": {
        "type": "LineString",
        "coordinates": [
          [
            99.20469272153657,
            9.336470976502737
          ],
          [
            99.23113796881056,
            9.329662093830237
          ]
        ]
      }
    },
    {
      "type": "Feature",
      "properties": {
        "transect_id": "T009",
        "chainage_m": 800.0,
        "spacing_m": 100.0,
        "length_m": 3000.0,
        "observations": 4,
        "positions_m": {
          "2023": -4.47,
          "2024": -21.35,
          "2025": -13.06,
          "2026": 0.17
        },
        "net_change_m": 4.64,
        "net_movement_m": 4.64,
        "rate_m_per_year": 1.55,
        "end_point_rate_m_per_year": 1.55,
        "regression_rate_m_per_year": 2.22,
        "start_year": 2023,
        "end_year": 2026,
        "n_observations": 4,
        "classification": "stable",
        "classification_detail": "stable_within_resolution",
        "confidence": "LOW",
        "confidence_reasons": [
          "tide level unavailable for every epoch",
          "intertidal mudflat exposure can move the observed wet/dry edge",
          "sensor resolution and wet/dry pixel mixing limit positional precision",
          "automated spectral boundary requires field or orthophoto validation"
        ],
        "interpretation": "positive is apparent seaward movement; not tide-normalized shoreline change"
      },
      "geometry": {
        "type": "LineString",
        "coordinates": [
          [
            99.20502791442394,
            9.337731999191703
          ],
          [
            99.23125976671268,
            9.330152173632305
          ]
        ]
      }
    },
    {
      "type": "Feature",
      "properties": {
        "transect_id": "T010",
        "chainage_m": 900.0,
        "spacing_m": 100.0,
        "length_m": 3000.0,
        "observations": 4,
        "positions_m": {
          "2023": 17.6,
          "2024": 41.6,
          "2025": 17.38,
          "2026": 7.59
        },
        "net_change_m": -10.01,
        "net_movement_m": -10.01,
        "rate_m_per_year": -3.34,
        "end_point_rate_m_per_year": -3.34,
        "regression_rate_m_per_year": -5.43,
        "start_year": 2023,
        "end_year": 2026,
        "n_observations": 4,
        "classification": "stable",
        "classification_detail": "stable_within_resolution",
        "confidence": "LOW",
        "confidence_reasons": [
          "tide level unavailable for every epoch",
          "intertidal mudflat exposure can move the observed wet/dry edge",
          "sensor resolution and wet/dry pixel mixing limit positional precision",
          "automated spectral boundary requires field or orthophoto validation"
        ],
        "interpretation": "positive is apparent seaward movement; not tide-normalized shoreline change"
      },
      "geometry": {
        "type": "LineString",
        "coordinates": [
          [
            99.20621411704148,
            9.340687556514174
          ],
          [
            99.23079699485045,
            9.328850375137339
          ]
        ]
      }
    },
    {
      "type": "Feature",
      "properties": {
        "transect_id": "T011",
        "chainage_m": 1000.0,
        "spacing_m": 100.0,
        "length_m": 3000.0,
        "observations": 4,
        "positions_m": {
          "2023": 13.76,
          "2024": 53.31,
          "2025": 11.25,
          "2026": 4.33
        },
        "net_change_m": -9.43,
        "net_movement_m": -9.43,
        "rate_m_per_year": -3.14,
        "end_point_rate_m_per_year": -3.14,
        "regression_rate_m_per_year": -7.04,
        "start_year": 2023,
        "end_year": 2026,
        "n_observations": 4,
        "classification": "stable",
        "classification_detail": "stable_within_resolution",
        "confidence": "LOW",
        "confidence_reasons": [
          "tide level unavailable for every epoch",
          "intertidal mudflat exposure can move the observed wet/dry edge",
          "sensor resolution and wet/dry pixel mixing limit positional precision",
          "automated spectral boundary requires field or orthophoto validation"
        ],
        "interpretation": "positive is apparent seaward movement; not tide-normalized shoreline change"
      },
      "geometry": {
        "type": "LineString",
        "coordinates": [
          [
            99.20661135786499,
            9.341501454182529
          ],
          [
            99.23119427802486,
            9.329664244885276
          ]
        ]
      }
    },
    {
      "type": "Feature",
      "properties": {
        "transect_id": "T012",
        "chainage_m": 1100.0,
        "spacing_m": 100.0,
        "length_m": 3000.0,
        "observations": 4,
        "positions_m": {
          "2023": 9.91,
          "2024": 40.33,
          "2025": 5.13,
          "2026": 1.07
        },
        "net_change_m": -8.84,
        "net_movement_m": -8.84,
        "rate_m_per_year": -2.95,
        "end_point_rate_m_per_year": -2.95,
        "regression_rate_m_per_year": -6.17,
        "start_year": 2023,
        "end_year": 2026,
        "n_observations": 4,
        "classification": "stable",
        "classification_detail": "stable_within_resolution",
        "confidence": "LOW",
        "confidence_reasons": [
          "tide level unavailable for every epoch",
          "intertidal mudflat exposure can move the observed wet/dry edge",
          "sensor resolution and wet/dry pixel mixing limit positional precision",
          "automated spectral boundary requires field or orthophoto validation"
        ],
        "interpretation": "positive is apparent seaward movement; not tide-normalized shoreline change"
      },
      "geometry": {
        "type": "LineString",
        "coordinates": [
          [
            99.2070086005646,
            9.3423153513298
          ],
          [
            99.23159156307689,
            9.330478114107894
          ]
        ]
      }
    },
    {
      "type": "Feature",
      "properties": {
        "transect_id": "T013",
        "chainage_m": 1200.0,
        "spacing_m": 100.0,
        "length_m": 3000.0,
        "observations": 4,
        "positions_m": {
          "2023": -6.59,
          "2024": 15.61,
          "2025": -13.88,
          "2026": -15.05
        },
        "net_change_m": -8.46,
        "net_movement_m": -8.46,
        "rate_m_per_year": -2.82,
        "end_point_rate_m_per_year": -2.82,
        "regression_rate_m_per_year": -5.49,
        "start_year": 2023,
        "end_year": 2026,
        "n_observations": 4,
        "classification": "stable",
        "classification_detail": "stable_within_resolution",
        "confidence": "LOW",
        "confidence_reasons": [
          "tide level unavailable for every epoch",
          "intertidal mudflat exposure can move the observed wet/dry edge",
          "sensor resolution and wet/dry pixel mixing limit positional precision",
          "automated spectral boundary requires field or orthophoto validation"
        ],
        "interpretation": "positive is apparent seaward movement; not tide-normalized shoreline change"
      },
      "geometry": {
        "type": "LineString",
        "coordinates": [
          [
            99.20883236667058,
            9.34524510915342
          ],
          [
            99.23075845080392,
            9.329057981473253
          ]
        ]
      }
    },
    {
      "type": "Feature",
      "properties": {
        "transect_id": "T014",
        "chainage_m": 1300.0,
        "spacing_m": 100.0,
        "length_m": 3000.0,
        "observations": 4,
        "positions_m": {
          "2023": 20.51,
          "2024": 20.0,
          "2025": 20.0,
          "2026": 0.5
        },
        "net_change_m": -20.01,
        "net_movement_m": -20.01,
        "rate_m_per_year": -6.67,
        "end_point_rate_m_per_year": -6.67,
        "regression_rate_m_per_year": -6.0,
        "start_year": 2023,
        "end_year": 2026,
        "n_observations": 4,
        "classification": "apparent_erosion",
        "classification_detail": "apparent_erosion",
        "confidence": "LOW",
        "confidence_reasons": [
          "tide level unavailable for every epoch",
          "intertidal mudflat exposure can move the observed wet/dry edge",
          "sensor resolution and wet/dry pixel mixing limit positional precision",
          "automated spectral boundary requires field or orthophoto validation"
        ],
        "interpretation": "positive is apparent seaward movement; not tide-normalized shoreline change"
      },
      "geometry": {
        "type": "LineString",
        "coordinates": [
          [
            99.22034854629334,
            9.35113305783134
          ],
          [
            99.22064844514938,
            9.324000123223627
          ]
        ]
      }
    },
    {
      "type": "Feature",
      "properties": {
        "transect_id": "T015",
        "chainage_m": 1400.0,
        "spacing_m": 100.0,
        "length_m": 3000.0,
        "observations": 4,
        "positions_m": {
          "2023": 17.47,
          "2024": 11.54,
          "2025": 11.54,
          "2026": 11.02
        },
        "net_change_m": -6.45,
        "net_movement_m": -6.45,
        "rate_m_per_year": -2.15,
        "end_point_rate_m_per_year": -2.15,
        "regression_rate_m_per_year": -1.94,
        "start_year": 2023,
        "end_year": 2026,
        "n_observations": 4,
        "classification": "stable",
        "classification_detail": "stable_within_resolution",
        "confidence": "LOW",
        "confidence_reasons": [
          "tide level unavailable for every epoch",
          "intertidal mudflat exposure can move the observed wet/dry edge",
          "sensor resolution and wet/dry pixel mixing limit positional precision",
          "automated spectral boundary requires field or orthophoto validation"
        ],
        "interpretation": "positive is apparent seaward movement; not tide-normalized shoreline change"
      },
      "geometry": {
        "type": "LineString",
        "coordinates": [
          [
            99.21491402689021,
            9.34977468250757
          ],
          [
            99.22778464775256,
            9.32583999617311
          ]
        ]
      }
    },
    {
      "type": "Feature",
      "properties": {
        "transect_id": "T016",
        "chainage_m": 1500.0,
        "spacing_m": 100.0,
        "length_m": 3000.0,
        "observations": 4,
        "positions_m": {
          "2023": 10.87,
          "2024": -0.23,
          "2025": -0.23,
          "2026": -0.23
        },
        "net_change_m": -11.1,
        "net_movement_m": -11.1,
        "rate_m_per_year": -3.7,
        "end_point_rate_m_per_year": -3.7,
        "regression_rate_m_per_year": -3.33,
        "start_year": 2023,
        "end_year": 2026,
        "n_observations": 4,
        "classification": "stable",
        "classification_detail": "stable_within_resolution",
        "confidence": "LOW",
        "confidence_reasons": [
          "tide level unavailable for every epoch",
          "intertidal mudflat exposure can move the observed wet/dry edge",
          "sensor resolution and wet/dry pixel mixing limit positional precision",
          "automated spectral boundary requires field or orthophoto validation"
        ],
        "interpretation": "positive is apparent seaward movement; not tide-normalized shoreline change"
      },
      "geometry": {
        "type": "LineString",
        "coordinates": [
          [
            99.2128848453194,
            9.348345722590894
          ],
          [
            99.23129485367672,
            9.328297409737592
          ]
        ]
      }
    },
    {
      "type": "Feature",
      "properties": {
        "transect_id": "T017",
        "chainage_m": 1600.0,
        "spacing_m": 100.0,
        "length_m": 3000.0,
        "observations": 4,
        "positions_m": {
          "2023": 27.28,
          "2024": 29.5,
          "2025": 27.67,
          "2026": 17.79
        },
        "net_change_m": -9.49,
        "net_movement_m": -9.49,
        "rate_m_per_year": -3.16,
        "end_point_rate_m_per_year": -3.16,
        "regression_rate_m_per_year": -3.03,
        "start_year": 2023,
        "end_year": 2026,
        "n_observations": 4,
        "classification": "stable",
        "classification_detail": "stable_within_resolution",
        "confidence": "LOW",
        "confidence_reasons": [
          "tide level unavailable for every epoch",
          "intertidal mudflat exposure can move the observed wet/dry edge",
          "sensor resolution and wet/dry pixel mixing limit positional precision",
          "automated spectral boundary requires field or orthophoto validation"
        ],
        "interpretation": "positive is apparent seaward movement; not tide-normalized shoreline change"
      },
      "geometry": {
        "type": "LineString",
        "coordinates": [
          [
            99.21355768778957,
            9.34895524673793
          ],
          [
            99.23196768803385,
            9.328906899876447
          ]
        ]
      }
    },
    {
      "type": "Feature",
      "properties": {
        "transect_id": "T018",
        "chainage_m": 1700.0,
        "spacing_m": 100.0,
        "length_m": 3000.0,
        "observations": 4,
        "positions_m": {
          "2023": 14.72,
          "2024": 32.59,
          "2025": 32.59,
          "2026": -14.54
        },
        "net_change_m": -29.26,
        "net_movement_m": -29.26,
        "rate_m_per_year": -9.75,
        "end_point_rate_m_per_year": -9.75,
        "regression_rate_m_per_year": -8.78,
        "start_year": 2023,
        "end_year": 2026,
        "n_observations": 4,
        "classification": "apparent_erosion",
        "classification_detail": "apparent_erosion",
        "confidence": "LOW",
        "confidence_reasons": [
          "tide level unavailable for every epoch",
          "intertidal mudflat exposure can move the observed wet/dry edge",
          "sensor resolution and wet/dry pixel mixing limit positional precision",
          "automated spectral boundary requires field or orthophoto validation"
        ],
        "interpretation": "positive is apparent seaward movement; not tide-normalized shoreline change"
      },
      "geometry": {
        "type": "LineString",
        "coordinates": [
          [
            99.22482644856349,
            9.35263041261953
          ],
          [
            99.22232975886635,
            9.325609398322404
          ]
        ]
      }
    },
    {
      "type": "Feature",
      "properties": {
        "transect_id": "T019",
        "chainage_m": 1800.0,
        "spacing_m": 100.0,
        "length_m": 3000.0,
        "observations": 4,
        "positions_m": {
          "2023": -267.72,
          "2024": -175.28,
          "2025": -260.76,
          "2026": 6.62
        },
        "net_change_m": 274.34,
        "net_movement_m": 274.34,
        "rate_m_per_year": 91.45,
        "end_point_rate_m_per_year": 91.45,
        "regression_rate_m_per_year": 73.75,
        "start_year": 2023,
        "end_year": 2026,
        "n_observations": 4,
        "classification": "apparent_accretion",
        "classification_detail": "apparent_accretion",
        "confidence": "LOW",
        "confidence_reasons": [
          "tide level unavailable for every epoch",
          "intertidal mudflat exposure can move the observed wet/dry edge",
          "sensor resolution and wet/dry pixel mixing limit positional precision",
          "automated spectral boundary requires field or orthophoto validation"
        ],
        "interpretation": "positive is apparent seaward movement; not tide-normalized shoreline change"
      },
      "geometry": {
        "type": "LineString",
        "coordinates": [
          [
            99.2257333315816,
            9.352547748777182
          ],
          [
            99.22323657289931,
            9.325526742349163
          ]
        ]
      }
    },
    {
      "type": "Feature",
      "properties": {
        "transect_id": "T020",
        "chainage_m": 1900.0,
        "spacing_m": 100.0,
        "length_m": 3000.0,
        "observations": 4,
        "positions_m": {
          "2023": -167.91,
          "2024": -109.51,
          "2025": -123.85,
          "2026": 65.98
        },
        "net_change_m": 233.89,
        "net_movement_m": 233.89,
        "rate_m_per_year": 77.96,
        "end_point_rate_m_per_year": 77.96,
        "regression_rate_m_per_year": 68.73,
        "start_year": 2023,
        "end_year": 2026,
        "n_observations": 4,
        "classification": "apparent_accretion",
        "classification_detail": "apparent_accretion",
        "confidence": "LOW",
        "confidence_reasons": [
          "tide level unavailable for every epoch",
          "intertidal mudflat exposure can move the observed wet/dry edge",
          "sensor resolution and wet/dry pixel mixing limit positional precision",
          "automated spectral boundary requires field or orthophoto validation"
        ],
        "interpretation": "positive is apparent seaward movement; not tide-normalized shoreline change"
      },
      "geometry": {
        "type": "LineString",
        "coordinates": [
          [
            99.21439721901764,
            9.347791974302767
          ],
          [
            99.23594963042844,
            9.331116966609258
          ]
        ]
      }
    },
    {
      "type": "Feature",
      "properties": {
        "transect_id": "T021",
        "chainage_m": 2000.0,
        "spacing_m": 100.0,
        "length_m": 3000.0,
        "observations": 4,
        "positions_m": {
          "2023": -215.67,
          "2024": -132.05,
          "2025": -154.16,
          "2026": 9.09
        },
        "net_change_m": 224.76,
        "net_movement_m": 224.76,
        "rate_m_per_year": 74.92,
        "end_point_rate_m_per_year": 74.92,
        "regression_rate_m_per_year": 65.22,
        "start_year": 2023,
        "end_year": 2026,
        "n_observations": 4,
        "classification": "apparent_accretion",
        "classification_detail": "apparent_accretion",
        "confidence": "LOW",
        "confidence_reasons": [
          "tide level unavailable for every epoch",
          "intertidal mudflat exposure can move the observed wet/dry edge",
          "sensor resolution and wet/dry pixel mixing limit positional precision",
          "automated spectral boundary requires field or orthophoto validation"
        ],
        "interpretation": "positive is apparent seaward movement; not tide-normalized shoreline change"
      },
      "geometry": {
        "type": "LineString",
        "coordinates": [
          [
            99.21410825295185,
            9.34729270269214
          ],
          [
            99.23735789286617,
            9.333043268496423
          ]
        ]
      }
    },
    {
      "type": "Feature",
      "properties": {
        "transect_id": "T022",
        "chainage_m": 2100.0,
        "spacing_m": 100.0,
        "length_m": 3000.0,
        "observations": 4,
        "positions_m": {
          "2023": -113.86,
          "2024": -131.66,
          "2025": -115.16,
          "2026": -15.61
        },
        "net_change_m": 98.25,
        "net_movement_m": 98.25,
        "rate_m_per_year": 32.75,
        "end_point_rate_m_per_year": 32.75,
        "regression_rate_m_per_year": 31.13,
        "start_year": 2023,
        "end_year": 2026,
        "n_observations": 4,
        "classification": "apparent_accretion",
        "classification_detail": "apparent_accretion",
        "confidence": "LOW",
        "confidence_reasons": [
          "tide level unavailable for every epoch",
          "intertidal mudflat exposure can move the observed wet/dry edge",
          "sensor resolution and wet/dry pixel mixing limit positional precision",
          "automated spectral boundary requires field or orthophoto validation"
        ],
        "interpretation": "positive is apparent seaward movement; not tide-normalized shoreline change"
      },
      "geometry": {
        "type": "LineString",
        "coordinates": [
          [
            99.21535120695192,
            9.349405680209653
          ],
          [
            99.23676196850543,
            9.33255150707122
          ]
        ]
      }
    },
    {
      "type": "Feature",
      "properties": {
        "transect_id": "T023",
        "chainage_m": 2200.0,
        "spacing_m": 100.0,
        "length_m": 3000.0,
        "observations": 4,
        "positions_m": {
          "2023": -24.63,
          "2024": -40.03,
          "2025": -30.41,
          "2026": -27.41
        },
        "net_change_m": -2.78,
        "net_movement_m": -2.78,
        "rate_m_per_year": -0.93,
        "end_point_rate_m_per_year": -0.93,
        "regression_rate_m_per_year": 0.13,
        "start_year": 2023,
        "end_year": 2026,
        "n_observations": 4,
        "classification": "stable",
        "classification_detail": "stable_within_resolution",
        "confidence": "LOW",
        "confidence_reasons": [
          "tide level unavailable for every epoch",
          "intertidal mudflat exposure can move the observed wet/dry edge",
          "sensor resolution and wet/dry pixel mixing limit positional precision",
          "automated spectral boundary requires field or orthophoto validation"
        ],
        "interpretation": "positive is apparent seaward movement; not tide-normalized shoreline change"
      },
      "geometry": {
        "type": "LineString",
        "coordinates": [
          [
            99.21631476021945,
            9.35053212979678
          ],
          [
            99.23698902782776,
            9.332794010008103
          ]
        ]
      }
    },
    {
      "type": "Feature",
      "properties": {
        "transect_id": "T024",
        "chainage_m": 2300.0,
        "spacing_m": 100.0,
        "length_m": 3000.0,
        "observations": 4,
        "positions_m": {
          "2023": -30.74,
          "2024": -39.81,
          "2025": -30.74,
          "2026": 0.0
        },
        "net_change_m": 30.74,
        "net_movement_m": 30.74,
        "rate_m_per_year": 10.25,
        "end_point_rate_m_per_year": 10.25,
        "regression_rate_m_per_year": 10.13,
        "start_year": 2023,
        "end_year": 2026,
        "n_observations": 4,
        "classification": "apparent_accretion",
        "classification_detail": "apparent_accretion",
        "confidence": "LOW",
        "confidence_reasons": [
          "tide level unavailable for every epoch",
          "intertidal mudflat exposure can move the observed wet/dry edge",
          "sensor resolution and wet/dry pixel mixing limit positional precision",
          "automated spectral boundary requires field or orthophoto validation"
        ],
        "interpretation": "positive is apparent seaward movement; not tide-normalized shoreline change"
      },
      "geometry": {
        "type": "LineString",
        "coordinates": [
          [
            99.22213900846519,
            9.354685917088709
          ],
          [
            99.23263045794594,
            9.329631921996166
          ]
        ]
      }
    },
    {
      "type": "Feature",
      "properties": {
        "transect_id": "T025",
        "chainage_m": 2400.0,
        "spacing_m": 100.0,
        "length_m": 3000.0,
        "observations": 4,
        "positions_m": {
          "2023": -23.11,
          "2024": -38.48,
          "2025": -36.06,
          "2026": 0.0
        },
        "net_change_m": 23.11,
        "net_movement_m": 23.11,
        "rate_m_per_year": 7.7,
        "end_point_rate_m_per_year": 7.7,
        "regression_rate_m_per_year": 7.18,
        "start_year": 2023,
        "end_year": 2026,
        "n_observations": 4,
        "classification": "apparent_accretion",
        "classification_detail": "apparent_accretion",
        "confidence": "LOW",
        "confidence_reasons": [
          "tide level unavailable for every epoch",
          "intertidal mudflat exposure can move the observed wet/dry edge",
          "sensor resolution and wet/dry pixel mixing limit positional precision",
          "automated spectral boundary requires field or orthophoto validation"
        ],
        "interpretation": "positive is apparent seaward movement; not tide-normalized shoreline change"
      },
      "geometry": {
        "type": "LineString",
        "coordinates": [
          [
            99.22297987603896,
            9.355033268564501
          ],
          [
            99.23347127461982,
            9.329979250320585
          ]
        ]
      }
    },
    {
      "type": "Feature",
      "properties": {
        "transect_id": "T026",
        "chainage_m": 2500.0,
        "spacing_m": 100.0,
        "length_m": 3000.0,
        "observations": 4,
        "positions_m": {
          "2023": -3.25,
          "2024": -23.79,
          "2025": -23.79,
          "2026": -3.25
        },
        "net_change_m": 0.0,
        "net_movement_m": 0.0,
        "rate_m_per_year": 0.0,
        "end_point_rate_m_per_year": 0.0,
        "regression_rate_m_per_year": 0.0,
        "start_year": 2023,
        "end_year": 2026,
        "n_observations": 4,
        "classification": "stable",
        "classification_detail": "stable_within_resolution",
        "confidence": "LOW",
        "confidence_reasons": [
          "tide level unavailable for every epoch",
          "intertidal mudflat exposure can move the observed wet/dry edge",
          "sensor resolution and wet/dry pixel mixing limit positional precision",
          "automated spectral boundary requires field or orthophoto validation"
        ],
        "interpretation": "positive is apparent seaward movement; not tide-normalized shoreline change"
      },
      "geometry": {
        "type": "LineString",
        "coordinates": [
          [
            99.22597412920688,
            9.35598308384188
          ],
          [
            99.2322105842048,
            9.329564972214564
          ]
        ]
      }
    },
    {
      "type": "Feature",
      "properties": {
        "transect_id": "T027",
        "chainage_m": 2600.0,
        "spacing_m": 100.0,
        "length_m": 3000.0,
        "observations": 4,
        "positions_m": {
          "2023": 11.83,
          "2024": -4.61,
          "2025": -0.28,
          "2026": 11.25
        },
        "net_change_m": -0.58,
        "net_movement_m": -0.58,
        "rate_m_per_year": -0.19,
        "end_point_rate_m_per_year": -0.19,
        "regression_rate_m_per_year": 0.26,
        "start_year": 2023,
        "end_year": 2026,
        "n_observations": 4,
        "classification": "stable",
        "classification_detail": "stable_within_resolution",
        "confidence": "LOW",
        "confidence_reasons": [
          "tide level unavailable for every epoch",
          "intertidal mudflat exposure can move the observed wet/dry edge",
          "sensor resolution and wet/dry pixel mixing limit positional precision",
          "automated spectral boundary requires field or orthophoto validation"
        ],
        "interpretation": "positive is apparent seaward movement; not tide-normalized shoreline change"
      },
      "geometry": {
        "type": "LineString",
        "coordinates": [
          [
            99.22686078590374,
            9.356189559835409
          ],
          [
            99.23309717699563,
            9.32977143447018
          ]
        ]
      }
    },
    {
      "type": "Feature",
      "properties": {
        "transect_id": "T028",
        "chainage_m": 2700.0,
        "spacing_m": 100.0,
        "length_m": 3000.0,
        "observations": 4,
        "positions_m": {
          "2023": 3.41,
          "2024": -5.54,
          "2025": -5.54,
          "2026": -0.23
        },
        "net_change_m": -3.64,
        "net_movement_m": -3.64,
        "rate_m_per_year": -1.21,
        "end_point_rate_m_per_year": -1.21,
        "regression_rate_m_per_year": -1.09,
        "start_year": 2023,
        "end_year": 2026,
        "n_observations": 4,
        "classification": "stable",
        "classification_detail": "stable_within_resolution",
        "confidence": "LOW",
        "confidence_reasons": [
          "tide level unavailable for every epoch",
          "intertidal mudflat exposure can move the observed wet/dry edge",
          "sensor resolution and wet/dry pixel mixing limit positional precision",
          "automated spectral boundary requires field or orthophoto validation"
        ],
        "interpretation": "positive is apparent seaward movement; not tide-normalized shoreline change"
      },
      "geometry": {
        "type": "LineString",
        "coordinates": [
          [
            99.22439609487547,
            9.355289072864284
          ],
          [
            99.23723848091025,
            9.33133935006813
          ]
        ]
      }
    },
    {
      "type": "Feature",
      "properties": {
        "transect_id": "T029",
        "chainage_m": 2800.0,
        "spacing_m": 100.0,
        "length_m": 3000.0,
        "observations": 4,
        "positions_m": {
          "2023": 6.05,
          "2024": -2.9,
          "2025": -2.9,
          "2026": -0.62
        },
        "net_change_m": -6.67,
        "net_movement_m": -6.67,
        "rate_m_per_year": -2.22,
        "end_point_rate_m_per_year": -2.22,
        "regression_rate_m_per_year": -2.0,
        "start_year": 2023,
        "end_year": 2026,
        "n_observations": 4,
        "classification": "stable",
        "classification_detail": "stable_within_resolution",
        "confidence": "LOW",
        "confidence_reasons": [
          "tide level unavailable for every epoch",
          "intertidal mudflat exposure can move the observed wet/dry edge",
          "sensor resolution and wet/dry pixel mixing limit positional precision",
          "automated spectral boundary requires field or orthophoto validation"
        ],
        "interpretation": "positive is apparent seaward movement; not tide-normalized shoreline change"
      },
      "geometry": {
        "type": "LineString",
        "coordinates": [
          [
            99.22519989955869,
            9.35571425774703
          ],
          [
            99.23804224482453,
            9.33176450742257
          ]
        ]
      }
    },
    {
      "type": "Feature",
      "properties": {
        "transect_id": "T030",
        "chainage_m": 2900.0,
        "spacing_m": 100.0,
        "length_m": 3000.0,
        "observations": 4,
        "positions_m": {
          "2023": 8.68,
          "2024": -3.41,
          "2025": -4.15,
          "2026": -4.74
        },
        "net_change_m": -13.42,
        "net_movement_m": -13.42,
        "rate_m_per_year": -4.47,
        "end_point_rate_m_per_year": -4.47,
        "regression_rate_m_per_year": -4.1,
        "start_year": 2023,
        "end_year": 2026,
        "n_observations": 4,
        "classification": "stable",
        "classification_detail": "stable_within_resolution",
        "confidence": "LOW",
        "confidence_reasons": [
          "tide level unavailable for every epoch",
          "intertidal mudflat exposure can move the observed wet/dry edge",
          "sensor resolution and wet/dry pixel mixing limit positional precision",
          "automated spectral boundary requires field or orthophoto validation"
        ],
        "interpretation": "positive is apparent seaward movement; not tide-normalized shoreline change"
      },
      "geometry": {
        "type": "LineString",
        "coordinates": [
          [
            99.22600370616352,
            9.356139440752992
          ],
          [
            99.23884601065332,
            9.3321896629023
          ]
        ]
      }
    },
    {
      "type": "Feature",
      "properties": {
        "transect_id": "T031",
        "chainage_m": 3000.0,
        "spacing_m": 100.0,
        "length_m": 3000.0,
        "observations": 4,
        "positions_m": {
          "2023": -3.96,
          "2024": -13.52,
          "2025": -17.25,
          "2026": -10.25
        },
        "net_change_m": -6.29,
        "net_movement_m": -6.29,
        "rate_m_per_year": -2.1,
        "end_point_rate_m_per_year": -2.1,
        "regression_rate_m_per_year": -2.26,
        "start_year": 2023,
        "end_year": 2026,
        "n_observations": 4,
        "classification": "stable",
        "classification_detail": "stable_within_resolution",
        "confidence": "LOW",
        "confidence_reasons": [
          "tide level unavailable for every epoch",
          "intertidal mudflat exposure can move the observed wet/dry edge",
          "sensor resolution and wet/dry pixel mixing limit positional precision",
          "automated spectral boundary requires field or orthophoto validation"
        ],
        "interpretation": "positive is apparent seaward movement; not tide-normalized shoreline change"
      },
      "geometry": {
        "type": "LineString",
        "coordinates": [
          [
            99.22680751468994,
            9.356564621881905
          ],
          [
            99.23964977839661,
            9.33261481650707
          ]
        ]
      }
    },
    {
      "type": "Feature",
      "properties": {
        "transect_id": "T032",
        "chainage_m": 3100.0,
        "spacing_m": 100.0,
        "length_m": 3000.0,
        "observations": 4,
        "positions_m": {
          "2023": -57.39,
          "2024": -73.2,
          "2025": -66.49,
          "2026": -0.58
        },
        "net_change_m": 56.81,
        "net_movement_m": 56.81,
        "rate_m_per_year": 18.94,
        "end_point_rate_m_per_year": 18.94,
        "regression_rate_m_per_year": 17.71,
        "start_year": 2023,
        "end_year": 2026,
        "n_observations": 4,
        "classification": "apparent_accretion",
        "classification_detail": "apparent_accretion",
        "confidence": "LOW",
        "confidence_reasons": [
          "tide level unavailable for every epoch",
          "intertidal mudflat exposure can move the observed wet/dry edge",
          "sensor resolution and wet/dry pixel mixing limit positional precision",
          "automated spectral boundary requires field or orthophoto validation"
        ],
        "interpretation": "positive is apparent seaward movement; not tide-normalized shoreline change"
      },
      "geometry": {
        "type": "LineString",
        "coordinates": [
          [
            99.23562115594822,
            9.358178946474853
          ],
          [
            99.23254919930635,
            9.331216494247041
          ]
        ]
      }
    },
    {
      "type": "Feature",
      "properties": {
        "transect_id": "T033",
        "chainage_m": 3200.0,
        "spacing_m": 100.0,
        "length_m": 3000.0,
        "observations": 4,
        "positions_m": {
          "2023": -78.26,
          "2024": -87.95,
          "2025": -87.84,
          "2026": 10.63
        },
        "net_change_m": 88.89,
        "net_movement_m": 88.89,
        "rate_m_per_year": 29.63,
        "end_point_rate_m_per_year": 29.63,
        "regression_rate_m_per_year": 26.68,
        "start_year": 2023,
        "end_year": 2026,
        "n_observations": 4,
        "classification": "apparent_accretion",
        "classification_detail": "apparent_accretion",
        "confidence": "LOW",
        "confidence_reasons": [
          "tide level unavailable for every epoch",
          "intertidal mudflat exposure can move the observed wet/dry edge",
          "sensor resolution and wet/dry pixel mixing limit positional precision",
          "automated spectral boundary requires field or orthophoto validation"
        ],
        "interpretation": "positive is apparent seaward movement; not tide-normalized shoreline change"
      },
      "geometry": {
        "type": "LineString",
        "coordinates": [
          [
            99.22892091883702,
            9.357147475154026
          ],
          [
            99.24092490027735,
            9.332772501776715
          ]
        ]
      }
    },
    {
      "type": "Feature",
      "properties": {
        "transect_id": "T034",
        "chainage_m": 3300.0,
        "spacing_m": 100.0,
        "length_m": 3000.0,
        "observations": 4,
        "positions_m": {
          "2023": -125.65,
          "2024": -128.79,
          "2025": -128.79,
          "2026": 11.06
        },
        "net_change_m": 136.71,
        "net_movement_m": 136.71,
        "rate_m_per_year": 45.57,
        "end_point_rate_m_per_year": 45.57,
        "regression_rate_m_per_year": 41.01,
        "start_year": 2023,
        "end_year": 2026,
        "n_observations": 4,
        "classification": "apparent_accretion",
        "classification_detail": "apparent_accretion",
        "confidence": "LOW",
        "confidence_reasons": [
          "tide level unavailable for every epoch",
          "intertidal mudflat exposure can move the observed wet/dry edge",
          "sensor resolution and wet/dry pixel mixing limit positional precision",
          "automated spectral boundary requires field or orthophoto validation"
        ],
        "interpretation": "positive is apparent seaward movement; not tide-normalized shoreline change"
      },
      "geometry": {
        "type": "LineString",
        "coordinates": [
          [
            99.2247980346828,
            9.353718740277792
          ],
          [
            99.2464932246273,
            9.33722694815463
          ]
        ]
      }
    },
    {
      "type": "Feature",
      "properties": {
        "transect_id": "T035",
        "chainage_m": 3400.0,
        "spacing_m": 100.0,
        "length_m": 3000.0,
        "observations": 4,
        "positions_m": {
          "2023": -90.36,
          "2024": -95.48,
          "2025": -95.48,
          "2026": -20.66
        },
        "net_change_m": 69.7,
        "net_movement_m": 69.7,
        "rate_m_per_year": 23.23,
        "end_point_rate_m_per_year": 23.23,
        "regression_rate_m_per_year": 20.91,
        "start_year": 2023,
        "end_year": 2026,
        "n_observations": 4,
        "classification": "apparent_accretion",
        "classification_detail": "apparent_accretion",
        "confidence": "LOW",
        "confidence_reasons": [
          "tide level unavailable for every epoch",
          "intertidal mudflat exposure can move the observed wet/dry edge",
          "sensor resolution and wet/dry pixel mixing limit positional precision",
          "automated spectral boundary requires field or orthophoto validation"
        ],
        "interpretation": "positive is apparent seaward movement; not tide-normalized shoreline change"
      },
      "geometry": {
        "type": "LineString",
        "coordinates": [
          [
            99.22999081612771,
            9.358165306270067
          ],
          [
            99.24253265209633,
            9.334058939780018
          ]
        ]
      }
    },
    {
      "type": "Feature",
      "properties": {
        "transect_id": "T036",
        "chainage_m": 3500.0,
        "spacing_m": 100.0,
        "length_m": 3000.0,
        "observations": 4,
        "positions_m": {
          "2023": -88.78,
          "2024": -92.16,
          "2025": -92.16,
          "2026": 0.0
        },
        "net_change_m": 88.78,
        "net_movement_m": 88.78,
        "rate_m_per_year": 29.59,
        "end_point_rate_m_per_year": 29.59,
        "regression_rate_m_per_year": 26.63,
        "start_year": 2023,
        "end_year": 2026,
        "n_observations": 4,
        "classification": "apparent_accretion",
        "classification_detail": "apparent_accretion",
        "confidence": "LOW",
        "confidence_reasons": [
          "tide level unavailable for every epoch",
          "intertidal mudflat exposure can move the observed wet/dry edge",
          "sensor resolution and wet/dry pixel mixing limit positional precision",
          "automated spectral boundary requires field or orthophoto validation"
        ],
        "interpretation": "positive is apparent seaward movement; not tide-normalized shoreline change"
      },
      "geometry": {
        "type": "LineString",
        "coordinates": [
          [
            99.22711190138897,
            9.355866240169027
          ],
          [
            99.24696960023981,
            9.337230256698504
          ]
        ]
      }
    },
    {
      "type": "Feature",
      "properties": {
        "transect_id": "T037",
        "chainage_m": 3600.0,
        "spacing_m": 100.0,
        "length_m": 3000.0,
        "observations": 4,
        "positions_m": {
          "2023": -33.19,
          "2024": -35.67,
          "2025": -35.67,
          "2026": -9.43
        },
        "net_change_m": 23.76,
        "net_movement_m": 23.76,
        "rate_m_per_year": 7.92,
        "end_point_rate_m_per_year": 7.92,
        "regression_rate_m_per_year": 7.13,
        "start_year": 2023,
        "end_year": 2026,
        "n_observations": 4,
        "classification": "apparent_accretion",
        "classification_detail": "apparent_accretion",
        "confidence": "LOW",
        "confidence_reasons": [
          "tide level unavailable for every epoch",
          "intertidal mudflat exposure can move the observed wet/dry edge",
          "sensor resolution and wet/dry pixel mixing limit positional precision",
          "automated spectral boundary requires field or orthophoto validation"
        ],
        "interpretation": "positive is apparent seaward movement; not tide-normalized shoreline change"
      },
      "geometry": {
        "type": "LineString",
        "coordinates": [
          [
            99.23051239129207,
            9.358731173921042
          ],
          [
            99.24484314149947,
            9.335629296413668
          ]
        ]
      }
    },
    {
      "type": "Feature",
      "properties": {
        "transect_id": "T038",
        "chainage_m": 3700.0,
        "spacing_m": 100.0,
        "length_m": 3000.0,
        "observations": 4,
        "positions_m": {
          "2023": 26.14,
          "2024": 18.05,
          "2025": 18.05,
          "2026": 0.15
        },
        "net_change_m": -25.99,
        "net_movement_m": -25.99,
        "rate_m_per_year": -8.66,
        "end_point_rate_m_per_year": -8.66,
        "regression_rate_m_per_year": -7.8,
        "start_year": 2023,
        "end_year": 2026,
        "n_observations": 4,
        "classification": "apparent_erosion",
        "classification_detail": "apparent_erosion",
        "confidence": "LOW",
        "confidence_reasons": [
          "tide level unavailable for every epoch",
          "intertidal mudflat exposure can move the observed wet/dry edge",
          "sensor resolution and wet/dry pixel mixing limit positional precision",
          "automated spectral boundary requires field or orthophoto validation"
        ],
        "interpretation": "positive is apparent seaward movement; not tide-normalized shoreline change"
      },
      "geometry": {
        "type": "LineString",
        "coordinates": [
          [
            99.23151483594587,
            9.359321987097132
          ],
          [
            99.24540894362308,
            9.33595846439988
          ]
        ]
      }
    },
    {
      "type": "Feature",
      "properties": {
        "transect_id": "T039",
        "chainage_m": 3800.0,
        "spacing_m": 100.0,
        "length_m": 3000.0,
        "observations": 4,
        "positions_m": {
          "2023": -15.61,
          "2024": -5.47,
          "2025": -5.47,
          "2026": 11.96
        },
        "net_change_m": 27.57,
        "net_movement_m": 27.57,
        "rate_m_per_year": 9.19,
        "end_point_rate_m_per_year": 9.19,
        "regression_rate_m_per_year": 8.27,
        "start_year": 2023,
        "end_year": 2026,
        "n_observations": 4,
        "classification": "apparent_accretion",
        "classification_detail": "apparent_accretion",
        "confidence": "LOW",
        "confidence_reasons": [
          "tide level unavailable for every epoch",
          "intertidal mudflat exposure can move the observed wet/dry edge",
          "sensor resolution and wet/dry pixel mixing limit positional precision",
          "automated spectral boundary requires field or orthophoto validation"
        ],
        "interpretation": "positive is apparent seaward movement; not tide-normalized shoreline change"
      },
      "geometry": {
        "type": "LineString",
        "coordinates": [
          [
            99.22680509145663,
            9.353884232270728
          ],
          [
            99.25157778241028,
            9.342442166291518
          ]
        ]
      }
    },
    {
      "type": "Feature",
      "properties": {
        "transect_id": "T040",
        "chainage_m": 3900.0,
        "spacing_m": 100.0,
        "length_m": 3000.0,
        "observations": 4,
        "positions_m": {
          "2023": -3.36,
          "2024": -3.36,
          "2025": -3.36,
          "2026": -3.36
        },
        "net_change_m": 0.0,
        "net_movement_m": 0.0,
        "rate_m_per_year": 0.0,
        "end_point_rate_m_per_year": 0.0,
        "regression_rate_m_per_year": 0.0,
        "start_year": 2023,
        "end_year": 2026,
        "n_observations": 4,
        "classification": "stable",
        "classification_detail": "stable_within_resolution",
        "confidence": "LOW",
        "confidence_reasons": [
          "tide level unavailable for every epoch",
          "intertidal mudflat exposure can move the observed wet/dry edge",
          "sensor resolution and wet/dry pixel mixing limit positional precision",
          "automated spectral boundary requires field or orthophoto validation"
        ],
        "interpretation": "positive is apparent seaward movement; not tide-normalized shoreline change"
      },
      "geometry": {
        "type": "LineString",
        "coordinates": [
          [
            99.22555387079346,
            9.348057875496284
          ],
          [
            99.25280143875072,
            9.350039620205171
          ]
        ]
      }
    },
    {
      "type": "Feature",
      "properties": {
        "transect_id": "T041",
        "chainage_m": 4000.0,
        "spacing_m": 100.0,
        "length_m": 3000.0,
        "observations": 4,
        "positions_m": {
          "2023": -23.18,
          "2024": -23.18,
          "2025": -23.18,
          "2026": -23.18
        },
        "net_change_m": 0.0,
        "net_movement_m": 0.0,
        "rate_m_per_year": 0.0,
        "end_point_rate_m_per_year": 0.0,
        "regression_rate_m_per_year": 0.0,
        "start_year": 2023,
        "end_year": 2026,
        "n_observations": 4,
        "classification": "stable",
        "classification_detail": "stable_within_resolution",
        "confidence": "LOW",
        "confidence_reasons": [
          "tide level unavailable for every epoch",
          "intertidal mudflat exposure can move the observed wet/dry edge",
          "sensor resolution and wet/dry pixel mixing limit positional precision",
          "automated spectral boundary requires field or orthophoto validation"
        ],
        "interpretation": "positive is apparent seaward movement; not tide-normalized shoreline change"
      },
      "geometry": {
        "type": "LineString",
        "coordinates": [
          [
            99.22677470285763,
            9.355231062498422
          ],
          [
            99.25190872532629,
            9.34459438926508
          ]
        ]
      }
    },
    {
      "type": "Feature",
      "properties": {
        "transect_id": "T042",
        "chainage_m": 4100.0,
        "spacing_m": 100.0,
        "length_m": 3000.0,
        "observations": 4,
        "positions_m": {
          "2023": -26.77,
          "2024": -30.32,
          "2025": -26.41,
          "2026": -26.41
        },
        "net_change_m": 0.36,
        "net_movement_m": 0.36,
        "rate_m_per_year": 0.12,
        "end_point_rate_m_per_year": 0.12,
        "regression_rate_m_per_year": 0.5,
        "start_year": 2023,
        "end_year": 2026,
        "n_observations": 4,
        "classification": "stable",
        "classification_detail": "stable_within_resolution",
        "confidence": "LOW",
        "confidence_reasons": [
          "tide level unavailable for every epoch",
          "intertidal mudflat exposure can move the observed wet/dry edge",
          "sensor resolution and wet/dry pixel mixing limit positional precision",
          "automated spectral boundary requires field or orthophoto validation"
        ],
        "interpretation": "positive is apparent seaward movement; not tide-normalized shoreline change"
      },
      "geometry": {
        "type": "LineString",
        "coordinates": [
          [
            99.22713166713059,
            9.356063169754785
          ],
          [
            99.2522657371869,
            9.345426470524428
          ]
        ]
      }
    },
    {
      "type": "Feature",
      "properties": {
        "transect_id": "T043",
        "chainage_m": 4200.0,
        "spacing_m": 100.0,
        "length_m": 3000.0,
        "observations": 4,
        "positions_m": {
          "2023": -0.98,
          "2024": -10.63,
          "2025": 0.0,
          "2026": 0.0
        },
        "net_change_m": 0.98,
        "net_movement_m": 0.98,
        "rate_m_per_year": 0.33,
        "end_point_rate_m_per_year": 0.33,
        "regression_rate_m_per_year": 1.36,
        "start_year": 2023,
        "end_year": 2026,
        "n_observations": 4,
        "classification": "stable",
        "classification_detail": "stable_within_resolution",
        "confidence": "LOW",
        "confidence_reasons": [
          "tide level unavailable for every epoch",
          "intertidal mudflat exposure can move the observed wet/dry edge",
          "sensor resolution and wet/dry pixel mixing limit positional precision",
          "automated spectral boundary requires field or orthophoto validation"
        ],
        "interpretation": "positive is apparent seaward movement; not tide-normalized shoreline change"
      },
      "geometry": {
        "type": "LineString",
        "coordinates": [
          [
            99.22840375427593,
            9.358645317800159
          ],
          [
            99.25171943794011,
            9.344501563375529
          ]
        ]
      }
    },
    {
      "type": "Feature",
      "properties": {
        "transect_id": "T044",
        "chainage_m": 4300.0,
        "spacing_m": 100.0,
        "length_m": 3000.0,
        "observations": 4,
        "positions_m": {
          "2023": -1.57,
          "2024": -17.21,
          "2025": 0.0,
          "2026": 0.0
        },
        "net_change_m": 1.57,
        "net_movement_m": 1.57,
        "rate_m_per_year": 0.52,
        "end_point_rate_m_per_year": 0.52,
        "regression_rate_m_per_year": 2.19,
        "start_year": 2023,
        "end_year": 2026,
        "n_observations": 4,
        "classification": "stable",
        "classification_detail": "stable_within_resolution",
        "confidence": "LOW",
        "confidence_reasons": [
          "tide level unavailable for every epoch",
          "intertidal mudflat exposure can move the observed wet/dry edge",
          "sensor resolution and wet/dry pixel mixing limit positional precision",
          "automated spectral boundary requires field or orthophoto validation"
        ],
        "interpretation": "positive is apparent seaward movement; not tide-normalized shoreline change"
      },
      "geometry": {
        "type": "LineString",
        "coordinates": [
          [
            99.22990401513827,
            9.360690189382513
          ],
          [
            99.25134773532012,
            9.343876586385882
          ]
        ]
      }
    },
    {
      "type": "Feature",
      "properties": {
        "transect_id": "T045",
        "chainage_m": 4400.0,
        "spacing_m": 100.0,
        "length_m": 3000.0,
        "observations": 4,
        "positions_m": {
          "2023": -2.17,
          "2024": -23.78,
          "2025": 0.0,
          "2026": 0.0
        },
        "net_change_m": 2.17,
        "net_movement_m": 2.17,
        "rate_m_per_year": 0.72,
        "end_point_rate_m_per_year": 0.72,
        "regression_rate_m_per_year": 3.03,
        "start_year": 2023,
        "end_year": 2026,
        "n_observations": 4,
        "classification": "stable",
        "classification_detail": "stable_within_resolution",
        "confidence": "LOW",
        "confidence_reasons": [
          "tide level unavailable for every epoch",
          "intertidal mudflat exposure can move the observed wet/dry edge",
          "sensor resolution and wet/dry pixel mixing limit positional precision",
          "automated spectral boundary requires field or orthophoto validation"
        ],
        "interpretation": "positive is apparent seaward movement; not tide-normalized shoreline change"
      },
      "geometry": {
        "type": "LineString",
        "coordinates": [
          [
            99.23046830970979,
            9.361400123138704
          ],
          [
            99.25191204453046,
            9.344586486311671
          ]
        ]
      }
    },
    {
      "type": "Feature",
      "properties": {
        "transect_id": "T046",
        "chainage_m": 4500.0,
        "spacing_m": 100.0,
        "length_m": 3000.0,
        "observations": 4,
        "positions_m": {
          "2023": -8.21,
          "2024": -36.97,
          "2025": -5.36,
          "2026": -5.36
        },
        "net_change_m": 2.85,
        "net_movement_m": 2.85,
        "rate_m_per_year": 0.95,
        "end_point_rate_m_per_year": 0.95,
        "regression_rate_m_per_year": 4.02,
        "start_year": 2023,
        "end_year": 2026,
        "n_observations": 4,
        "classification": "stable",
        "classification_detail": "stable_within_resolution",
        "confidence": "LOW",
        "confidence_reasons": [
          "tide level unavailable for every epoch",
          "intertidal mudflat exposure can move the observed wet/dry edge",
          "sensor resolution and wet/dry pixel mixing limit positional precision",
          "automated spectral boundary requires field or orthophoto validation"
        ],
        "interpretation": "positive is apparent seaward movement; not tide-normalized shoreline change"
      },
      "geometry": {
        "type": "LineString",
        "coordinates": [
          [
            99.23317311769075,
            9.364198185311945
          ],
          [
            99.25040286997795,
            9.343139849058456
          ]
        ]
      }
    },
    {
      "type": "Feature",
      "properties": {
        "transect_id": "T047",
        "chainage_m": 4600.0,
        "spacing_m": 100.0,
        "length_m": 3000.0,
        "observations": 4,
        "positions_m": {
          "2023": -29.45,
          "2024": -45.26,
          "2025": -32.36,
          "2026": -32.36
        },
        "net_change_m": -2.91,
        "net_movement_m": -2.91,
        "rate_m_per_year": -0.97,
        "end_point_rate_m_per_year": -0.97,
        "regression_rate_m_per_year": 0.42,
        "start_year": 2023,
        "end_year": 2026,
        "n_observations": 4,
        "classification": "stable",
        "classification_detail": "stable_within_resolution",
        "confidence": "LOW",
        "confidence_reasons": [
          "tide level unavailable for every epoch",
          "intertidal mudflat exposure can move the observed wet/dry edge",
          "sensor resolution and wet/dry pixel mixing limit positional precision",
          "automated spectral boundary requires field or orthophoto validation"
        ],
        "interpretation": "positive is apparent seaward movement; not tide-normalized shoreline change"
      },
      "geometry": {
        "type": "LineString",
        "coordinates": [
          [
            99.23436794356161,
            9.36509618811845
          ],
          [
            99.25066969101674,
            9.343321236625222
          ]
        ]
      }
    },
    {
      "type": "Feature",
      "properties": {
        "transect_id": "T048",
        "chainage_m": 4700.0,
        "spacing_m": 100.0,
        "length_m": 3000.0,
        "observations": 4,
        "positions_m": {
          "2023": -8.38,
          "2024": -21.31,
          "2025": -21.14,
          "2026": -21.14
        },
        "net_change_m": -12.76,
        "net_movement_m": -12.76,
        "rate_m_per_year": -4.25,
        "end_point_rate_m_per_year": -4.25,
        "regression_rate_m_per_year": -3.81,
        "start_year": 2023,
        "end_year": 2026,
        "n_observations": 4,
        "classification": "stable",
        "classification_detail": "stable_within_resolution",
        "confidence": "LOW",
        "confidence_reasons": [
          "tide level unavailable for every epoch",
          "intertidal mudflat exposure can move the observed wet/dry edge",
          "sensor resolution and wet/dry pixel mixing limit positional precision",
          "automated spectral boundary requires field or orthophoto validation"
        ],
        "interpretation": "positive is apparent seaward movement; not tide-normalized shoreline change"
      },
      "geometry": {
        "type": "LineString",
        "coordinates": [
          [
            99.23509877410498,
            9.365635887321616
          ],
          [
            99.25140049950666,
            9.343860903436806
          ]
        ]
      }
    },
    {
      "type": "Feature",
      "properties": {
        "transect_id": "T049",
        "chainage_m": 4800.0,
        "spacing_m": 100.0,
        "length_m": 3000.0,
        "observations": 4,
        "positions_m": {
          "2023": 8.92,
          "2024": -0.92,
          "2025": -1.02,
          "2026": -1.02
        },
        "net_change_m": -9.94,
        "net_movement_m": -9.94,
        "rate_m_per_year": -3.31,
        "end_point_rate_m_per_year": -3.31,
        "regression_rate_m_per_year": -2.99,
        "start_year": 2023,
        "end_year": 2026,
        "n_observations": 4,
        "classification": "stable",
        "classification_detail": "stable_within_resolution",
        "confidence": "LOW",
        "confidence_reasons": [
          "tide level unavailable for every epoch",
          "intertidal mudflat exposure can move the observed wet/dry edge",
          "sensor resolution and wet/dry pixel mixing limit positional precision",
          "automated spectral boundary requires field or orthophoto validation"
        ],
        "interpretation": "positive is apparent seaward movement; not tide-normalized shoreline change"
      },
      "geometry": {
        "type": "LineString",
        "coordinates": [
          [
            99.2389017975667,
            9.367848791456481
          ],
          [
            99.24908653754292,
            9.342670160735151
          ]
        ]
      }
    },
    {
      "type": "Feature",
      "properties": {
        "transect_id": "T050",
        "chainage_m": 4900.0,
        "spacing_m": 100.0,
        "length_m": 3000.0,
        "observations": 4,
        "positions_m": {
          "2023": -1.89,
          "2024": -7.76,
          "2025": -12.52,
          "2026": -12.52
        },
        "net_change_m": -10.63,
        "net_movement_m": -10.63,
        "rate_m_per_year": -3.54,
        "end_point_rate_m_per_year": -3.54,
        "regression_rate_m_per_year": -3.67,
        "start_year": 2023,
        "end_year": 2026,
        "n_observations": 4,
        "classification": "stable",
        "classification_detail": "stable_within_resolution",
        "confidence": "LOW",
        "confidence_reasons": [
          "tide level unavailable for every epoch",
          "intertidal mudflat exposure can move the observed wet/dry edge",
          "sensor resolution and wet/dry pixel mixing limit positional precision",
          "automated spectral boundary requires field or orthophoto validation"
        ],
        "interpretation": "positive is apparent seaward movement; not tide-normalized shoreline change"
      },
      "geometry": {
        "type": "LineString",
        "coordinates": [
          [
            99.24158257639476,
            9.368644241379942
          ],
          [
            99.2481734856078,
            9.3423111458344
          ]
        ]
      }
    },
    {
      "type": "Feature",
      "properties": {
        "transect_id": "T051",
        "chainage_m": 5000.0,
        "spacing_m": 100.0,
        "length_m": 3000.0,
        "observations": 4,
        "positions_m": {
          "2023": 7.3,
          "2024": -4.44,
          "2025": -8.77,
          "2026": -2.83
        },
        "net_change_m": -10.13,
        "net_movement_m": -10.13,
        "rate_m_per_year": -3.38,
        "end_point_rate_m_per_year": -3.38,
        "regression_rate_m_per_year": -3.47,
        "start_year": 2023,
        "end_year": 2026,
        "n_observations": 4,
        "classification": "stable",
        "classification_detail": "stable_within_resolution",
        "confidence": "LOW",
        "confidence_reasons": [
          "tide level unavailable for every epoch",
          "intertidal mudflat exposure can move the observed wet/dry edge",
          "sensor resolution and wet/dry pixel mixing limit positional precision",
          "automated spectral boundary requires field or orthophoto validation"
        ],
        "interpretation": "positive is apparent seaward movement; not tide-normalized shoreline change"
      },
      "geometry": {
        "type": "LineString",
        "coordinates": [
          [
            99.24246641221909,
            9.36886244459735
          ],
          [
            99.24905725820047,
            9.342529334559185
          ]
        ]
      }
    },
    {
      "type": "Feature",
      "properties": {
        "transect_id": "T052",
        "chainage_m": 5100.0,
        "spacing_m": 100.0,
        "length_m": 3000.0,
        "observations": 4,
        "positions_m": {
          "2023": 16.5,
          "2024": -1.11,
          "2025": -2.31,
          "2026": 9.29
        },
        "net_change_m": -7.21,
        "net_movement_m": -7.21,
        "rate_m_per_year": -2.4,
        "end_point_rate_m_per_year": -2.4,
        "regression_rate_m_per_year": -2.28,
        "start_year": 2023,
        "end_year": 2026,
        "n_observations": 4,
        "classification": "stable",
        "classification_detail": "stable_within_resolution",
        "confidence": "LOW",
        "confidence_reasons": [
          "tide level unavailable for every epoch",
          "intertidal mudflat exposure can move the observed wet/dry edge",
          "sensor resolution and wet/dry pixel mixing limit positional precision",
          "automated spectral boundary requires field or orthophoto validation"
        ],
        "interpretation": "positive is apparent seaward movement; not tide-normalized shoreline change"
      },
      "geometry": {
        "type": "LineString",
        "coordinates": [
          [
            99.24335024909384,
            9.369080645579896
          ],
          [
            99.24994103183883,
            9.34274752105465
          ]
        ]
      }
    },
    {
      "type": "Feature",
      "properties": {
        "transect_id": "T053",
        "chainage_m": 5200.0,
        "spacing_m": 100.0,
        "length_m": 3000.0,
        "observations": 4,
        "positions_m": {
          "2023": 4.71,
          "2024": -9.85,
          "2025": -13.61,
          "2026": -1.76
        },
        "net_change_m": -6.47,
        "net_movement_m": -6.47,
        "rate_m_per_year": -2.16,
        "end_point_rate_m_per_year": -2.16,
        "regression_rate_m_per_year": -2.32,
        "start_year": 2023,
        "end_year": 2026,
        "n_observations": 4,
        "classification": "stable",
        "classification_detail": "stable_within_resolution",
        "confidence": "LOW",
        "confidence_reasons": [
          "tide level unavailable for every epoch",
          "intertidal mudflat exposure can move the observed wet/dry edge",
          "sensor resolution and wet/dry pixel mixing limit positional precision",
          "automated spectral boundary requires field or orthophoto validation"
        ],
        "interpretation": "positive is apparent seaward movement; not tide-normalized shoreline change"
      },
      "geometry": {
        "type": "LineString",
        "coordinates": [
          [
            99.24423408701884,
            9.369298844327426
          ],
          [
            99.25082480652274,
            9.342965705320633
          ]
        ]
      }
    },
    {
      "type": "Feature",
      "properties": {
        "transect_id": "T054",
        "chainage_m": 5300.0,
        "spacing_m": 100.0,
        "length_m": 3000.0,
        "observations": 4,
        "positions_m": {
          "2023": -9.65,
          "2024": -24.81,
          "2025": -22.43,
          "2026": -12.8
        },
        "net_change_m": -3.15,
        "net_movement_m": -3.15,
        "rate_m_per_year": -1.05,
        "end_point_rate_m_per_year": -1.05,
        "regression_rate_m_per_year": -0.71,
        "start_year": 2023,
        "end_year": 2026,
        "n_observations": 4,
        "classification": "stable",
        "classification_detail": "stable_within_resolution",
        "confidence": "LOW",
        "confidence_reasons": [
          "tide level unavailable for every epoch",
          "intertidal mudflat exposure can move the observed wet/dry edge",
          "sensor resolution and wet/dry pixel mixing limit positional precision",
          "automated spectral boundary requires field or orthophoto validation"
        ],
        "interpretation": "positive is apparent seaward movement; not tide-normalized shoreline change"
      },
      "geometry": {
        "type": "LineString",
        "coordinates": [
          [
            99.24511792599392,
            9.369517040839778
          ],
          [
            99.25170858225195,
            9.343183887356979
          ]
        ]
      }
    },
    {
      "type": "Feature",
      "properties": {
        "transect_id": "T055",
        "chainage_m": 5400.0,
        "spacing_m": 100.0,
        "length_m": 3000.0,
        "observations": 4,
        "positions_m": {
          "2023": -7.2,
          "2024": -27.7,
          "2025": -24.13,
          "2026": -0.58
        },
        "net_change_m": 6.62,
        "net_movement_m": 6.62,
        "rate_m_per_year": 2.21,
        "end_point_rate_m_per_year": 2.21,
        "regression_rate_m_per_year": 2.34,
        "start_year": 2023,
        "end_year": 2026,
        "n_observations": 4,
        "classification": "stable",
        "classification_detail": "stable_within_resolution",
        "confidence": "LOW",
        "confidence_reasons": [
          "tide level unavailable for every epoch",
          "intertidal mudflat exposure can move the observed wet/dry edge",
          "sensor resolution and wet/dry pixel mixing limit positional precision",
          "automated spectral boundary requires field or orthophoto validation"
        ],
        "interpretation": "positive is apparent seaward movement; not tide-normalized shoreline change"
      },
      "geometry": {
        "type": "LineString",
        "coordinates": [
          [
            99.24426745474912,
            9.369207897647948
          ],
          [
            99.25431118488073,
            9.343973454221006
          ]
        ]
      }
    },
    {
      "type": "Feature",
      "properties": {
        "transect_id": "T056",
        "chainage_m": 5500.0,
        "spacing_m": 100.0,
        "length_m": 3000.0,
        "observations": 4,
        "positions_m": {
          "2023": -4.57,
          "2024": -15.24,
          "2025": -10.43,
          "2026": -4.57
        },
        "net_change_m": 0.0,
        "net_movement_m": 0.0,
        "rate_m_per_year": 0.0,
        "end_point_rate_m_per_year": 0.0,
        "regression_rate_m_per_year": 0.48,
        "start_year": 2023,
        "end_year": 2026,
        "n_observations": 4,
        "classification": "stable",
        "classification_detail": "stable_within_resolution",
        "confidence": "LOW",
        "confidence_reasons": [
          "tide level unavailable for every epoch",
          "intertidal mudflat exposure can move the observed wet/dry edge",
          "sensor resolution and wet/dry pixel mixing limit positional precision",
          "automated spectral boundary requires field or orthophoto validation"
        ],
        "interpretation": "positive is apparent seaward movement; not tide-normalized shoreline change"
      },
      "geometry": {
        "type": "LineString",
        "coordinates": [
          [
            99.24451212051463,
            9.369333408738187
          ],
          [
            99.25572735522492,
            9.344590503440084
          ]
        ]
      }
    },
    {
      "type": "Feature",
      "properties": {
        "transect_id": "T057",
        "chainage_m": 5600.0,
        "spacing_m": 100.0,
        "length_m": 3000.0,
        "observations": 4,
        "positions_m": {
          "2023": 10.79,
          "2024": -0.96,
          "2025": 2.08,
          "2026": -0.96
        },
        "net_change_m": -11.75,
        "net_movement_m": -11.75,
        "rate_m_per_year": -3.92,
        "end_point_rate_m_per_year": -3.92,
        "regression_rate_m_per_year": -3.22,
        "start_year": 2023,
        "end_year": 2026,
        "n_observations": 4,
        "classification": "stable",
        "classification_detail": "stable_within_resolution",
        "confidence": "LOW",
        "confidence_reasons": [
          "tide level unavailable for every epoch",
          "intertidal mudflat exposure can move the observed wet/dry edge",
          "sensor resolution and wet/dry pixel mixing limit positional precision",
          "automated spectral boundary requires field or orthophoto validation"
        ],
        "interpretation": "positive is apparent seaward movement; not tide-normalized shoreline change"
      },
      "geometry": {
        "type": "LineString",
        "coordinates": [
          [
            99.24858873713279,
            9.370677341642024
          ],
          [
            99.25331962429533,
            9.343952754182526
          ]
        ]
      }
    },
    {
      "type": "Feature",
      "properties": {
        "transect_id": "T058",
        "chainage_m": 5700.0,
        "spacing_m": 100.0,
        "length_m": 3000.0,
        "observations": 4,
        "positions_m": {
          "2023": 5.74,
          "2024": -14.26,
          "2025": -14.26,
          "2026": -7.19
        },
        "net_change_m": -12.93,
        "net_movement_m": -12.93,
        "rate_m_per_year": -4.31,
        "end_point_rate_m_per_year": -4.31,
        "regression_rate_m_per_year": -3.88,
        "start_year": 2023,
        "end_year": 2026,
        "n_observations": 4,
        "classification": "stable",
        "classification_detail": "stable_within_resolution",
        "confidence": "LOW",
        "confidence_reasons": [
          "tide level unavailable for every epoch",
          "intertidal mudflat exposure can move the observed wet/dry edge",
          "sensor resolution and wet/dry pixel mixing limit positional precision",
          "automated spectral boundary requires field or orthophoto validation"
        ],
        "interpretation": "positive is apparent seaward movement; not tide-normalized shoreline change"
      },
      "geometry": {
        "type": "LineString",
        "coordinates": [
          [
            99.25192897289932,
            9.370877907416862
          ],
          [
            99.25180096499592,
            9.34374372577373
          ]
        ]
      }
    },
    {
      "type": "Feature",
      "properties": {
        "transect_id": "T059",
        "chainage_m": 5800.0,
        "spacing_m": 100.0,
        "length_m": 3000.0,
        "observations": 4,
        "positions_m": {
          "2023": 5.34,
          "2024": -14.66,
          "2025": -14.66,
          "2026": 5.34
        },
        "net_change_m": 0.0,
        "net_movement_m": 0.0,
        "rate_m_per_year": 0.0,
        "end_point_rate_m_per_year": 0.0,
        "regression_rate_m_per_year": 0.0,
        "start_year": 2023,
        "end_year": 2026,
        "n_observations": 4,
        "classification": "stable",
        "classification_detail": "stable_within_resolution",
        "confidence": "LOW",
        "confidence_reasons": [
          "tide level unavailable for every epoch",
          "intertidal mudflat exposure can move the observed wet/dry edge",
          "sensor resolution and wet/dry pixel mixing limit positional precision",
          "automated spectral boundary requires field or orthophoto validation"
        ],
        "interpretation": "positive is apparent seaward movement; not tide-normalized shoreline change"
      },
      "geometry": {
        "type": "LineString",
        "coordinates": [
          [
            99.25283970313029,
            9.370873667379858
          ],
          [
            99.25271162463882,
            9.343739487920125
          ]
        ]
      }
    }
  ]
}
