{
  "type": "FeatureCollection",
  "features": [
    {
      "type": "Feature",
      "properties": {
        "year": 2021,
        "target_year": 2021,
        "actual_year": 2021,
        "sensor": "Sentinel-2B",
        "actual_acquisition_period": "2021-01-01 to 2021-02-20",
        "acquisition_period": "2021-01-01 to 2021-02-20",
        "scene_count": 3,
        "method": "MNDWI otsu, conservative morphology, edge-connected ocean exterior, corridor-guided continuous trace",
        "threshold": 0.22266,
        "mndwi_threshold": 0.22266,
        "threshold_candidates": {
          "otsu": {
            "threshold": 0.22266,
            "ocean_fraction": 0.3804
          },
          "fixed_zero": {
            "threshold": 0.0,
            "ocean_fraction": 0.5225
          },
          "percentile_60": {
            "threshold": 0.62731,
            "ocean_fraction": 0.3673
          }
        },
        "tide_status": "unverified",
        "source_resolution_m": 20,
        "interpretation": "image-derived water-land boundary, not a true/surveyed shoreline",
        "qa_status": "MVP automated extraction; visual review required",
        "segment_id": 1,
        "length_m": 14786.2
      },
      "geometry": {
        "type": "LineString",
        "coordinates": [
          [
            99.95115688327739,
            13.30878175540867
          ],
          [
            99.95115898851923,
            13.30932121502991
          ],
          [
            99.95189754919498,
            13.309321464648932
          ],
          [
            99.95392148096184,
            13.307505600506927
          ],
          [
            99.9666828379028,
            13.312882184829572
          ],
          [
            99.96723675515874,
            13.312880076493995
          ],
          [
            99.97056241756036,
            13.313409872624439
          ],
          [
            99.97481562993566,
            13.315021024679988
          ],
          [
            99.97908852184914,
            13.321514330199951
          ],
          [
            99.97909070318109,
            13.322056799946445
          ],
          [
            99.98241660829915,
            13.321863126091774
          ],
          [
            99.98537156684209,
            13.322755803385844
          ],
          [
            99.98611234615474,
            13.32329540413921
          ],
          [
            99.98908357829663,
            13.327442832030313
          ],
          [
            99.99019294288428,
            13.327800156967498
          ],
          [
            99.9908130688996,
            13.327797736636764
          ],
          [
            99.99277950461573,
            13.328151702281682
          ],
          [
            99.99370422731289,
            13.328509733546433
          ],
          [
            99.99667787496544,
            13.333199523718044
          ],
          [
            99.99668083836731,
            13.333922812191526
          ],
          [
            99.9983527959705,
            13.336371522841644
          ],
          [
            99.9983560695363,
            13.337168974151878
          ],
          [
            99.99854181672944,
            13.337434064268534
          ],
          [
            99.99854593127483,
            13.33843609993156
          ],
          [
            99.99799864049992,
            13.340065678306408
          ],
          [
            99.99913854863227,
            13.347836654083226
          ],
          [
            99.99951159527282,
            13.348739306508127
          ],
          [
            100.00174397153353,
            13.352708631649735
          ],
          [
            100.00193087653437,
            13.353250366042833
          ],
          [
            100.0222792830588,
            13.36148694856942
          ],
          [
            100.02283330162942,
            13.361484711041308
          ],
          [
            100.02320340950754,
            13.361664038917636
          ],
          [
            100.02449993600166,
            13.362562912116978
          ],
          [
            100.02635431784383,
            13.36436363248436
          ],
          [
            100.02728228456364,
            13.365444806682149
          ],
          [
            100.03024937712246,
            13.368325913467455
          ],
          [
            100.03228621617042,
            13.369583372468215
          ],
          [
            100.03395525857287,
            13.371203962003197
          ],
          [
            100.03488482868693,
            13.372646742219475
          ],
          [
            100.03544427479564,
            13.373910210845311
          ],
          [
            100.0374904715879,
            13.377337452618532
          ],
          [
            100.03843170815558,
            13.381492502413952
          ],
          [
            100.0395669834483,
            13.38781661278002
          ],
          [
            100.03994102503722,
            13.388900006458345
          ]
        ]
      }
    }
  ]
}
