{"type":"FeatureCollection","name":"rayong_mangrove_planting_plots","source":"Google Drive rayong_planting_plots.geojson (file 11HQSiM37zPvbkG5mIsI_z47nf8WXBbEO); geometry simplified in EPSG:32647 for repository use","features":[{"type":"Feature","id":"14(1)-STC","properties":{"plotId":"14(1)-STC","officialParticipatingAreaRai":12.47,"plantingDate":"2025-04-02","project":"MOC 1-STC premium"},"geometry":{"type":"Polygon","coordinates":[[[101.67374,12.6918659],[101.6722565,12.690681499999998],[101.6717337,12.691241199999997],[101.6731281,12.692606399999997],[101.67374,12.6918659]]]}},{"type":"Feature","id":"14-STC","properties":{"plotId":"14-STC","officialParticipatingAreaRai":4.48,"plantingDate":"2025-05-11","project":"MOC 1-STC premium"},"geometry":{"type":"MultiPolygon","coordinates":[[[[101.6997787,12.7104811],[101.6999213,12.710913299999998],[101.70004220000001,12.7110295],[101.700877,12.7107952],[101.7008071,12.7102719],[101.6997787,12.7104811]]],[[[101.6996932,12.710229099999996],[101.6997319,12.710400299999998],[101.6999892,12.710370599999997],[101.6999508,12.710217399999998],[101.6996932,12.710229099999996]]]]}},{"type":"Feature","id":"14-VSD","properties":{"plotId":"14-VSD","officialParticipatingAreaRai":39.03,"plantingDate":"2025-04-13","project":"MOC 1-VSD  premium"},"geometry":{"type":"MultiPolygon","coordinates":[[[[101.7046469,12.719581799999997],[101.7051517,12.7206573],[101.706592,12.72017],[101.706692,12.719912],[101.706585,12.719661],[101.7046469,12.719581799999997]]],[[[101.70517030000002,12.7206969],[101.7052908,12.7209535],[101.706585,12.720531000000001],[101.706487,12.720246999999999],[101.70517030000002,12.7206969]]],[[[101.70770800000001,12.718409999999999],[101.707684,12.718458999999998],[101.707487,12.718401],[101.707042,12.719735999999997],[101.706864,12.719757999999999],[101.7067655,12.720103199999999],[101.708008,12.719693999999999],[101.70697700000001,12.720067],[101.706853,12.720169999999998],[101.706724,12.720158000000001],[101.706649,12.720271999999998],[101.706673,12.720484],[101.706777,12.72043],[101.706737,12.720314999999998],[101.706826,12.720310999999999],[101.706888,12.720413],[101.708555,12.719769999999999],[101.708847,12.720737],[101.709283,12.720707000000004],[101.709412,12.719414999999998],[101.7091996,12.719163],[101.70770800000001,12.718409999999999]]]]}},{"type":"Feature","id":"15-STC","properties":{"plotId":"15-STC","officialParticipatingAreaRai":5.07,"plantingDate":"2025-04-14","project":"MOC 1-STC premium"},"geometry":{"type":"Polygon","coordinates":[[[101.7884446,12.740622399999996],[101.78859820000001,12.7406445],[101.7888611,12.739142600000001],[101.7883367,12.739037899999998],[101.7883393,12.739280000000003],[101.788195,12.739313299999997],[101.7882288,12.739731399999998],[101.7883025,12.739798899999998],[101.7881728,12.7401735],[101.7882472,12.740305699999999],[101.7883972,12.7403644],[101.7884446,12.740622399999996]]]}},{"type":"Feature","id":"15-VSD","properties":{"plotId":"15-VSD","officialParticipatingAreaRai":46.47,"plantingDate":"2025-04-13","project":"MOC 1-VSD  premium"},"geometry":{"type":"Polygon","coordinates":[[[101.704712,12.727972999999999],[101.70501,12.728978999999999],[101.705234,12.728838],[101.7052756,12.728910699999998],[101.706924,12.728342999999999],[101.707071,12.728825],[101.707502,12.728659],[101.70753200000001,12.728722999999999],[101.70776,12.728756999999998],[101.707852,12.728948],[101.707917,12.728947],[101.708072,12.728807],[101.708243,12.728159999999997],[101.708736,12.728088999999999],[101.708822,12.727975999999998],[101.708865,12.727552999999999],[101.708786,12.727132],[101.708706,12.727029999999997],[101.708868,12.727108999999999],[101.70896700000002,12.726954999999998],[101.70906,12.726954999999998],[101.709176,12.72671],[101.709376,12.72654],[101.709355,12.726280999999998],[101.708561,12.726588999999997],[101.7082485,12.725625599999999],[101.70753800000001,12.726680000000002],[101.707609,12.726914],[101.707887,12.726883000000003],[101.70805800000001,12.727198],[101.707655,12.727362],[101.707875,12.728035000000002],[101.707772,12.728045999999997],[101.70749060000001,12.727004100000002],[101.704712,12.727972999999999]]]}},{"type":"Feature","id":"16-VSD","properties":{"plotId":"16-VSD","officialParticipatingAreaRai":12.03,"plantingDate":"2025-04-15","project":"MOC 1-VSD  premium"},"geometry":{"type":"MultiPolygon","coordinates":[[[[101.700263,12.729876999999998],[101.701582,12.729431],[101.701441,12.729010999999998],[101.699932,12.729393999999997],[101.699984,12.729590999999997],[101.700263,12.729876999999998]]],[[[101.699876,12.729636],[101.699796,12.729460000000001],[101.699226,12.729617999999999],[101.699348,12.729861],[101.699876,12.729636]]],[[[101.699002,12.731569],[101.69951,12.731642],[101.69958,12.731565],[101.699335,12.729970000000002],[101.699246,12.730006999999999],[101.699261,12.730067000000002],[101.699102,12.730073999999998],[101.699002,12.731569]]]]}},{"type":"Feature","id":"17-VSD","properties":{"plotId":"17-VSD","officialParticipatingAreaRai":24.41,"plantingDate":"2025-04-15","project":"MOC 1-VSD  premium"},"geometry":{"type":"MultiPolygon","coordinates":[[[[101.70280900000002,12.729975999999997],[101.702385,12.729475],[101.701381,12.729705],[101.701713,12.730339],[101.70280900000002,12.729975999999997]]],[[[101.701286,12.729739],[101.70040310000002,12.7300703],[101.701984,12.731313000000002],[101.702112,12.731231999999999],[101.701286,12.729739]]],[[[101.7000668,12.7301114],[101.69973800000001,12.730293],[101.700582,12.731891999999998],[101.701527,12.731377],[101.701776,12.731544999999999],[101.701845,12.731515],[101.7016008,12.7312081],[101.701546,12.731252],[101.7000668,12.7301114]]],[[[101.701978,12.731528999999998],[101.70223150000001,12.7313172],[101.702166,12.731240000000001],[101.701871,12.731389],[101.701978,12.731528999999998]]],[[[101.701717,12.731624],[101.701508,12.731489999999999],[101.700786,12.731856999999998],[101.701717,12.731624]]]]}},{"type":"Feature","id":"18(1)-STC","properties":{"plotId":"18(1)-STC","officialParticipatingAreaRai":21.03,"plantingDate":"2025-04-13","project":"MOC 1-STC premium"},"geometry":{"type":"Polygon","coordinates":[[[101.66400891664503,12.727223092563772],[101.66377300985458,12.72670670574779],[101.66490908096355,12.725901263537034],[101.6652947593581,12.725914581908237],[101.66542792062317,12.72627319250925],[101.66529937614763,12.726356533557752],[101.66534378483762,12.726477837859782],[101.66597974105323,12.726189564358661],[101.66688264139037,12.727968317759691],[101.66648979685235,12.728172098380249],[101.66590434051443,12.727037261956442],[101.6648819543212,12.72778863402491],[101.66454273535895,12.727126693321205],[101.66523210010021,12.72672246504437],[101.66522599852125,12.726598227482082],[101.66400891664503,12.727223092563772]]]}},{"type":"Feature","id":"19-STC","properties":{"plotId":"19-STC","officialParticipatingAreaRai":15.21,"plantingDate":"2025-04-14","project":"MOC 1-STC premium"},"geometry":{"type":"Polygon","coordinates":[[[101.65923459987054,12.72631215695527],[101.65922775202009,12.726538077074764],[101.65966380608782,12.726876990623689],[101.66001384436672,12.726909609910024],[101.66033244528813,12.727457485238787],[101.66043836292894,12.727443836373924],[101.66186351210165,12.72599803988165],[101.66159064635907,12.725448315626545],[101.66037823555988,12.726553620517063],[101.6598658377253,12.725953487807734],[101.65923459987054,12.72631215695527]]]}},{"type":"Feature","id":"20-STC","properties":{"plotId":"20-STC","officialParticipatingAreaRai":28.69,"plantingDate":"2025-04-14","project":"MOC 1-STC premium"},"geometry":{"type":"Polygon","coordinates":[[[101.66321660568455,12.723408342966087],[101.66338123274508,12.724192647555943],[101.6634820720686,12.724155497126501],[101.6634123819805,12.723650292620762],[101.66375949225896,12.723402882369099],[101.66335538190596,12.723479219418758],[101.66383178392589,12.723275678801112],[101.66486937898298,12.72305745651787],[101.66432559126359,12.72385792217631],[101.66422871322135,12.724274461924761],[101.66359852452733,12.724732503333302],[101.6634086522964,12.7250686542599],[101.66304241385767,12.725189690169815],[101.6627957895937,12.725409529390102],[101.66272500348687,12.725670511720867],[101.66215674773974,12.725903359881745],[101.6618510835679,12.724831382887396],[101.66259235435538,12.724435466250004],[101.66247703530851,12.723966856136618],[101.6627488733436,12.723548566243538],[101.66321660568455,12.723408342966087]]]}},{"type":"Feature","id":"22(1)-STC","properties":{"plotId":"22(1)-STC","officialParticipatingAreaRai":13.06,"plantingDate":"2025-04-13","project":"MOC 1-STC premium"},"geometry":{"type":"Polygon","coordinates":[[[101.7969849,12.7564551],[101.7968974,12.755954799999998],[101.7969583,12.755994400000002],[101.7964833,12.7538961],[101.7957313,12.7540478],[101.7961788,12.755859000000001],[101.7962382,12.755848700000001],[101.7964255,12.7553858],[101.7966551,12.755231999999998],[101.7967021,12.755328299999999],[101.7966465,12.755335599999999],[101.7967976,12.755759499999998],[101.7961422,12.7559044],[101.7963569,12.756607399999998],[101.7969849,12.7564551]]]}},{"type":"Feature","id":"22-STC","properties":{"plotId":"22-STC","officialParticipatingAreaRai":26.05,"plantingDate":"2025-04-26","project":"MOC 1-STC premium"},"geometry":{"type":"MultiPolygon","coordinates":[[[[101.802656,12.758963100000003],[101.8032073,12.758547699999998],[101.8031219,12.7583583],[101.8020966,12.7573049],[101.80287530000001,12.756057599999997],[101.802301,12.755784299999998],[101.8020876,12.755588899999998],[101.8011208,12.7568],[101.8005809,12.7579475],[101.8015659,12.7581258],[101.8016376,12.7581615],[101.8017238,12.7586414],[101.802656,12.758963100000003]]],[[[101.8014413,12.756542999999997],[101.802018,12.755806699999997],[101.8026119,12.7561971],[101.8020382,12.7569788],[101.8014413,12.756542999999997]]]]}},{"type":"Feature","id":"23(1)-STC","properties":{"plotId":"23(1)-STC","officialParticipatingAreaRai":7.46,"plantingDate":"2025-04-01","project":"MOC 1-STC premium"},"geometry":{"type":"Polygon","coordinates":[[[101.6585842,12.670983599999998],[101.6587911,12.671272000000002],[101.660149,12.671791399999998],[101.6596342,12.670550199999997],[101.6581264,12.6710028],[101.6581616,12.6710559],[101.6583882,12.670949100000001],[101.6585842,12.670983599999998]]]}},{"type":"Feature","id":"23-STC","properties":{"plotId":"23-STC","officialParticipatingAreaRai":42.9,"plantingDate":"2025-04-26","project":"MOC 1-STC premium"},"geometry":{"type":"Polygon","coordinates":[[[101.72201705994901,12.716052663924165],[101.72155774114206,12.715087106580029],[101.72210190862857,12.714672328855459],[101.72255231046428,12.714710827810089],[101.72247059885392,12.714233472001613],[101.7232788844235,12.713826999733762],[101.72345126486836,12.714064799859809],[101.72348480446419,12.714738616642329],[101.72489152728738,12.714841545298922],[101.72503877729062,12.714919562861802],[101.72512057747255,12.714855477204985],[101.7263833291677,12.714914358044012],[101.72496971772729,12.716177553756168],[101.72201705994901,12.716052663924165]]]}}]}
