{
  "type": "FeatureCollection",
  "name": "samut_songkhram_project_analysis_aoi",
  "features": [
    {
      "type": "Feature",
      "properties": {
        "name": "Samut Songkhram 9-plot buffered analysis AOI",
        "status": "analytical_buffer_not_official_boundary",
        "project_plot_count": 9,
        "plot_ids": [
          "91-STC",
          "92-STC",
          "93-STC",
          "94-STC",
          "95-STC",
          "96-STC",
          "97-STC",
          "98-STC",
          "87-VSD"
        ],
        "buffer_m": 2500.0,
        "purpose": "satellite context and matched-control search around verified plots",
        "source_plot_file": "data/aoi/samut_songkhram_project_plots.geojson",
        "analysis_crs": "EPSG:32647",
        "generated_at_utc": "2026-08-29T01:20:09.121348Z"
      },
      "geometry": {
        "type": "MultiPolygon",
        "coordinates": [
          [
            [
              [
                99.94808694971282,
                13.32747221786097
              ],
              [
                99.94871533060369,
                13.3282644432144
              ],
              [
                99.95030046598515,
                13.32989725485245
              ],
              [
                99.95204373304657,
                13.331367416012704
              ],
              [
                99.95392781182113,
                13.33266031833161
              ],
              [
                99.95593398223447,
                13.333763114666214
              ],
              [
                99.95804231018212,
                13.33466484683336
              ],
              [
                99.95993468538532,
                13.33536643869089
              ],
              [
                99.9610145680874,
                13.336815257185512
              ],
              [
                99.96248882181771,
                13.33843924608088
              ],
              [
                99.96411552666517,
                13.339917099629833
              ],
              [
                99.96587964882815,
                13.341235157736373
              ],
              [
                99.96776488351401,
                13.342381237195974
              ],
              [
                99.96975380568696,
                13.343344744379166
              ],
              [
                99.97182803120558,
                13.344116773215882
              ],
              [
                99.97396838685668,
                13.344690187571807
              ],
              [
                99.9764861823129,
                13.345238829347785
              ],
              [
                99.97783035255063,
                13.345928405612831
              ],
              [
                99.97989138341448,
                13.346748939298621
              ],
              [
                99.98053087679438,
                13.34693562096041
              ],
              [
                99.98171778316384,
                13.347405416852325
              ],
              [
                99.98391131128436,
                13.348034864965992
              ],
              [
                99.98615766847115,
                13.34844877643493
              ],
              [
                99.9884348218801,
                13.348643091922863
              ],
              [
                99.99072043644298,
                13.348615905958612
              ],
              [
                99.99299209412005,
                13.34836748562412
              ],
              [
                99.99522751396643,
                13.347900267915662
              ],
              [
                99.99740477084477,
                13.347218835804977
              ],
              [
                99.9995025106305,
                13.34632987323673
              ],
              [
                100.00150015979052,
                13.345242099506047
              ],
              [
                100.00337812727346,
                13.343966183662928
              ],
              [
                100.0051179967253,
                13.342514639786666
              ],
              [
                100.00670270714129,
                13.340901704161482
              ],
              [
                100.00811672018018,
                13.339143195562388
              ],
              [
                100.00934617249926,
                13.337256360025872
              ],
              [
                100.01037901161766,
                13.335259701632209
              ],
              [
                100.01120511397853,
                13.333172800962888
              ],
              [
                100.0118163840575,
                13.331016123017294
              ],
              [
                100.01220683355156,
                13.328810816475308
              ],
              [
                100.01237263987963,
                13.326578506276793
              ],
              [
                100.0123757274234,
                13.326447506878557
              ],
              [
                100.01231076235324,
                13.324153040514432
              ],
              [
                100.01200851105108,
                13.32187685652118
              ],
              [
                100.01147209688212,
                13.319642427109851
              ],
              [
                100.01070705747794,
                13.31747279331487
              ],
              [
                100.00972128739177,
                13.315390327456916
              ],
              [
                100.00852495648097,
                13.313416502522394
              ],
              [
                100.00805873137281,
                13.312729339298317
              ],
              [
                100.00685498102423,
                13.311114861667443
              ],
              [
                100.00551029629608,
                13.309610852587529
              ],
              [
                100.00533412511128,
                13.309445828239472
              ],
              [
                100.00469310923677,
                13.30870493539352
              ],
              [
                100.00313964558056,
                13.307218646922223
              ],
              [
                100.00145043101186,
                13.305881928762966
              ],
              [
                99.99964042118086,
                13.304706614464713
              ],
              [
                99.99915947312874,
                13.304425282612305
              ],
              [
                99.99901917950848,
                13.304313499142863
              ],
              [
                99.99844510371932,
                13.303899928090878
              ],
              [
                99.99826827748892,
                13.303784807627157
              ],
              [
                99.99748375343985,
                13.302890863007232
              ],
              [
                99.99474885849317,
                13.30005364174896
              ],
              [
                99.99316470167024,
                13.298559661474256
              ],
              [
                99.99144256241846,
                13.297220129354086
              ],
              [
                99.98959807688554,
                13.29604720643774
              ],
              [
                99.98764799120565,
                13.295051541120044
              ],
              [
                99.98561000953191,
                13.2942421725309
              ],
              [
                99.98407543393665,
                13.29371460964459
              ],
              [
                99.98364828809622,
                13.293593468617038
              ],
              [
                99.98358753573129,
                13.29356764544846
              ],
              [
                99.98260079384262,
                13.292289368757688
              ],
              [
                99.98086922187984,
                13.290493172752361
              ],
              [
                99.97894788290193,
                13.288892764475772
              ],
              [
                99.97573510815393,
                13.286500130770104
              ],
              [
                99.97377379634895,
                13.285189717309978
              ],
              [
                99.97168542210406,
                13.28408358969072
              ],
              [
                99.96949208471324,
                13.283193452721626
              ],
              [
                99.96721699336622,
                13.282528725658883
              ],
              [
                99.96698476490207,
                13.282485692726556
              ],
              [
                99.96548367466109,
                13.281981141933846
              ],
              [
                99.9633867717762,
                13.281484902628812
              ],
              [
                99.96125172655906,
                13.281182595981386
              ],
              [
                99.9590971908694,
                13.281076863312409
              ],
              [
                99.95694198676293,
                13.281168628663515
              ],
              [
                99.95480494219738,
                13.281457090718723
              ],
              [
                99.95270472668514,
                13.281939729786929
              ],
              [
                99.9506596883217,
                13.282612329784724
              ],
              [
                99.94868769360885,
                13.28346901502884
              ],
              [
                99.94640272237726,
                13.284589614372118
              ],
              [
                99.944438830052,
                13.285673310621375
              ],
              [
                99.94259222948538,
                13.28693948357311
              ],
              [
                99.94088053665217,
                13.28837605602794
              ],
              [
                99.93932008157176,
                13.289969325141287
              ],
              [
                99.93792575253019,
                13.291704093047091
              ],
              [
                99.93671085401323,
                13.293563811746534
              ],
              [
                99.9356869797066,
                13.295530740883507
              ],
              [
                99.93486390177742,
                13.297586116905435
              ],
              [
                99.93424947749745,
                13.299710331999048
              ],
              [
                99.93384957410441,
                13.30188312109701
              ],
              [
                99.93366801262465,
                13.304083755173663
              ],
              [
                99.93370653120101,
                13.306291238987432
              ],
              [
                99.93396476828399,
                13.308484511384359
              ],
              [
                99.9344402658548,
                13.310642646251791
              ],
              [
                99.93512849265878,
                13.31274505220448
              ],
              [
                99.93602288723513,
                13.314771669096459
              ],
              [
                99.93711492034078,
                13.316703159481685
              ],
              [
                99.93839417617906,
                13.31852109319396
              ],
              [
                99.93984845166415,
                13.320208123281775
              ],
              [
                99.94146387277824,
                13.321748151615646
              ],
              [
                99.94808694971282,
                13.32747221786097
              ]
            ]
          ],
          [
            [
              [
                99.83766637341763,
                13.265518094997748
              ],
              [
                99.83766598299243,
                13.265518159082006
              ],
              [
                99.83767297979219,
                13.265559059014281
              ],
              [
                99.83767309533368,
                13.265559040049338
              ],
              [
                99.83767340962793,
                13.265561672033938
              ],
              [
                99.83769749717365,
                13.265702374911893
              ],
              [
                99.83817514765109,
                13.267847630860322
              ],
              [
                99.83886304457508,
                13.269937369476413
              ],
              [
                99.83975470178221,
                13.271951870960542
              ],
              [
                99.84084170971536,
                13.273872125052723
              ],
              [
                99.84211381463123,
                13.275680010491264
              ],
              [
                99.84355901524432,
                13.277358466093906
              ],
              [
                99.84357291739968,
                13.277371749150403
              ],
              [
                99.84402814620299,
                13.277992850564084
              ],
              [
                99.84548234358464,
                13.279622043395342
              ],
              [
                99.84708895584735,
                13.281107551969855
              ],
              [
                99.84803938063267,
                13.281905605873622
              ],
              [
                99.8497564899856,
                13.28321503806942
              ],
              [
                99.85159190658787,
                13.284360218420213
              ],
              [
                99.8535293075317,
                13.285330961895408
              ],
              [
                99.85555146223435,
                13.286118634838386
              ],
              [
                99.85764038577175,
                13.286716231803965
              ],
              [
                99.859777498945,
                13.287118437904885
              ],
              [
                99.86194379365182,
                13.287321676111107
              ],
              [
                99.86412000208614,
                13.287324139079756
              ],
              [
                99.865617624854,
                13.287187056927602
              ],
              [
                99.86639674501072,
                13.28723723378502
              ],
              [
                99.86873709079649,
                13.287154987161454
              ],
              [
                99.86955426471829,
                13.287085476272273
              ],
              [
                99.87172765354805,
                13.28679814318515
              ],
              [
                99.87386337359548,
                13.286310028880306
              ],
              [
                99.8759421334479,
                13.28562554275196
              ],
              [
                99.87794515667659,
                13.284750867925426
              ],
              [
                99.87985435154786,
                13.283693905352804
              ],
              [
                99.88009829320941,
                13.283527079601194
              ],
              [
                99.8805066223187,
                13.283295870731422
              ],
              [
                99.8823189683798,
                13.282026580657712
              ],
              [
                99.8839978835669,
                13.280592019195165
              ],
              [
                99.88552771899923,
                13.279005560077568
              ],
              [
                99.88689421641682,
                13.277281992764388
              ],
              [
                99.88808464104937,
                13.275437384492317
              ],
              [
                99.88908790024477,
                13.273488930422925
              ],
              [
                99.88989464675444,
                13.271454793286715
              ],
              [
                99.89049736571634,
                13.269353934021447
              ],
              [
                99.89089044453053,
                13.267205934986022
              ],
              [
                99.8910702249819,
                13.265030817399879
              ],
              [
                99.89103503713183,
                13.262848854711013
              ],
              [
                99.89101670745553,
                13.26256906957367
              ],
              [
                99.89101670628182,
                13.26256898428329
              ],
              [
                99.89090264437777,
                13.260828004584315
              ],
              [
                99.89064685110026,
                13.258623644165601
              ],
              [
                99.8901716911433,
                13.256454463154798
              ],
              [
                99.88948174724725,
                13.25434135663415
              ],
              [
                99.88858367059979,
                13.252304679043387
              ],
              [
                99.88748611658318,
                13.250364048173696
              ],
              [
                99.88619966124654,
                13.248538156272502
              ],
              [
                99.88473669931311,
                13.246844590075266
              ],
              [
                99.88311132470963,
                13.245299661494043
              ],
              [
                99.88133919477076,
                13.243918250589717
              ],
              [
                99.8794373794279,
                13.242713662336351
              ],
              [
                99.87872592139239,
                13.242310091630607
              ],
              [
                99.8784725424395,
                13.242166440140252
              ],
              [
                99.87650975164125,
                13.241173337203442
              ],
              [
                99.87445902292322,
                13.240368650051948
              ],
              [
                99.8723391498643,
                13.239759753197047
              ],
              [
                99.87016955924537,
                13.239352226895187
              ],
              [
                99.86797013315349,
                13.239149806038851
              ],
              [
                99.86576102692787,
                13.239154345945147
              ],
              [
                99.86429885200347,
                13.239294982466392
              ],
              [
                99.86278803793374,
                13.239141597199255
              ],
              [
                99.86073141296711,
                13.23911318240912
              ],
              [
                99.8597138064375,
                13.239143573914944
              ],
              [
                99.8574066844988,
                13.239326248434768
              ],
              [
                99.85512984546234,
                13.239734424953244
              ],
              [
                99.852906195538,
                13.240363997403794
              ],
              [
                99.85075810633154,
                13.241208632306025
              ],
              [
                99.84870718992576,
                13.242259832421453
              ],
              [
                99.84677408157052,
                13.24350702216582
              ],
              [
                99.84497823216189,
                13.244937653922388
              ],
              [
                99.84333771259314,
                13.246537334190709
              ],
              [
                99.84186903194295,
                13.248289968306132
              ],
              [
                99.84058697132888,
                13.25017792227869
              ],
              [
                99.83950443509866,
                13.252182200127663
              ],
              [
                99.83863232085913,
                13.254282634932009
              ],
              [
                99.83797940965535,
                13.256458091678384
              ],
              [
                99.83755227741125,
                13.258686679869353
              ],
              [
                99.83735522853073,
                13.26094597375521
              ],
              [
                99.83739025233636,
                13.263213237975537
              ],
              [
                99.83765700279388,
                13.265465656341036
              ],
              [
                99.83766459885369,
                13.265510157249414
              ],
              [
                99.83766637341763,
                13.265518094997748
              ]
            ]
          ]
        ]
      }
    }
  ]
}
