{
  "type": "FeatureCollection",
  "name": "samut_songkhram_aoi_provisional",
  "crs": {"type":"name","properties":{"name":"urn:ogc:def:crs:OGC:1.3:CRS84"}},
  "features": [
    {
      "type": "Feature",
      "properties": {
        "name": "Samut Songkhram coastal provisional AOI",
        "status": "provisional",
        "official_project_boundary": false,
        "purpose": "Initial satellite search/clip AOI covering Samut Songkhram coast, Mae Klong river mouth, Don Hoi Lot/intertidal zone and adjacent reference coast. Replace with verified SEG030/planting polygons when available.",
        "source_note": "Repository contained no verified AOI at initialization on 2026-08-28. Coordinates are intentionally broad and must not be treated as cadastral or official project boundaries.",
        "analysis_crs": "EPSG:32647"
      },
      "geometry": {
        "type": "Polygon",
        "coordinates": [[[99.93,13.29],[100.08,13.29],[100.08,13.46],[99.93,13.46],[99.93,13.29]]]
      }
    }
  ]
}
