{"type":"FeatureCollection","name":"surat_thani_37_stc_analysis_aoi","features":[{"type":"Feature","properties":{"plot_code":"37-STC","province_th":"สุราษฎร์ธานี","province_en":"Surat Thani","role":"analysis_aoi","source":"envelope_of_2000m_buffer_from_current_pdd_boundary","buffer_m":2000,"is_project_boundary":false,"note":"Analysis AOI only; includes surrounding coast/mangrove reference context."},"geometry":{"type":"Polygon","coordinates":[[[99.20401465,9.32074491],[99.25612472,9.32074491],[99.25612472,9.36535481],[99.20401465,9.36535481],[99.20401465,9.32074491]]]}}]}