{
  "type": "FeatureCollection",
  "features": [
    {
      "type": "Feature",
      "properties": {
        "year": 1990,
        "target_year": 1990,
        "actual_year": 1990,
        "sensor": "landsat-5",
        "actual_acquisition_period": "1990-01-15 to 1990-12-17",
        "acquisition_period": "1990-01-15 to 1990-12-17",
        "scene_count": 3,
        "method": "MNDWI otsu, conservative morphology, edge-connected ocean exterior, corridor-guided continuous trace",
        "threshold": 0.25,
        "mndwi_threshold": 0.25,
        "threshold_candidates": {
          "otsu": {
            "threshold": 0.25,
            "ocean_fraction": 0.435
          },
          "fixed_zero": {
            "threshold": 0.0,
            "ocean_fraction": 0.6067
          },
          "percentile_60": {
            "threshold": 0.56939,
            "ocean_fraction": 0.378
          }
        },
        "tide_status": "unverified",
        "source_resolution_m": 30,
        "interpretation": "image-derived water-land boundary, not a true/surveyed shoreline",
        "qa_status": "MVP automated extraction; visual review required",
        "segment_id": 1,
        "length_m": 17113.8
      },
      "geometry": {
        "type": "LineString",
        "coordinates": [
          [
            99.93767593166847,
            13.308198957584304
          ],
          [
            99.94544646495157,
            13.312238793481145
          ],
          [
            99.94596880845837,
            13.312236849114075
          ],
          [
            99.94903426304104,
            13.308970519060402
          ],
          [
            99.94959134463505,
            13.30978216230628
          ],
          [
            99.95019850341886,
            13.309779892602831
          ],
          [
            99.95181017399878,
            13.31058758459425
          ],
          [
            99.95430597483673,
            13.311391946355874
          ],
          [
            99.95497713030892,
            13.312203147655808
          ],
          [
            99.95548182222811,
            13.312201250080753
          ],
          [
            99.95569489323584,
            13.312439488044374
          ],
          [
            99.95569844050182,
            13.313343872058018
          ],
          [
            99.96012529305597,
            13.31218374419893
          ],
          [
            99.96096044699394,
            13.313265548963328
          ],
          [
            99.96124061685859,
            13.314078210612326
          ],
          [
            99.96124382739343,
            13.314891920017104
          ],
          [
            99.96152078876288,
            13.314890871774024
          ],
          [
            99.9625449329984,
            13.315700714195371
          ],
          [
            99.96556819948948,
            13.316231719617953
          ],
          [
            99.96657846874366,
            13.317041597206096
          ],
          [
            99.96758658961912,
            13.317308998477655
          ],
          [
            99.96845745440255,
            13.318043621232414
          ],
          [
            99.96873687785627,
            13.318660812963467
          ],
          [
            99.97061636880497,
            13.31946735545488
          ],
          [
            99.97213127808354,
            13.320546518868387
          ],
          [
            99.97289893601328,
            13.320543578630259
          ],
          [
            99.97450107861296,
            13.321893631843707
          ],
          [
            99.97484313280086,
            13.32189231869852
          ],
          [
            99.97587324977758,
            13.322430839909005
          ],
          [
            99.97623014864104,
            13.322429467784175
          ],
          [
            99.97678517419706,
            13.322698572180176
          ],
          [
            99.97706323166206,
            13.322968741396323
          ],
          [
            99.97706514272119,
            13.323444930372515
          ],
          [
            99.97862197026879,
            13.324590171918294
          ],
          [
            99.98044865069492,
            13.324583122979888
          ],
          [
            99.98122651376524,
            13.325122595030273
          ],
          [
            99.98233549362111,
            13.32538954441004
          ],
          [
            99.98316859932736,
            13.325928796220046
          ],
          [
            99.98400061208956,
            13.326196810640504
          ],
          [
            99.98484030934142,
            13.328363462188769
          ],
          [
            99.9851161861545,
            13.328091152910101
          ],
          [
            99.98539316056394,
            13.328090077595729
          ],
          [
            99.9870616074107,
            13.32971102378589
          ],
          [
            99.98733748298068,
            13.329438712187073
          ],
          [
            99.98761445873772,
            13.329437634341714
          ],
          [
            99.98790134558654,
            13.331877661870292
          ],
          [
            99.98817942573844,
            13.332147817127883
          ],
          [
            99.98818141141028,
            13.332636681019364
          ],
          [
            99.99370681160177,
            13.329142611770507
          ],
          [
            99.9956489646102,
            13.32994871205783
          ],
          [
            99.99650989044801,
            13.337268746459221
          ],
          [
            99.99900274464841,
            13.337258939226384
          ],
          [
            99.99845657280726,
            13.339159751247134
          ],
          [
            99.99846325570218,
            13.3407871486054
          ],
          [
            99.99904287137994,
            13.347023320027363
          ],
          [
            100.00211666336386,
            13.353520867919656
          ],
          [
            100.02126510364782,
            13.361852688243754
          ],
          [
            100.02209613298184,
            13.361849334735588
          ],
          [
            100.02320531510846,
            13.362116089493554
          ],
          [
            100.02598229263388,
            13.363732259610346
          ],
          [
            100.02820987654015,
            13.366435566848082
          ],
          [
            100.0298788704887,
            13.368056187218158
          ],
          [
            100.03237894016351,
            13.369673405556924
          ],
          [
            100.03404798380446,
            13.371293994378721
          ],
          [
            100.03488482868693,
            13.372646742219475
          ],
          [
            100.03712303732752,
            13.377791015609242
          ],
          [
            100.03852443915123,
            13.381582532668014
          ],
          [
            100.03965932940491,
            13.387816232906053
          ]
        ]
      }
    }
  ]
}
