{
  "type": "FeatureCollection",
  "features": [
    {
      "type": "Feature",
      "properties": {
        "year": 2000,
        "target_year": 2000,
        "actual_year": 2000,
        "sensor": "landsat-5",
        "actual_acquisition_period": "2000-01-11 to 2000-02-28",
        "acquisition_period": "2000-01-11 to 2000-02-28",
        "scene_count": 3,
        "method": "MNDWI otsu, conservative morphology, edge-connected ocean exterior, corridor-guided continuous trace",
        "threshold": 0.25,
        "mndwi_threshold": 0.25,
        "threshold_candidates": {
          "otsu": {
            "threshold": 0.25,
            "ocean_fraction": 0.401
          },
          "fixed_zero": {
            "threshold": 0.0,
            "ocean_fraction": 0.5824
          },
          "percentile_60": {
            "threshold": 0.63132,
            "ocean_fraction": 0.3721
          }
        },
        "tide_status": "unverified",
        "source_resolution_m": 30,
        "interpretation": "image-derived water-land boundary, not a true/surveyed shoreline",
        "qa_status": "MVP automated extraction; visual review required",
        "segment_id": 1,
        "length_m": 14828.1
      },
      "geometry": {
        "type": "LineString",
        "coordinates": [
          [
            99.95152368624818,
            13.308147485775178
          ],
          [
            99.9515276461233,
            13.309161826766024
          ],
          [
            99.9517860726164,
            13.309231468449564
          ],
          [
            99.9523159671586,
            13.309229483157155
          ],
          [
            99.95429216822174,
            13.307865863736847
          ],
          [
            99.95816738900454,
            13.307308800804575
          ],
          [
            99.96094012578908,
            13.308112054086395
          ],
          [
            99.96260613239699,
            13.309190711164149
          ],
          [
            99.96539394627419,
            13.313791220118647
          ],
          [
            99.9662248255391,
            13.31378806116598
          ],
          [
            99.97093638012988,
            13.314583816209263
          ],
          [
            99.97232334609785,
            13.315120990398942
          ],
          [
            99.97398944792077,
            13.316199565500797
          ],
          [
            99.97844589762713,
            13.322420937942802
          ],
          [
            99.97844875746347,
            13.323132555189542
          ],
          [
            99.97928007599097,
            13.323231438775682
          ],
          [
            99.98135543034103,
            13.32295218570637
          ],
          [
            99.98260370679273,
            13.3232185960821
          ],
          [
            99.98454578050412,
            13.324024787590522
          ],
          [
            99.98704730656704,
            13.326184980603935
          ],
          [
            99.98843877584883,
            13.327806995216601
          ],
          [
            99.99259559288866,
            13.328333246987741
          ],
          [
            99.99536976998392,
            13.329407331975512
          ],
          [
            99.99761448807962,
            13.336450691624282
          ],
          [
            99.9976167132653,
            13.336993157689282
          ],
          [
            99.99817624670763,
            13.338347142877756
          ],
          [
            99.99876810614245,
            13.347566877179037
          ],
          [
            100.00183854264512,
            13.353250731205247
          ],
          [
            100.02126510364782,
            13.361852688243754
          ],
          [
            100.0220949908758,
            13.361578104292006
          ],
          [
            100.0229260190538,
            13.361574748127792
          ],
          [
            100.02459265444051,
            13.362652948511176
          ],
          [
            100.02960070328288,
            13.367786084713995
          ],
          [
            100.03210076839065,
            13.36940330617196
          ],
          [
            100.03376865234475,
            13.370752667883428
          ],
          [
            100.03488482868693,
            13.372646742219475
          ],
          [
            100.03656318572544,
            13.376437142738162
          ],
          [
            100.03824392259091,
            13.38076998449259
          ],
          [
            100.03966049350112,
            13.388087461282982
          ]
        ]
      }
    }
  ]
}
