{
  "type": "FeatureCollection",
  "features": [
    {
      "type": "Feature",
      "properties": {
        "year": 2010,
        "target_year": 2010,
        "actual_year": 2009,
        "sensor": "landsat-5",
        "actual_acquisition_period": "2009-01-03 to 2009-04-25",
        "acquisition_period": "2009-01-03 to 2009-04-25",
        "scene_count": 3,
        "method": "MNDWI otsu, conservative morphology, edge-connected ocean exterior, corridor-guided continuous trace",
        "threshold": 0.25,
        "mndwi_threshold": 0.25,
        "threshold_candidates": {
          "otsu": {
            "threshold": 0.25,
            "ocean_fraction": 0.3805
          },
          "fixed_zero": {
            "threshold": 0.0,
            "ocean_fraction": 0.5627
          },
          "percentile_60": {
            "threshold": 0.54947,
            "ocean_fraction": 0.3699
          }
        },
        "tide_status": "unverified",
        "source_resolution_m": 30,
        "interpretation": "image-derived water-land boundary, not a true/surveyed shoreline",
        "qa_status": "MVP automated extraction; visual review required",
        "segment_id": 1,
        "length_m": 14917.9
      },
      "geometry": {
        "type": "LineString",
        "coordinates": [
          [
            99.95152368624818,
            13.308147485775178
          ],
          [
            99.95152641241381,
            13.30884581522612
          ],
          [
            99.95231490736286,
            13.308958245864014
          ],
          [
            99.95401415267412,
            13.307595666372983
          ],
          [
            99.96482391744709,
            13.309724780993507
          ],
          [
            99.96677551618788,
            13.312972245543495
          ],
          [
            99.96807286621942,
            13.312967305130519
          ],
          [
            99.97093313730292,
            13.313770109120052
          ],
          [
            99.97454011623289,
            13.315383734605325
          ],
          [
            99.97954798781393,
            13.320978993875343
          ],
          [
            99.97955045817241,
            13.32159307645813
          ],
          [
            99.98065836776162,
            13.321598684548523
          ],
          [
            99.98537229867819,
            13.322936626277619
          ],
          [
            99.98592733409217,
            13.323205709891282
          ],
          [
            99.98759354763723,
            13.324284187030713
          ],
          [
            99.98926859468968,
            13.327532523641858
          ],
          [
            99.98982364464267,
            13.327801597606118
          ],
          [
            99.99287256694569,
            13.328332163491778
          ],
          [
            99.99481471099173,
            13.329138270864268
          ],
          [
            99.99843875610479,
            13.334820023923209
          ],
          [
            99.99845434537337,
            13.338617285413985
          ],
          [
            99.99818070034004,
            13.339432074635907
          ],
          [
            99.99904621672131,
            13.347837018083208
          ],
          [
            100.00183966139518,
            13.353521963530874
          ],
          [
            100.01849841862737,
            13.362677539122805
          ],
          [
            100.0220949908758,
            13.361578104292006
          ],
          [
            100.02313648696295,
            13.361573897705869
          ],
          [
            100.02459265444051,
            13.362652948511176
          ],
          [
            100.02737423958219,
            13.365354021940032
          ],
          [
            100.02793171304879,
            13.366165462206018
          ],
          [
            100.03210076839065,
            13.36940330617196
          ],
          [
            100.03432615991203,
            13.37156409126751
          ],
          [
            100.03739774269187,
            13.37724742180896
          ],
          [
            100.0385267637053,
            13.382124989878996
          ],
          [
            100.03966049350112,
            13.388087461282982
          ],
          [
            100.03994102503722,
            13.388900006458345
          ]
        ]
      }
    }
  ]
}
