{
  "type": "FeatureCollection",
  "features": [
    {
      "type": "Feature",
      "properties": {
        "year": 2017,
        "target_year": 2017,
        "actual_year": 2017,
        "sensor": "Sentinel-2A",
        "actual_acquisition_period": "2017-01-27 to 2017-04-27",
        "acquisition_period": "2017-01-27 to 2017-04-27",
        "scene_count": 3,
        "method": "MNDWI otsu, conservative morphology, edge-connected ocean exterior, corridor-guided continuous trace",
        "threshold": 0.21484,
        "mndwi_threshold": 0.21484,
        "threshold_candidates": {
          "otsu": {
            "threshold": 0.21484,
            "ocean_fraction": 0.3751
          },
          "fixed_zero": {
            "threshold": 0.0,
            "ocean_fraction": 0.5097
          },
          "percentile_60": {
            "threshold": 0.56188,
            "ocean_fraction": 0.3675
          }
        },
        "tide_status": "unverified",
        "source_resolution_m": 20,
        "interpretation": "image-derived water-land boundary, not a true/surveyed shoreline",
        "qa_status": "MVP automated extraction; visual review required",
        "segment_id": 1,
        "length_m": 14794.7
      },
      "geometry": {
        "type": "LineString",
        "coordinates": [
          [
            99.95115688327739,
            13.30878175540867
          ],
          [
            99.95115898851923,
            13.30932121502991
          ],
          [
            99.95189754919498,
            13.309321464648932
          ],
          [
            99.95392148096184,
            13.307505600506927
          ],
          [
            99.96649891606496,
            13.313063711392672
          ],
          [
            99.96982314056551,
            13.313231869378196
          ],
          [
            99.97463171307928,
            13.31520255679718
          ],
          [
            99.97908852184914,
            13.321514330199951
          ],
          [
            99.97909070318109,
            13.322056799946445
          ],
          [
            99.98241733789013,
            13.322043949157365
          ],
          [
            99.98518765298229,
            13.322937342900378
          ],
          [
            99.9879646754318,
            13.324734806825097
          ],
          [
            99.98926822719216,
            13.327442112335566
          ],
          [
            99.9901936785895,
            13.327980979523616
          ],
          [
            99.99074762628162,
            13.327978817528077
          ],
          [
            99.9935195778563,
            13.328510456525164
          ],
          [
            99.99444430284717,
            13.328868484910545
          ],
          [
            99.99816103311355,
            13.334640291994042
          ],
          [
            99.99816474332066,
            13.335544402066962
          ],
          [
            99.99853854248717,
            13.336636613020264
          ],
          [
            99.99854593127483,
            13.33843609993156
          ],
          [
            99.99799864049992,
            13.340065678306408
          ],
          [
            99.99913854863227,
            13.347836654083226
          ],
          [
            99.99951159527282,
            13.348739306508127
          ],
          [
            100.00174397153353,
            13.352708631649735
          ],
          [
            100.00193087653437,
            13.353250366042833
          ],
          [
            100.0222792830588,
            13.36148694856942
          ],
          [
            100.02283330162942,
            13.361484711041308
          ],
          [
            100.02320340950754,
            13.361664038917636
          ],
          [
            100.02468537294811,
            13.36274298486582
          ],
          [
            100.02635431784383,
            13.36436363248436
          ],
          [
            100.02765393307405,
            13.365985767167594
          ],
          [
            100.03006469950198,
            13.36832666523075
          ],
          [
            100.03228621617042,
            13.369583372468215
          ],
          [
            100.03395525857287,
            13.371203962003197
          ],
          [
            100.03488482868693,
            13.372646742219475
          ],
          [
            100.03544427479564,
            13.373910210845311
          ],
          [
            100.0374904715879,
            13.377337452618532
          ],
          [
            100.03843170815558,
            13.381492502413952
          ],
          [
            100.0395669834483,
            13.38781661278002
          ],
          [
            100.03994102503722,
            13.388900006458345
          ]
        ]
      }
    }
  ]
}
