{
  "type": "FeatureCollection",
  "features": [
    {
      "type": "Feature",
      "properties": {
        "year": 2018,
        "target_year": 2018,
        "actual_year": 2018,
        "sensor": "Sentinel-2A, Sentinel-2B",
        "actual_acquisition_period": "2018-02-06 to 2018-03-08",
        "acquisition_period": "2018-02-06 to 2018-03-08",
        "scene_count": 3,
        "method": "MNDWI otsu, conservative morphology, edge-connected ocean exterior, corridor-guided continuous trace",
        "threshold": 0.20703,
        "mndwi_threshold": 0.20703,
        "threshold_candidates": {
          "otsu": {
            "threshold": 0.20703,
            "ocean_fraction": 0.3798
          },
          "fixed_zero": {
            "threshold": 0.0,
            "ocean_fraction": 0.4979
          },
          "percentile_60": {
            "threshold": 0.63406,
            "ocean_fraction": 0.3674
          }
        },
        "tide_status": "unverified",
        "source_resolution_m": 20,
        "interpretation": "image-derived water-land boundary, not a true/surveyed shoreline",
        "qa_status": "MVP automated extraction; visual review required",
        "segment_id": 1,
        "length_m": 14762.0
      },
      "geometry": {
        "type": "LineString",
        "coordinates": [
          [
            99.95115688327739,
            13.30878175540867
          ],
          [
            99.95115898851923,
            13.30932121502991
          ],
          [
            99.95189754919498,
            13.309321464648932
          ],
          [
            99.95392148096184,
            13.307505600506927
          ],
          [
            99.96649891606496,
            13.313063711392672
          ],
          [
            99.97037777826655,
            13.313410577981477
          ],
          [
            99.97481635349689,
            13.315201848255052
          ],
          [
            99.97908852184914,
            13.321514330199951
          ],
          [
            99.97909070318109,
            13.322056799946445
          ],
          [
            99.98241431813864,
            13.322043960842429
          ],
          [
            99.98611234615474,
            13.32329540413921
          ],
          [
            99.98908357829663,
            13.327442832030313
          ],
          [
            99.99019294288428,
            13.327800156967498
          ],
          [
            99.9908130688996,
            13.327797736636764
          ],
          [
            99.99277950461573,
            13.328151702281682
          ],
          [
            99.99462895252336,
            13.32886776123996
          ],
          [
            99.99816103311355,
            13.334640291994042
          ],
          [
            99.99816474332066,
            13.335544402066962
          ],
          [
            99.99853854248717,
            13.336636613020264
          ],
          [
            99.99854593127483,
            13.33843609993156
          ],
          [
            99.99818255613692,
            13.339884129507364
          ],
          [
            99.99913854863227,
            13.347836654083226
          ],
          [
            99.99951159527282,
            13.348739306508127
          ],
          [
            100.00193013064606,
            13.35306954449426
          ],
          [
            100.0222792830588,
            13.36148694856942
          ],
          [
            100.02283330162942,
            13.361484711041308
          ],
          [
            100.02320340950754,
            13.361664038917636
          ],
          [
            100.02449993600166,
            13.362562912116978
          ],
          [
            100.02579723612168,
            13.363642597978982
          ],
          [
            100.0278393749946,
            13.366165837199485
          ],
          [
            100.0295083646606,
            13.367786460360941
          ],
          [
            100.03228621617042,
            13.369583372468215
          ],
          [
            100.03395525857287,
            13.371203962003197
          ],
          [
            100.03488482868693,
            13.372646742219475
          ],
          [
            100.03563050080473,
            13.374271093542193
          ],
          [
            100.0374904715879,
            13.377337452618532
          ],
          [
            100.0386194949936,
            13.382215020073517
          ],
          [
            100.03994024871197,
            13.388719187568817
          ]
        ]
      }
    }
  ]
}
