{
  "type": "FeatureCollection",
  "features": [
    {
      "type": "Feature",
      "properties": {
        "year": 2020,
        "target_year": 2020,
        "actual_year": 2020,
        "sensor": "Sentinel-2A, Sentinel-2B",
        "actual_acquisition_period": "2020-01-07 to 2020-02-21",
        "acquisition_period": "2020-01-07 to 2020-02-21",
        "scene_count": 3,
        "method": "MNDWI otsu, conservative morphology, edge-connected ocean exterior, corridor-guided continuous trace",
        "threshold": 0.23828,
        "mndwi_threshold": 0.23828,
        "threshold_candidates": {
          "otsu": {
            "threshold": 0.23828,
            "ocean_fraction": 0.3712
          },
          "fixed_zero": {
            "threshold": 0.0,
            "ocean_fraction": 0.414
          },
          "percentile_60": {
            "threshold": 0.73643,
            "ocean_fraction": 0.3671
          }
        },
        "tide_status": "unverified",
        "source_resolution_m": 20,
        "interpretation": "image-derived water-land boundary, not a true/surveyed shoreline",
        "qa_status": "MVP automated extraction; visual review required",
        "segment_id": 1,
        "length_m": 14908.7
      },
      "geometry": {
        "type": "LineString",
        "coordinates": [
          [
            99.95115688327739,
            13.30878175540867
          ],
          [
            99.95115898851923,
            13.30932121502991
          ],
          [
            99.95189754919498,
            13.309321464648932
          ],
          [
            99.95373684523484,
            13.30750629346853
          ],
          [
            99.96705139841504,
            13.312699955380841
          ],
          [
            99.96963778175802,
            13.313051750306695
          ],
          [
            99.97076006961446,
            13.313409117407476
          ],
          [
            99.97481562993566,
            13.315021024679988
          ],
          [
            99.97927243957882,
            13.321332794843412
          ],
          [
            99.97927462128968,
            13.321875264567707
          ],
          [
            99.9824135885499,
            13.321863137776674
          ],
          [
            99.98537156684209,
            13.322755803385844
          ],
          [
            99.98611234615474,
            13.32329540413921
          ],
          [
            99.98926822719216,
            13.327442112335566
          ],
          [
            99.99019294288428,
            13.327800156967498
          ],
          [
            99.99222481964749,
            13.32797304629748
          ],
          [
            99.99296415384174,
            13.328150979860464
          ],
          [
            99.99518364095992,
            13.329046411688795
          ],
          [
            99.99816103311355,
            13.334640291994042
          ],
          [
            99.99816474332066,
            13.335544402066962
          ],
          [
            99.99853854248717,
            13.336636613020264
          ],
          [
            99.99854667379945,
            13.338616921876069
          ],
          [
            99.99818255613692,
            13.339884129507364
          ],
          [
            99.99913854863227,
            13.347836654083226
          ],
          [
            99.99951159527282,
            13.348739306508127
          ],
          [
            100.00193013064606,
            13.35306954449426
          ],
          [
            100.01748309048344,
            13.362772033572305
          ],
          [
            100.0222792830588,
            13.36148694856942
          ],
          [
            100.02297984237586,
            13.361484119000952
          ],
          [
            100.02449993600166,
            13.362562912116978
          ],
          [
            100.02579723612168,
            13.363642597978982
          ],
          [
            100.02802481719029,
            13.366345907073045
          ],
          [
            100.03024937712246,
            13.368325913467455
          ],
          [
            100.03210076839065,
            13.36940330617196
          ],
          [
            100.03414070910483,
            13.371384026714612
          ],
          [
            100.0374904715879,
            13.377337452618532
          ],
          [
            100.03824392259091,
            13.38076998449259
          ],
          [
            100.03861872005622,
            13.382034201012432
          ],
          [
            100.03975322763046,
            13.388177490822317
          ],
          [
            100.03994024871197,
            13.388719187568817
          ]
        ]
      }
    }
  ]
}
