{
  "type": "FeatureCollection",
  "features": [
    {
      "type": "Feature",
      "properties": {
        "year": 2025,
        "target_year": 2025,
        "actual_year": 2025,
        "sensor": "Sentinel-2A, Sentinel-2C",
        "actual_acquisition_period": "2025-01-15 to 2025-12-03",
        "acquisition_period": "2025-01-15 to 2025-12-03",
        "scene_count": 3,
        "method": "MNDWI fixed_zero, conservative morphology, edge-connected ocean exterior, corridor-guided continuous trace",
        "threshold": 0.0,
        "mndwi_threshold": 0.0,
        "threshold_candidates": {
          "otsu": {
            "threshold": -0.06641,
            "ocean_fraction": 0.5166
          },
          "fixed_zero": {
            "threshold": 0.0,
            "ocean_fraction": 0.4467
          },
          "percentile_60": {
            "threshold": 0.08479,
            "ocean_fraction": 0.2802
          }
        },
        "tide_status": "unverified",
        "source_resolution_m": 20,
        "interpretation": "image-derived water-land boundary, not a true/surveyed shoreline",
        "qa_status": "MVP automated extraction; visual review required",
        "segment_id": 1,
        "length_m": 15586.1
      },
      "geometry": {
        "type": "LineString",
        "coordinates": [
          [
            99.94711384544284,
            13.313679204692438
          ],
          [
            99.95005611091054,
            13.310594149235957
          ],
          [
            99.95060932032953,
            13.310411252566867
          ],
          [
            99.95208642480416,
            13.31040572211111
          ],
          [
            99.95346796250668,
            13.310219714259155
          ],
          [
            99.95670805115141,
            13.311834980921494
          ],
          [
            99.95745059549499,
            13.312847392716321
          ],
          [
            99.95745133586806,
            13.313035805954854
          ],
          [
            99.95837762392523,
            13.31381778738845
          ],
          [
            99.95948831384013,
            13.314536903075341
          ],
          [
            99.95985973264322,
            13.315077981082998
          ],
          [
            99.96060114922005,
            13.315798486414504
          ],
          [
            99.96245113734973,
            13.316695617743807
          ],
          [
            99.96337720904276,
            13.317415414221212
          ],
          [
            99.96596722613313,
            13.318671363412284
          ],
          [
            99.9665218742782,
            13.318850079707643
          ],
          [
            99.96948264974019,
            13.3204662324042
          ],
          [
            99.97151734793897,
            13.32136258757399
          ],
          [
            99.97281419925888,
            13.322442580082821
          ],
          [
            99.97411395608611,
            13.324245859037898
          ],
          [
            99.97909070318109,
            13.322056799946445
          ],
          [
            99.97964463925001,
            13.322054663116152
          ],
          [
            99.97911106695398,
            13.327119849780997
          ],
          [
            99.97966574238473,
            13.32729853525018
          ],
          [
            99.98151296423434,
            13.327472223887588
          ],
          [
            99.98320327777407,
            13.328188984138778
          ],
          [
            99.98410097870784,
            13.328185504587115
          ],
          [
            99.98428635978345,
            13.328365611351924
          ],
          [
            99.98576282595234,
            13.328179054770803
          ],
          [
            99.98576444960779,
            13.328579897196816
          ],
          [
            99.98650435644761,
            13.328899475690148
          ],
          [
            99.98650512378198,
            13.329088761140262
          ],
          [
            99.98687365672639,
            13.328898039765203
          ],
          [
            99.98817061309475,
            13.329977945668087
          ],
          [
            99.98817208175997,
            13.330339590937506
          ],
          [
            99.9890938673359,
            13.32997434850129
          ],
          [
            99.98965146161405,
            13.330867605992438
          ],
          [
            99.99020545135491,
            13.33087414006633
          ],
          [
            99.9952036108872,
            13.333928611895338
          ],
          [
            99.99520583026076,
            13.334471078467379
          ],
          [
            99.99569761425684,
            13.334469148565358
          ],
          [
            99.99650359287081,
            13.335731758727437
          ],
          [
            99.99650515474208,
            13.336112967340172
          ],
          [
            99.9970575571443,
            13.33572958171894
          ],
          [
            99.99835388713535,
            13.336637339950705
          ],
          [
            99.99836261730889,
            13.338763876619819
          ],
          [
            99.9979978982992,
            13.3398848563522
          ],
          [
            99.9989538848076,
            13.347837382049569
          ],
          [
            99.99951159527282,
            13.348739306508127
          ],
          [
            100.0019316224337,
            13.353431187588782
          ],
          [
            100.02154211345113,
            13.361851570710655
          ],
          [
            100.022095371575,
            13.36166851444052
          ],
          [
            100.02320340950754,
            13.361664038917636
          ],
          [
            100.02487081016962,
            13.362923057456435
          ],
          [
            100.02542712348445,
            13.363463274278832
          ],
          [
            100.02895279914156,
            13.367427073891553
          ],
          [
            100.03006469950198,
            13.36832666523075
          ],
          [
            100.03210153771167,
            13.369584125787236
          ],
          [
            100.03377057897801,
            13.37120471662989
          ],
          [
            100.03470014804799,
            13.372647497604527
          ],
          [
            100.03544581897259,
            13.374271849561568
          ],
          [
            100.0374904715879,
            13.377337452618532
          ],
          [
            100.03975555612405,
            13.388719947538563
          ]
        ]
      }
    }
  ]
}
