{
  "type": "FeatureCollection",
  "features": [
    {
      "type": "Feature",
      "properties": {
        "year": 2026,
        "target_year": 2026,
        "actual_year": 2026,
        "sensor": "Sentinel-2A, Sentinel-2B",
        "actual_acquisition_period": "2026-01-12 to 2026-04-12",
        "acquisition_period": "2026-01-12 to 2026-04-12",
        "scene_count": 3,
        "method": "MNDWI otsu, conservative morphology, edge-connected ocean exterior, corridor-guided continuous trace",
        "threshold": -0.01172,
        "mndwi_threshold": -0.01172,
        "threshold_candidates": {
          "otsu": {
            "threshold": -0.01172,
            "ocean_fraction": 0.4436
          },
          "fixed_zero": {
            "threshold": 0.0,
            "ocean_fraction": 0.3858
          },
          "percentile_60": {
            "threshold": 0.19999,
            "ocean_fraction": 0.3482
          }
        },
        "tide_status": "unverified",
        "source_resolution_m": 20,
        "interpretation": "image-derived water-land boundary, not a true/surveyed shoreline",
        "qa_status": "MVP automated extraction; visual review required",
        "segment_id": 1,
        "length_m": 15493.8
      },
      "geometry": {
        "type": "LineString",
        "coordinates": [
          [
            99.94711384544284,
            13.313679204692438
          ],
          [
            99.95005611091054,
            13.310594149235957
          ],
          [
            99.95060932032953,
            13.310411252566867
          ],
          [
            99.95153321673182,
            13.310588621921369
          ],
          [
            99.95171958474111,
            13.311030870005935
          ],
          [
            99.95190473758001,
            13.311161849768926
          ],
          [
            99.95264387315851,
            13.311307770076331
          ],
          [
            99.95282851182407,
            13.311307077714757
          ],
          [
            99.95301244331446,
            13.311125560423905
          ],
          [
            99.95479553722485,
            13.310938038667713
          ],
          [
            99.95559809054875,
            13.311296676195365
          ],
          [
            99.95633877342902,
            13.311836371202679
          ],
          [
            99.95648742934993,
            13.311835811597577
          ],
          [
            99.95745059549499,
            13.312847392716321
          ],
          [
            99.95745133586806,
            13.313035805954854
          ],
          [
            99.95763693061393,
            13.313278099122734
          ],
          [
            99.95874761599785,
            13.313997218393835
          ],
          [
            99.96060114922005,
            13.315798486414504
          ],
          [
            99.96263649418127,
            13.316875742183328
          ],
          [
            99.96337720904276,
            13.317415414221212
          ],
          [
            99.9672618850718,
            13.319208915409089
          ],
          [
            99.96948264974019,
            13.3204662324042
          ],
          [
            99.9717027148041,
            13.321542704627927
          ],
          [
            99.97281419925888,
            13.322442580082821
          ],
          [
            99.97429932708518,
            13.324425973872229
          ],
          [
            99.97909070318109,
            13.322056799946445
          ],
          [
            99.97964463925001,
            13.322054663116152
          ],
          [
            99.97966574238473,
            13.32729853525018
          ],
          [
            99.98151296423434,
            13.327472223887588
          ],
          [
            99.98320327777407,
            13.328188984138778
          ],
          [
            99.98391632895984,
            13.328186220561857
          ],
          [
            99.9850271548985,
            13.328905214017555
          ],
          [
            99.98587088475995,
            13.329082763146271
          ],
          [
            99.98650512378198,
            13.329088761140262
          ],
          [
            99.98650719833358,
            13.329600495229066
          ],
          [
            99.98780351351333,
            13.33052185155538
          ],
          [
            99.98854071338039,
            13.33051898051885
          ],
          [
            99.98946831619601,
            13.331238666596255
          ],
          [
            99.99002284675932,
            13.331377898751676
          ],
          [
            99.99002447878318,
            13.331778973207943
          ],
          [
            99.99131483324578,
            13.331231458793509
          ],
          [
            99.99224104111197,
            13.331951139419077
          ],
          [
            99.99307353705495,
            13.331947882208397
          ],
          [
            99.99520287111793,
            13.333747789699437
          ],
          [
            99.99520495570981,
            13.334257320729899
          ],
          [
            99.99631723304908,
            13.335316240889753
          ],
          [
            99.99631832190005,
            13.33558205818628
          ],
          [
            99.99650406564203,
            13.335847150069915
          ],
          [
            99.99650581545465,
            13.33627422500728
          ],
          [
            99.99835388713535,
            13.336637339950705
          ],
          [
            99.99836201694454,
            13.338617648918296
          ],
          [
            99.9979978982992,
            13.3398848563522
          ],
          [
            99.9989538848076,
            13.347837382049569
          ],
          [
            99.99932767448375,
            13.348920856549162
          ],
          [
            100.0019316224337,
            13.353431187588782
          ],
          [
            100.022095371575,
            13.36166851444052
          ],
          [
            100.02298060443061,
            13.361664939248525
          ],
          [
            100.02505624766617,
            13.363103129888808
          ],
          [
            100.02728305005832,
            13.365625626628836
          ],
          [
            100.03006469950198,
            13.36832666523075
          ],
          [
            100.03210153771167,
            13.369584125787236
          ],
          [
            100.03377057897801,
            13.37120471662989
          ],
          [
            100.03488560027701,
            13.37282756162903
          ],
          [
            100.03600527230405,
            13.375535316300983
          ],
          [
            100.03712187699826,
            13.377519786792826
          ],
          [
            100.03824702098701,
            13.381493260879608
          ],
          [
            100.03975555612405,
            13.388719947538563
          ]
        ]
      }
    }
  ]
}
