{
  "type": "FeatureCollection",
  "features": [
    {
      "type": "Feature",
      "properties": {
        "indicator": "WATERLINE",
        "role": "HISTORICAL_AND_RECENT_SCREENING",
        "year": 2020,
        "scene_id": "S2B_MSIL2A_20200127T034019_R061_T47PPQ_20201002T124351",
        "acquisition_datetime_bangkok": "2020-01-27T10:40:19.024000+07:00",
        "tide_level_m_msl": 1.1418,
        "tide_target_m_msl": 1.0879,
        "tide_delta_from_target_m": 0.0539,
        "tide_status": "modelled_secondary_extrema_cosine",
        "tide_source_tier": "secondary_published_extrema",
        "mndwi_threshold": 0.0,
        "threshold_method": "fixed_zero",
        "source_resolution_m": 20,
        "confidence": "LOW",
        "interpretation": "image-derived waterline selected near the current tide target; screening only, not tide-normalized or surveyed",
        "segment_id": 1,
        "length_m": 6351.38
      },
      "geometry": {
        "type": "LineString",
        "coordinates": [
          [
            99.9841796463136,
            13.347624314866877
          ],
          [
            99.98417927865577,
            13.347533538351612
          ],
          [
            99.98436394307882,
            13.347532821165917
          ],
          [
            99.98436321059226,
            13.347351998569033
          ],
          [
            99.98454787486712,
            13.347351281258897
          ],
          [
            99.98454714225404,
            13.347170458669465
          ],
          [
            99.9847318063807,
            13.34716974123489
          ],
          [
            99.98473034091235,
            13.346808096068314
          ],
          [
            99.98491500475345,
            13.34680737851938
          ],
          [
            99.98491427189818,
            13.346626555942237
          ],
          [
            99.98509893559111,
            13.346625838268876
          ],
          [
            99.98509746963839,
            13.346264193126888
          ],
          [
            99.98528213304579,
            13.346263475339178
          ],
          [
            99.98528139994833,
            13.346082652774335
          ],
          [
            99.98546606320753,
            13.346081934862205
          ],
          [
            99.9854653299836,
            13.345901112304825
          ],
          [
            99.9856499930946,
            13.345900394268282
          ],
          [
            99.98564925974416,
            13.345719571718359
          ],
          [
            99.98583392270699,
            13.34571885355741
          ],
          [
            99.985832455764,
            13.345357208469881
          ],
          [
            99.9860171184413,
            13.345356490194606
          ],
          [
            99.98601638484872,
            13.345175667656997
          ],
          [
            99.98620104737785,
            13.34517494925732
          ],
          [
            99.9862003136588,
            13.344994126727178
          ],
          [
            99.98638497603973,
            13.34499340820311
          ],
          [
            99.98638350835954,
            13.344631763155153
          ],
          [
            99.98656817045496,
            13.344631044516774
          ],
          [
            99.98656743649383,
            13.344450221998958
          ],
          [
            99.98675209844106,
            13.344449503236193
          ],
          [
            99.98675136435345,
            13.344268680725852
          ],
          [
            99.9869360261525,
            13.344267961838705
          ],
          [
            99.98693455773524,
            13.343906316830356
          ],
          [
            99.98711921924878,
            13.343905597828922
          ],
          [
            99.98711848491912,
            13.343724775330918
          ],
          [
            99.9873031462845,
            13.34372405620511
          ],
          [
            99.98730241182838,
            13.343543233714584
          ],
          [
            99.98748707304557,
            13.343542514464406
          ],
          [
            99.98748560389132,
            13.3431808694957
          ],
          [
            99.98767026482301,
            13.343180150131253
          ],
          [
            99.98766953012488,
            13.342999327653077
          ],
          [
            99.9878541909084,
            13.34299860816427
          ],
          [
            99.98785345608381,
            13.342817785693576
          ],
          [
            99.98803811671917,
            13.342817066080414
          ],
          [
            99.98803738176815,
            13.342636243617209
          ],
          [
            99.98822204225532,
            13.342635523879693
          ],
          [
            99.98821983705561,
            13.342093056504694
          ],
          [
            99.98858915717351,
            13.342091616686936
          ],
          [
            99.98858548068523,
            13.34118750444404
          ],
          [
            99.9893241180446,
            13.341184623397378
          ],
          [
            99.98932191063477,
            13.340642156141598
          ],
          [
            99.98895259280056,
            13.34064359687313
          ],
          [
            99.98895185729361,
            13.340462774429083
          ],
          [
            99.98858253969044,
            13.340464214602672
          ],
          [
            99.98858180446894,
            13.340283392135797
          ],
          [
            99.98728919347619,
            13.340288428438114
          ],
          [
            99.98728625654262,
            13.339565138261673
          ],
          [
            99.98747091473938,
            13.339564419233572
          ],
          [
            99.98746944606324,
            13.339202774149857
          ],
          [
            99.9876541039746,
            13.33920205500753
          ],
          [
            99.9876526350674,
            13.338840409933553
          ],
          [
            99.98820660791269,
            13.338838251760675
          ],
          [
            99.98820807764348,
            13.339199896774051
          ],
          [
            99.98839273551135,
            13.33919917709406
          ],
          [
            99.98839347053031,
            13.339379999586722
          ],
          [
            99.98876278650798,
            13.339378559803274
          ],
          [
            99.98876425712761,
            13.339740204740336
          ],
          [
            99.98894891537466,
            13.339739484626763
          ],
          [
            99.98894965083808,
            13.339920307081265
          ],
          [
            99.99024225922352,
            13.339915262451632
          ],
          [
            99.99024299565873,
            13.340096084832698
          ],
          [
            99.99042765409321,
            13.340095363623501
          ],
          [
            99.9904283906766,
            13.340276185991831
          ],
          [
            99.99098236632648,
            13.340274021527303
          ],
          [
            99.9909831033326,
            13.34045484386263
          ],
          [
            99.99116776199801,
            13.34045412209547
          ],
          [
            99.99116849915232,
            13.340634944418055
          ],
          [
            99.99190713425408,
            13.340632055964564
          ],
          [
            99.99190934742984,
            13.341174522794985
          ],
          [
            99.99209400658985,
            13.341173800315111
          ],
          [
            99.99209474447423,
            13.34135462257655
          ],
          [
            99.99246406303607,
            13.3413531771932
          ],
          [
            99.99246480120594,
            13.341533999431736
          ],
          [
            99.99264946060775,
            13.341533276528255
          ],
          [
            99.99265019892584,
            13.341714098754027
          ],
          [
            99.99283485845403,
            13.34171337570596
          ],
          [
            99.99283559692033,
            13.34189419791897
          ],
          [
            99.99375889508386,
            13.341890580611215
          ],
          [
            99.99375667765835,
            13.341348114116666
          ],
          [
            99.99394133684638,
            13.341347390282266
          ],
          [
            99.99393985834281,
            13.340985745959816
          ],
          [
            99.99412451724534,
            13.340985022011305
          ],
          [
            99.99412155982031,
            13.340261733375685
          ],
          [
            99.99430621816278,
            13.340261009333394
          ],
          [
            99.9943054786966,
            13.340080187178115
          ],
          [
            99.99449013689085,
            13.340079463011564
          ],
          [
            99.99448865771674,
            13.3397178187135
          ],
          [
            99.9946733156255,
            13.33971709443286
          ],
          [
            99.99467183622066,
            13.339355450144676
          ],
          [
            99.99485649384393,
            13.339354725749955
          ],
          [
            99.99485279483706,
            13.338450615034601
          ],
          [
            99.99522210867815,
            13.338449165943631
          ],
          [
            99.99522136863509,
            13.338268343813064
          ],
          [
            99.99540602540196,
            13.338267619076143
          ],
          [
            99.99540380492678,
            13.337725152699281
          ],
          [
            99.99558846127093,
            13.337724427858488
          ],
          [
            99.99558698073442,
            13.33736278361453
          ],
          [
            99.99577163679314,
            13.337362058659695
          ],
          [
            99.99577015602596,
            13.337000414425642
          ],
          [
            99.99595481179922,
            13.336999689356773
          ],
          [
            99.99595407129483,
            13.336818867246008
          ],
          [
            99.99613872691992,
            13.336818142052927
          ],
          [
            99.99613576446299,
            13.33609485362446
          ],
          [
            99.9965050745824,
            13.33609340291661
          ],
          [
            99.99650359287081,
            13.335731758727437
          ],
          [
            99.9970575571443,
            13.33572958171894
          ],
          [
            99.99705681589327,
            13.335548759651001
          ],
          [
            99.99724147049194,
            13.335548033722938
          ],
          [
            99.99723924639302,
            13.335005567534033
          ],
          [
            99.99686993800803,
            13.335007019194624
          ],
          [
            99.99686771483115,
            13.334464552921037
          ],
          [
            99.99705236861749,
            13.334463827188504
          ],
          [
            99.99705162744326,
            13.334283005102272
          ],
          [
            99.99760558832482,
            13.334280827129062
          ],
          [
            99.99760632991068,
            13.334461649184705
          ],
          [
            99.9979756373846,
            13.334460196510346
          ],
          [
            99.99797934685071,
            13.335364306647351
          ],
          [
            99.99816400125728,
            13.335363580057605
          ],
          [
            99.99816474332066,
            13.335544402066962
          ],
          [
            99.99834939785347,
            13.335543675332636
          ],
          [
            99.99835088228764,
            13.335905319323096
          ],
          [
            99.99853553708391,
            13.335904592433982
          ],
          [
            99.99854593127483,
            13.33843609993156
          ],
          [
            99.9983612745572,
            13.338436826963584
          ],
          [
            99.99836350175222,
            13.338979292819884
          ],
          [
            99.99817884461183,
            13.338980019748117
          ],
          [
            99.99818181380994,
            13.339703307560741
          ],
          [
            99.99799715610949,
            13.339704034395375
          ],
          [
            99.99799864049992,
            13.34006567830641
          ],
          [
            99.99781398251393,
            13.340066405027022
          ],
          [
            99.99781472458834,
            13.340247226988824
          ],
          [
            99.99763006645411,
            13.340247953585214
          ],
          [
            99.99763080840222,
            13.340428775554598
          ],
          [
            99.99744615011974,
            13.340429502026762
          ],
          [
            99.99744689194154,
            13.34061032400373
          ],
          [
            99.99652359967814,
            13.340613954399098
          ],
          [
            99.99652434082452,
            13.340794776424412
          ],
          [
            99.99633968220165,
            13.340795502110382
          ],
          [
            99.99634042322172,
            13.34097632414327
          ],
          [
            99.99597110566853,
            13.340977775132282
          ],
          [
            99.99597332797077,
            13.341520241276363
          ],
          [
            99.99523469108546,
            13.341523141763322
          ],
          [
            99.99523543132563,
            13.341703963846834
          ],
          [
            99.99505077193962,
            13.341704688642649
          ],
          [
            99.99505373246063,
            13.342427976991246
          ],
          [
            99.99542305232006,
            13.342426527183777
          ],
          [
            99.99542379275229,
            13.342607349244041
          ],
          [
            99.99616243288891,
            13.342604447974994
          ],
          [
            99.9961631738813,
            13.34278526999192
          ],
          [
            99.99671715428057,
            13.342783092597838
          ],
          [
            99.99671789569587,
            13.342963914581587
          ],
          [
            99.99690255594432,
            13.342963188504465
          ],
          [
            99.99690552226434,
            13.343686476372554
          ],
          [
            99.99672086146664,
            13.34368720249044
          ],
          [
            99.9967230859099,
            13.344229668394622
          ],
          [
            99.99653842468928,
            13.344230394408614
          ],
          [
            99.99654064881929,
            13.344772860319829
          ],
          [
            99.99672531045188,
            13.344772134275267
          ],
          [
            99.99672753509259,
            13.345314600132378
          ],
          [
            99.99709685914884,
            13.345313147578686
          ],
          [
            99.9971020522838,
            13.346578901011046
          ],
          [
            99.99691738929978,
            13.346579627426484
          ],
          [
            99.99691813108274,
            13.346760449345124
          ],
          [
            99.9967334679504,
            13.34676117563626
          ],
          [
            99.99673425926451,
            13.346954104379693
          ]
        ]
      }
    },
    {
      "type": "Feature",
      "properties": {
        "indicator": "WATERLINE",
        "role": "HISTORICAL_AND_RECENT_SCREENING",
        "year": 2020,
        "scene_id": "S2B_MSIL2A_20200127T034019_R061_T47PPQ_20201002T124351",
        "acquisition_datetime_bangkok": "2020-01-27T10:40:19.024000+07:00",
        "tide_level_m_msl": 1.1418,
        "tide_target_m_msl": 1.0879,
        "tide_delta_from_target_m": 0.0539,
        "tide_status": "modelled_secondary_extrema_cosine",
        "tide_source_tier": "secondary_published_extrema",
        "mndwi_threshold": 0.0,
        "threshold_method": "fixed_zero",
        "source_resolution_m": 20,
        "confidence": "LOW",
        "interpretation": "image-derived waterline selected near the current tide target; screening only, not tide-normalized or surveyed",
        "segment_id": 2,
        "length_m": 22637.92
      },
      "geometry": {
        "type": "LineString",
        "coordinates": [
          [
            99.95050319900078,
            13.283174852023588
          ],
          [
            99.95050363735774,
            13.283287483272503
          ],
          [
            99.95068825493428,
            13.283286793892577
          ],
          [
            99.95069036669896,
            13.283829269823084
          ],
          [
            99.95087498467501,
            13.283828580280161
          ],
          [
            99.95087568875412,
            13.284009405575413
          ],
          [
            99.95106030685635,
            13.284008715888925
          ],
          [
            99.95106312382399,
            13.284732017005034
          ],
          [
            99.95161697970778,
            13.28472994702581
          ],
          [
            99.95161909377327,
            13.285272422748065
          ],
          [
            99.95180371279028,
            13.2852717324581
          ],
          [
            99.95180794202379,
            13.286356683774024
          ],
          [
            99.95199256185036,
            13.286355993291819
          ],
          [
            99.95199538209539,
            13.287079294078163
          ],
          [
            99.95254924315248,
            13.287077221711515
          ],
          [
            99.95254994864996,
            13.2872580468724
          ],
          [
            99.95291918957568,
            13.287256664605767
          ],
          [
            99.95291989535701,
            13.287437489744569
          ],
          [
            99.95310451594085,
            13.287436798400691
          ],
          [
            99.95310663375781,
            13.287979273772272
          ],
          [
            99.95329125474126,
            13.287978582265282
          ],
          [
            99.95329266694503,
            13.288340232480508
          ],
          [
            99.95347728819138,
            13.288339540820141
          ],
          [
            99.95347870071048,
            13.28870119100547
          ],
          [
            99.95366332221975,
            13.288700499191718
          ],
          [
            99.95366544148715,
            13.289242974420956
          ],
          [
            99.95385006339606,
            13.289242282444066
          ],
          [
            99.95385076997621,
            13.289423107505526
          ],
          [
            99.95403539201135,
            13.289422415384982
          ],
          [
            99.95403609873868,
            13.289603240434088
          ],
          [
            99.95440534305091,
            13.289601855771783
          ],
          [
            99.95440605006218,
            13.289782680798783
          ],
          [
            99.95459067233926,
            13.289781988257019
          ],
          [
            99.9545927938462,
            13.290324463293134
          ],
          [
            99.95477741652294,
            13.290323770588188
          ],
          [
            99.95477953853452,
            13.290866245571609
          ],
          [
            99.95496416161095,
            13.290865552703469
          ],
          [
            99.95496840673798,
            13.291950502541493
          ],
          [
            99.9551530306243,
            13.291949809480862
          ],
          [
            99.95515373831896,
            13.29213063443499
          ],
          [
            99.95552298633359,
            13.292129247892417
          ],
          [
            99.95552369431223,
            13.292310072824415
          ],
          [
            99.95589294255832,
            13.292308685726578
          ],
          [
            99.95589365082097,
            13.29248951063644
          ],
          [
            99.956078275065,
            13.292488816876853
          ],
          [
            99.95608465113266,
            13.294116240860527
          ],
          [
            99.95590002565784,
            13.294116934708063
          ],
          [
            99.95590073402559,
            13.294297759591894
          ],
          [
            99.95553148277091,
            13.29429914690465
          ],
          [
            99.95553643972472,
            13.295564921155371
          ],
          [
            99.9553518131242,
            13.295565614679184
          ],
          [
            99.95535322921772,
            13.29592726446121
          ],
          [
            99.95516860233312,
            13.295927957870584
          ],
          [
            99.95516931025885,
            13.296108782767458
          ],
          [
            99.95480005618457,
            13.29611016920382
          ],
          [
            99.95480217920405,
            13.296652643937392
          ],
          [
            99.95461755174078,
            13.296653336983889
          ],
          [
            99.95461825929814,
            13.296834161899632
          ],
          [
            99.95424900406655,
            13.29683554761021
          ],
          [
            99.9542518333066,
            13.297558847325195
          ],
          [
            99.95443646147484,
            13.297558154497874
          ],
          [
            99.95444282911015,
            13.299185578616498
          ],
          [
            99.95462745849922,
            13.299184885567376
          ],
          [
            99.95462816620355,
            13.29936571044667
          ],
          [
            99.95481279571894,
            13.299365017253786
          ],
          [
            99.95481350357059,
            13.299545842120718
          ],
          [
            99.95499813321231,
            13.299545148784064
          ],
          [
            99.95499954922079,
            13.299906798490593
          ],
          [
            99.95518417912565,
            13.299906105000407
          ],
          [
            99.95518488728247,
            13.300086929840003
          ],
          [
            99.95536951731367,
            13.300086236206038
          ],
          [
            99.95537376729621,
            13.301171185130347
          ],
          [
            99.95518913644399,
            13.301171878822897
          ],
          [
            99.95519338598369,
            13.302256827712045
          ],
          [
            99.955378017657,
            13.302256133960901
          ],
          [
            99.95538226839604,
            13.30334108269771
          ],
          [
            99.95519763590154,
            13.30334177650744
          ],
          [
            99.9552004693902,
            13.304065075652282
          ],
          [
            99.95501583633774,
            13.304065769367021
          ],
          [
            99.95501654459929,
            13.304246594156481
          ],
          [
            99.95427801173683,
            13.304249367713917
          ],
          [
            99.95428013494194,
            13.30479184218378
          ],
          [
            99.95409550128943,
            13.304792535267257
          ],
          [
            99.95409691653819,
            13.305154184920314
          ],
          [
            99.95391228260144,
            13.305154877889233
          ],
          [
            99.95391299010467,
            13.305335702721605
          ],
          [
            99.95372835602052,
            13.305336395566208
          ],
          [
            99.95372906339735,
            13.30551722040573
          ],
          [
            99.95354442916583,
            13.30551791312601
          ],
          [
            99.95354513641625,
            13.305698737972673
          ],
          [
            99.95336050203734,
            13.30569943056863
          ],
          [
            99.95336120916137,
            13.305880255422437
          ],
          [
            99.95317657463507,
            13.30588094789407
          ],
          [
            99.95317728163268,
            13.306061772755012
          ],
          [
            99.952992646959,
            13.306062465102311
          ],
          [
            99.9529933538302,
            13.306243289970393
          ],
          [
            99.95280871900914,
            13.306243982193354
          ],
          [
            99.95280942575391,
            13.306424807068577
          ],
          [
            99.95262479078548,
            13.306425499167197
          ],
          [
            99.95262549740382,
            13.306606324049548
          ],
          [
            99.952440862288,
            13.306607016023833
          ],
          [
            99.95244156877992,
            13.306787840913316
          ],
          [
            99.95225693351672,
            13.306788532763251
          ],
          [
            99.95225905264459,
            13.30733100744528
          ],
          [
            99.9520744169602,
            13.30733169919033
          ],
          [
            99.95207512322018,
            13.307512524088864
          ],
          [
            99.95189048738838,
            13.307513215709555
          ],
          [
            99.95189189966595,
            13.307874865518272
          ],
          [
            99.95170726354985,
            13.307875557024328
          ],
          [
            99.95170867559546,
            13.308237206842085
          ],
          [
            99.95152403919505,
            13.308237898233504
          ],
          [
            99.95152545100866,
            13.308599548060295
          ],
          [
            99.95134081432394,
            13.308600239337066
          ],
          [
            99.95134152010951,
            13.308781064256282
          ],
          [
            99.95115688327739,
            13.30878175540867
          ],
          [
            99.9511590002861,
            13.309324230179852
          ],
          [
            99.95189754919498,
            13.309321464648932
          ],
          [
            99.9518968429672,
            13.309140639766719
          ],
          [
            99.95208148003132,
            13.309139948058444
          ],
          [
            99.95208077367708,
            13.308959123183353
          ],
          [
            99.95226541059378,
            13.308958431350703
          ],
          [
            99.9522647041131,
            13.30877760648275
          ],
          [
            99.95244934088241,
            13.308776914525723
          ],
          [
            99.95244863427524,
            13.308596089664892
          ],
          [
            99.95263327089715,
            13.308595397583504
          ],
          [
            99.95263256416355,
            13.308414572729806
          ],
          [
            99.95281720063805,
            13.308413880524055
          ],
          [
            99.952816493778,
            13.308233055677492
          ],
          [
            99.9530011301051,
            13.308232363347381
          ],
          [
            99.9530004231186,
            13.308051538507954
          ],
          [
            99.95318505929829,
            13.308050846053485
          ],
          [
            99.95318364508292,
            13.307689196386296
          ],
          [
            99.95355291686317,
            13.307687811114054
          ],
          [
            99.95355220949737,
            13.307506986296044
          ],
          [
            99.95392148096184,
            13.307505600506927
          ],
          [
            99.95392006571406,
            13.30714395090209
          ],
          [
            99.95410470115672,
            13.307143257825897
          ],
          [
            99.95410399341166,
            13.306962433029323
          ],
          [
            99.95428862870692,
            13.306961739828798
          ],
          [
            99.95428792083544,
            13.306780915039376
          ],
          [
            99.95447255598332,
            13.30678022171452
          ],
          [
            99.95447184798543,
            13.306599396932244
          ],
          [
            99.95465648298588,
            13.306598703483065
          ],
          [
            99.95465577486159,
            13.306417878707943
          ],
          [
            99.95484040971465,
            13.306417185134443
          ],
          [
            99.95483970146395,
            13.306236360366476
          ],
          [
            99.9550243361696,
            13.306235666668655
          ],
          [
            99.9550236277925,
            13.306054841907844
          ],
          [
            99.9553928968985,
            13.306053454129499
          ],
          [
            99.95539218825812,
            13.305872629385613
          ],
          [
            99.95557682265844,
            13.305871935305095
          ],
          [
            99.95557611389168,
            13.30569111056837
          ],
          [
            99.95576074814461,
            13.305690416363547
          ],
          [
            99.95576003925146,
            13.305509591633989
          ],
          [
            99.956129307452,
            13.305508202841667
          ],
          [
            99.95612788914966,
            13.305146553413824
          ],
          [
            99.95631252296037,
            13.305145858836106
          ],
          [
            99.95631181368809,
            13.304965034128047
          ],
          [
            99.95649644735141,
            13.304964339426045
          ],
          [
            99.95649573795275,
            13.304783514725159
          ],
          [
            99.95668037146865,
            13.304782819898868
          ],
          [
            99.95667966194364,
            13.304601995205157
          ],
          [
            99.95686429531214,
            13.304601300254586
          ],
          [
            99.95686358566078,
            13.304420475568051
          ],
          [
            99.95704821888188,
            13.304419780493198
          ],
          [
            99.95704750910414,
            13.30423895581384
          ],
          [
            99.957416775241,
            13.304237565281532
          ],
          [
            99.95741606520004,
            13.304056740619139
          ],
          [
            99.95778533102103,
            13.30405534957018
          ],
          [
            99.95778462071685,
            13.30387452492476
          ],
          [
            99.96073874357653,
            13.303863377386154
          ],
          [
            99.9607394560707,
            13.304044201874682
          ],
          [
            99.96110872151189,
            13.304042805999767
          ],
          [
            99.96110943429038,
            13.304223630466048
          ],
          [
            99.96221723118146,
            13.304219439565035
          ],
          [
            99.96221794479179,
            13.304400263969727
          ],
          [
            99.96240257770681,
            13.304399565007193
          ],
          [
            99.96240329146461,
            13.30458038939944
          ],
          [
            99.96258792450593,
            13.30457969029301
          ],
          [
            99.96258863841119,
            13.304760514672816
          ],
          [
            99.96295790473584,
            13.304759116038095
          ],
          [
            99.96295861892546,
            13.304939940395608
          ],
          [
            99.96314325220878,
            13.304939240867313
          ],
          [
            99.96314396654586,
            13.30512006521238
          ],
          [
            99.96351323335452,
            13.305118665733904
          ],
          [
            99.96351394797597,
            13.305299490056667
          ],
          [
            99.96369858150128,
            13.30529879010648
          ],
          [
            99.96369929627022,
            13.305479614416795
          ],
          [
            99.96388392992182,
            13.305478914322688
          ],
          [
            99.96388464483826,
            13.305659738620541
          ],
          [
            99.96425391238344,
            13.305658338010415
          ],
          [
            99.96425462758427,
            13.305839162285956
          ],
          [
            99.96443926147785,
            13.30583846176993
          ],
          [
            99.96443997682617,
            13.306019286033006
          ],
          [
            99.96462461084604,
            13.306018585373046
          ],
          [
            99.9646260418483,
            13.306380233871662
          ],
          [
            99.96481067613136,
            13.30637953305791
          ],
          [
            99.96481139178532,
            13.306560357293446
          ],
          [
            99.9651806605934,
            13.30655895524397
          ],
          [
            99.96518137653176,
            13.306739779457176
          ],
          [
            99.96536601105679,
            13.306739078221455
          ],
          [
            99.96536887546405,
            13.307462375008736
          ],
          [
            99.96555351052609,
            13.307461673599455
          ],
          [
            99.96555422679135,
            13.30764249777989
          ],
          [
            99.96573886197969,
            13.307641796226648
          ],
          [
            99.96573957839249,
            13.30782262039461
          ],
          [
            99.96610884901114,
            13.307821216866111
          ],
          [
            99.9661109991348,
            13.308363689295106
          ],
          [
            99.96629563483894,
            13.308362987300088
          ],
          [
            99.9662970685817,
            13.308724635553302
          ],
          [
            99.96648170454907,
            13.308723933404426
          ],
          [
            99.96648313860818,
            13.309085581627459
          ],
          [
            99.96666777483877,
            13.30908487932472
          ],
          [
            99.96666920921429,
            13.309446527517563
          ],
          [
            99.9668538457081,
            13.309445825060955
          ],
          [
            99.96685528040003,
            13.309807473223609
          ],
          [
            99.96722455390352,
            13.30980606786852
          ],
          [
            99.9672267068428,
            13.310348540033637
          ],
          [
            99.96741134398941,
            13.310347837125258
          ],
          [
            99.96741493311906,
            13.311251957298884
          ],
          [
            99.96759957093978,
            13.311251254206937
          ],
          [
            99.96760172495614,
            13.31179372625016
          ],
          [
            99.96723244848229,
            13.311795132359263
          ],
          [
            99.9672331662351,
            13.311975956388236
          ],
          [
            99.96704852784528,
            13.311976659251473
          ],
          [
            99.96704924547176,
            13.312157483287725
          ],
          [
            99.96686460693432,
            13.312158186026714
          ],
          [
            99.96686532443448,
            13.312339010070243
          ],
          [
            99.96668068574942,
            13.312339712684976
          ],
          [
            99.96668140312326,
            13.312520536735782
          ],
          [
            99.96649676429061,
            13.312521239226255
          ],
          [
            99.96649891606496,
            13.313063711392672
          ],
          [
            99.96705283376373,
            13.313061603429878
          ],
          [
            99.96705211608406,
            13.312880779406663
          ],
          [
            99.96815995037254,
            13.312876559918461
          ],
          [
            99.96815923188167,
            13.312695735951982
          ],
          [
            99.96871314847125,
            13.31269362442662
          ],
          [
            99.96871386737303,
            13.3128744483634
          ],
          [
            99.96963706216073,
            13.312870926422065
          ],
          [
            99.96963778175802,
            13.313051750306697
          ],
          [
            99.97000705987242,
            13.313050340571323
          ],
          [
            99.97000777975434,
            13.313231164433521
          ],
          [
            99.9703770581,
            13.313229754141723
          ],
          [
            99.97037777826655,
            13.313410577981477
          ],
          [
            99.97074705684348,
            13.313409167133244
          ],
          [
            99.97074777729466,
            13.31358999095055
          ],
          [
            99.97167097423495,
            13.313586461432697
          ],
          [
            99.97167025309888,
            13.313405637665031
          ],
          [
            99.9718548923179,
            13.31340493136894
          ],
          [
            99.97185417105553,
            13.313224107608603
          ],
          [
            99.97296200532325,
            13.31321986707454
          ],
          [
            99.97296272740748,
            13.313400690775234
          ],
          [
            99.97333200568508,
            13.313399276170802
          ],
          [
            99.97333272805399,
            13.313580099848995
          ],
          [
            99.97370200656272,
            13.313578684688059
          ],
          [
            99.97370272921628,
            13.313759508343736
          ],
          [
            99.97407200795614,
            13.313758092626284
          ],
          [
            99.97407273089439,
            13.313938916259447
          ],
          [
            99.97425737038523,
            13.31393820818953
          ],
          [
            99.97425881656783,
            13.314299855428114
          ],
          [
            99.97444345632192,
            13.314299147204121
          ],
          [
            99.97444417956629,
            13.314479970809545
          ],
          [
            99.97462881944665,
            13.314479262441433
          ],
          [
            99.97462954283873,
            13.314660086034277
          ],
          [
            99.97481418284536,
            13.314659377522043
          ],
          [
            99.97481635349689,
            13.315201848255052
          ],
          [
            99.97537027468542,
            13.315199721823655
          ],
          [
            99.9753695507132,
            13.315018898278495
          ],
          [
            99.97555419095092,
            13.315018189209667
          ],
          [
            99.97555346685243,
            13.314837365671874
          ],
          [
            99.97647666719507,
            13.314833818365116
          ],
          [
            99.97647739197853,
            13.315014641853022
          ],
          [
            99.97684667231441,
            13.315013221971201
          ],
          [
            99.9768473973826,
            13.315194045436535
          ],
          [
            99.9775859584734,
            13.315191204022943
          ],
          [
            99.97758668410033,
            13.315372027445704
          ],
          [
            99.9779559648552,
            13.315370605913914
          ],
          [
            99.9779566907669,
            13.31555142931408
          ],
          [
            99.97814133126519,
            13.315550718336931
          ],
          [
            99.97814205732465,
            13.31573154172449
          ],
          [
            99.97851133856298,
            13.315730119347675
          ],
          [
            99.9785120649072,
            13.315910942712627
          ],
          [
            99.97869670564722,
            13.315910231312953
          ],
          [
            99.97869743213921,
            13.316091054665291
          ],
          [
            99.97888207300548,
            13.31609034312144
          ],
          [
            99.97888352629579,
            13.316451989798274
          ],
          [
            99.97906816742531,
            13.316451278100232
          ],
          [
            99.97906889422362,
            13.316632101424727
          ],
          [
            99.97925353547939,
            13.316631389582495
          ],
          [
            99.97925426242547,
            13.316812212894375
          ],
          [
            99.97943890380748,
            13.316811500907946
          ],
          [
            99.97943963090137,
            13.316992324207206
          ],
          [
            99.97962427240961,
            13.316991612076578
          ],
          [
            99.97962499965129,
            13.317172435363215
          ],
          [
            99.97980964128578,
            13.31717172308839
          ],
          [
            99.97981036867526,
            13.317352546362399
          ],
          [
            99.97999501043599,
            13.31735183394337
          ],
          [
            99.97999573797325,
            13.317532657204756
          ],
          [
            99.98018037986024,
            13.317531944641516
          ],
          [
            99.98018183524118,
            13.317893591136425
          ],
          [
            99.98036647739143,
            13.317892878418947
          ],
          [
            99.98036720523508,
            13.318073701652468
          ],
          [
            99.98055184751159,
            13.318072988790776
          ],
          [
            99.98055839982328,
            13.319700397684832
          ],
          [
            99.98037375631344,
            13.319701110636732
          ],
          [
            99.98037448426496,
            13.31988193384416
          ],
          [
            99.98000519693883,
            13.319883359365356
          ],
          [
            99.98000665232601,
            13.320245005812462
          ],
          [
            99.97982200837266,
            13.320245718391769
          ],
          [
            99.97982346352886,
            13.320607364848472
          ],
          [
            99.97963881929064,
            13.320608077313592
          ],
          [
            99.97964027421581,
            13.320969723779887
          ],
          [
            99.9794556296927,
            13.320970436130809
          ],
          [
            99.9794563570344,
            13.321151259370058
          ],
          [
            99.97927171236343,
            13.32115197159676
          ],
          [
            99.979273166805,
            13.321513618087453
          ],
          [
            99.97908852184914,
            13.321514330199951
          ],
          [
            99.97909070318109,
            13.322056799946445
          ],
          [
            99.97982928458477,
            13.322053950570908
          ],
          [
            99.97982855691505,
            13.321873127364736
          ],
          [
            99.98019784727808,
            13.32187170189157
          ],
          [
            99.98019711934501,
            13.32169087870283
          ],
          [
            99.981858924211,
            13.321684457519112
          ],
          [
            99.98185965337771,
            13.321865280617596
          ],
          [
            99.98259823358569,
            13.321862423227893
          ],
          [
            99.9825967741665,
            13.321500777108644
          ],
          [
            99.98370464250931,
            13.321496487117601
          ],
          [
            99.98370537303592,
            13.321677310118229
          ],
          [
            99.98425930747246,
            13.321675163280391
          ],
          [
            99.98426003842108,
            13.321855986248229
          ],
          [
            99.9844446833487,
            13.321855270357084
          ],
          [
            99.98444541444523,
            13.322036093312251
          ],
          [
            99.98481470454209,
            13.322034661107123
          ],
          [
            99.98481543592361,
            13.322215484039548
          ],
          [
            99.98500008109285,
            13.322214767725557
          ],
          [
            99.98500081262227,
            13.322395590645305
          ],
          [
            99.98518545791777,
            13.322394874187006
          ],
          [
            99.9851861895951,
            13.322575697094074
          ],
          [
            99.98537083501684,
            13.322574980491462
          ],
          [
            99.98537156684209,
            13.322755803385844
          ],
          [
            99.9857408579272,
            13.322754369757734
          ],
          [
            99.98574159003745,
            13.322935192629359
          ],
          [
            99.98592623570082,
            13.322934475603859
          ],
          [
            99.985926967959,
            13.323115298462792
          ],
          [
            99.98611161374862,
            13.323114581292966
          ],
          [
            99.98611234615474,
            13.32329540413921
          ],
          [
            99.986850929753,
            13.323292534077071
          ],
          [
            99.98685166271834,
            13.323473356880369
          ],
          [
            99.98722095472651,
            13.323471921023609
          ],
          [
            99.98722168797687,
            13.323652743804118
          ],
          [
            99.98740633410176,
            13.323652025664268
          ],
          [
            99.98740706750006,
            13.323832848432067
          ],
          [
            99.98777635999144,
            13.323831411729413
          ],
          [
            99.98777709367481,
            13.324012234474411
          ],
          [
            99.98796174004129,
            13.324011515911602
          ],
          [
            99.98796394156787,
            13.324553984100637
          ],
          [
            99.98814858833478,
            13.324553265373266
          ],
          [
            99.9881493223358,
            13.324734088087624
          ],
          [
            99.98851861611121,
            13.324732650209883
          ],
          [
            99.98851935039731,
            13.32491347290142
          ],
          [
            99.98870399740582,
            13.324912753751045
          ],
          [
            99.98870473183992,
            13.325093576429865
          ],
          [
            99.98888937897463,
            13.325092857135116
          ],
          [
            99.9888901135567,
            13.32527367980122
          ],
          [
            99.98907476081766,
            13.325272960362089
          ],
          [
            99.98907549554772,
            13.325453783015467
          ],
          [
            99.98926014293491,
            13.325453063431954
          ],
          [
            99.98926234760174,
            13.325995531346093
          ],
          [
            99.98944699538939,
            13.325994811597965
          ],
          [
            99.98944920056552,
            13.326537279458261
          ],
          [
            99.98926455236652,
            13.326537999236729
          ],
          [
            99.98926602226412,
            13.326899644484099
          ],
          [
            99.98908137377998,
            13.32690036414851
          ],
          [
            99.98908357829663,
            13.327442832030313
          ],
          [
            99.98963752495055,
            13.327440672543188
          ],
          [
            99.98963826022259,
            13.327621495134894
          ],
          [
            99.99000755821172,
            13.327620054785102
          ],
          [
            99.99000829376891,
            13.327800877353956
          ],
          [
            99.99019294288428,
            13.327800156967497
          ],
          [
            99.9901936785895,
            13.327980979523616
          ],
          [
            99.99074762628162,
            13.327978817528077
          ],
          [
            99.99074689016497,
            13.327797995002333
          ],
          [
            99.99203943343834,
            13.327792945716553
          ],
          [
            99.99204017051494,
            13.327973768171352
          ],
          [
            99.99259411787985,
            13.327971602146842
          ],
          [
            99.9925948553788,
            13.328152424568598
          ],
          [
            99.99314880305683,
            13.32815025730495
          ],
          [
            99.99314954097812,
            13.32833107969364
          ],
          [
            99.9935188396498,
            13.328329634159397
          ],
          [
            99.9935195778563,
            13.328510456525166
          ],
          [
            99.99425817561705,
            13.32850756380441
          ],
          [
            99.99425891438307,
            13.328688386126926
          ],
          [
            99.99462821347211,
            13.328686938940388
          ],
          [
            99.99462895252336,
            13.32886776123996
          ],
          [
            99.99518290148627,
            13.32886558942235
          ],
          [
            99.99518364095992,
            13.329046411688795
          ],
          [
            99.99536829072949,
            13.329045687470803
          ],
          [
            99.99536903035123,
            13.32922650972446
          ],
          [
            99.99592298000566,
            13.329224336234088
          ],
          [
            99.9959237200498,
            13.329405158454604
          ],
          [
            99.99610837004985,
            13.329404433679006
          ],
          [
            99.99610911024213,
            13.329585255886721
          ],
          [
            99.99647841048365,
            13.32958380591222
          ],
          [
            99.99647915096119,
            13.329764628096957
          ],
          [
            99.99666380120267,
            13.329763902898044
          ],
          [
            99.99666454182835,
            13.32994472506998
          ],
          [
            99.99684919219602,
            13.32994399972656
          ],
          [
            99.99684993296981,
            13.330124821885695
          ],
          [
            99.99703458346366,
            13.330124096397766
          ],
          [
            99.99703532438559,
            13.330304918544092
          ],
          [
            99.99740462561473,
            13.330303467144885
          ],
          [
            99.99740536682195,
            13.330484289268215
          ],
          [
            99.99759001755723,
            13.330483563356928
          ],
          [
            99.9975907589126,
            13.330664385467445
          ],
          [
            99.99777540977408,
            13.330663659411636
          ],
          [
            99.99777689279206,
            13.331025303604434
          ],
          [
            99.99796154391689,
            13.331024577393897
          ],
          [
            99.99796302725315,
            13.33138622155584
          ],
          [
            99.99814767864135,
            13.331385495190569
          ],
          [
            99.99814842046311,
            13.331566317257415
          ],
          [
            99.99833307197751,
            13.331565590747605
          ],
          [
            99.99833455592837,
            13.331927234853053
          ],
          [
            99.99851920770614,
            13.331926508188491
          ],
          [
            99.99851994983523,
            13.332107330227092
          ],
          [
            99.99870460173919,
            13.332106603417984
          ],
          [
            99.9987060863047,
            13.33246824746692
          ],
          [
            99.99889073847206,
            13.332467520503052
          ],
          [
            99.99889445076407,
            13.333371630528614
          ],
          [
            99.99870979791075,
            13.333372357543539
          ],
          [
            99.99871276739339,
            13.334095645557792
          ],
          [
            99.99815880712109,
            13.33409782591893
          ],
          [
            99.99815806514556,
            13.33391700388866
          ],
          [
            99.99760410518603,
            13.333919183009938
          ],
          [
            99.99760188056015,
            13.333376716811651
          ],
          [
            99.99667861579947,
            13.333380345840334
          ],
          [
            99.99667935664444,
            13.333561167960012
          ],
          [
            99.9964947035222,
            13.333561893372872
          ],
          [
            99.99649544424095,
            13.333742715500128
          ],
          [
            99.99631079097053,
            13.333743440788815
          ],
          [
            99.99631153156304,
            13.333924262923643
          ],
          [
            99.99612687814445,
            13.33392498808816
          ],
          [
            99.99612761861073,
            13.33410581023056
          ],
          [
            99.99594296504398,
            13.334106535270898
          ],
          [
            99.99594444573496,
            13.33446817956822
          ],
          [
            99.99483652245794,
            13.334472527110762
          ],
          [
            99.99483356441276,
            13.333749238261438
          ],
          [
            99.99520287111793,
            13.333747789699437
          ],
          [
            99.99520065187578,
            13.333205323096038
          ],
          [
            99.99538530480034,
            13.333204598644024
          ],
          [
            99.99538382508592,
            13.332842954249045
          ],
          [
            99.99612243557705,
            13.332840055178893
          ],
          [
            99.99611873373894,
            13.331935944349317
          ],
          [
            99.99630338564839,
            13.33193521929683
          ],
          [
            99.99630116426549,
            13.331392752798283
          ],
          [
            99.9955625582081,
            13.331395652080019
          ],
          [
            99.99556181831777,
            13.331214829867886
          ],
          [
            99.9951925154977,
            13.331216278682396
          ],
          [
            99.99518881758202,
            13.330312167480782
          ],
          [
            99.99389626216792,
            13.330317233744257
          ],
          [
            99.993897000769,
            13.330498056060978
          ],
          [
            99.99223514178628,
            13.330504560248418
          ],
          [
            99.99223440441969,
            13.330323737840327
          ],
          [
            99.99094184778188,
            13.330328789059607
          ],
          [
            99.99094111138636,
            13.33014796657795
          ],
          [
            99.9903871587895,
            13.330150129340977
          ],
          [
            99.99038863076845,
            13.330511774362447
          ],
          [
            99.98983467725053,
            13.330513935977308
          ],
          [
            99.98983320609457,
            13.330152290895104
          ],
          [
            99.98964855517448,
            13.330153011144503
          ],
          [
            99.98964781975,
            13.329972188589363
          ],
          [
            99.98927851815148,
            13.329973628664966
          ],
          [
            99.98927778301221,
            13.329792806086987
          ],
          [
            99.98890848164447,
            13.329794245605088
          ],
          [
            99.9889077467904,
            13.32961342300427
          ],
          [
            99.98853844565346,
            13.329614861964878
          ],
          [
            99.98853550744322,
            13.328891571454637
          ],
          [
            99.98724295696174,
            13.32889660330302
          ],
          [
            99.9872488258754,
            13.33034318484727
          ],
          [
            99.98632556971927,
            13.330346775398926
          ],
          [
            99.98632337085263,
            13.329804307188102
          ],
          [
            99.98650802169408,
            13.32980358937667
          ],
          [
            99.98650435644761,
            13.328899475690148
          ],
          [
            99.98687365672639,
            13.328898039765203
          ],
          [
            99.98687145688588,
            13.328355571582472
          ],
          [
            99.98650215742998,
            13.328357007446895
          ],
          [
            99.98650142444579,
            13.328176184693923
          ],
          [
            99.98594747559198,
            13.328178337453034
          ],
          [
            99.98595040594805,
            13.328901628570247
          ],
          [
            99.98484250465609,
            13.328905930704087
          ],
          [
            99.98484470006827,
            13.329448399195902
          ],
          [
            99.98466004940353,
            13.329449115778326
          ],
          [
            99.98466078109212,
            13.329629938613774
          ],
          [
            99.98410682862148,
            13.329632087585345
          ],
          [
            99.98410390357805,
            13.328908796107118
          ],
          [
            99.9842885538638,
            13.328908079957824
          ],
          [
            99.98428635978345,
            13.328365611351924
          ],
          [
            99.98410170990914,
            13.32836632747103
          ],
          [
            99.98410097870784,
            13.328185504587113
          ],
          [
            99.98317772985962,
            13.328189083117815
          ],
          [
            99.98317846037521,
            13.328369906052009
          ],
          [
            99.98243986055336,
            13.328372766499317
          ],
          [
            99.98243913058634,
            13.328191943524931
          ],
          [
            99.9817005311401,
            13.328194801783207
          ],
          [
            99.98169761357435,
            13.327471509698915
          ],
          [
            99.98058971737237,
            13.327475792816518
          ],
          [
            99.98059044592479,
            13.327656615901688
          ],
          [
            99.9804057963829,
            13.32765732929461
          ],
          [
            99.98040725324583,
            13.328018975477166
          ],
          [
            99.98022260341885,
            13.328019688755834
          ],
          [
            99.98022406005065,
            13.32838133494799
          ],
          [
            99.97967010968219,
            13.3283834740383
          ],
          [
            99.97966792598496,
            13.327841004655987
          ],
          [
            99.97985257570713,
            13.32784029179024
          ],
          [
            99.97985039169549,
            13.327297822414481
          ],
          [
            99.97929644373087,
            13.327299960518703
          ],
          [
            99.97929571615994,
            13.327119137358187
          ],
          [
            99.97837247002244,
            13.327122698129314
          ],
          [
            99.97837174314793,
            13.326941874916153
          ],
          [
            99.97726384825053,
            13.326946143349888
          ],
          [
            99.97726312220956,
            13.326765320074141
          ],
          [
            99.97670917502707,
            13.326767452448125
          ],
          [
            99.97670844940824,
            13.326586629139802
          ],
          [
            99.97615450254042,
            13.326588760275243
          ],
          [
            99.97615522774787,
            13.32676958361351
          ],
          [
            99.97597057863332,
            13.326770293733395
          ],
          [
            99.97597130371439,
            13.326951117079028
          ],
          [
            99.97578665445198,
            13.3269518270746
          ],
          [
            99.97578737940665,
            13.327132650427604
          ],
          [
            99.97560272999635,
            13.327133360298859
          ],
          [
            99.97560417966363,
            13.32749500701698
          ],
          [
            99.97541952996835,
            13.327495716773887
          ],
          [
            99.97542025468096,
            13.327676540139002
          ],
          [
            99.9752356048378,
            13.327677249771588
          ],
          [
            99.97523632942399,
            13.327858073144064
          ],
          [
            99.97505167943298,
            13.327858782652319
          ],
          [
            99.97505747541159,
            13.329305369617915
          ],
          [
            99.97394956865715,
            13.329309624325314
          ],
          [
            99.97395029237978,
            13.32949044774404
          ],
          [
            99.97376564107937,
            13.329491156401792
          ],
          [
            99.97376636467558,
            13.329671979827863
          ],
          [
            99.9732124102986,
            13.329674105025068
          ],
          [
            99.97321096393983,
            13.329312458110602
          ],
          [
            99.97265701028942,
            13.329314582039254
          ],
          [
            99.97265773305197,
            13.32949540552763
          ],
          [
            99.97228843029055,
            13.329496820828371
          ],
          [
            99.9722898752991,
            13.32985846783706
          ],
          [
            99.972105223628,
            13.32985917530583
          ],
          [
            99.97210594601117,
            13.330039998816194
          ],
          [
            99.97192129419223,
            13.33004070616058
          ],
          [
            99.97192201644891,
            13.330221529678276
          ],
          [
            99.9715527125046,
            13.330222943983944
          ],
          [
            99.97155343449766,
            13.330403767518893
          ],
          [
            99.97136878237231,
            13.33040447448017
          ],
          [
            99.97136950423888,
            13.330585298022443
          ],
          [
            99.97118485196566,
            13.33058600485932
          ],
          [
            99.9711877389901,
            13.331309299042024
          ],
          [
            99.9704491275956,
            13.331312125205043
          ],
          [
            99.97045129132994,
            13.331854595933754
          ],
          [
            99.97008198474552,
            13.331856008268755
          ],
          [
            99.97008270573727,
            13.332036831859607
          ],
          [
            99.96989805229187,
            13.332037537835511
          ],
          [
            99.96989877315711,
            13.33221836143367
          ],
          [
            99.96952946595991,
            13.332219773002272
          ],
          [
            99.96953234843004,
            13.332943067448106
          ],
          [
            99.9686090775065,
            13.332946594216677
          ],
          [
            99.96860979746471,
            13.333127417871143
          ],
          [
            99.96824048874628,
            13.333128827657893
          ],
          [
            99.96824192814584,
            13.333490474998596
          ],
          [
            99.9671340000885,
            13.333494701253
          ],
          [
            99.96713615679802,
            13.334037172422544
          ],
          [
            99.96732081191249,
            13.33403646835305
          ],
          [
            99.96732153097416,
            13.33421729206112
          ],
          [
            99.96750618621518,
            13.334216587847367
          ],
          [
            99.96750834387569,
            13.334759058926249
          ],
          [
            99.9671390325597,
            13.334760467278723
          ],
          [
            99.96714262750122,
            13.335664585790195
          ],
          [
            99.9667733147704,
            13.335665993704028
          ],
          [
            99.96677547103963,
            13.33620846483889
          ],
          [
            99.96696012782205,
            13.336207760919509
          ],
          [
            99.96696084673697,
            13.336388584616023
          ],
          [
            99.96714550364598,
            13.336387880552369
          ],
          [
            99.96714694178222,
            13.336749527917787
          ],
          [
            99.96733159895507,
            13.336748823699962
          ],
          [
            99.96733447590422,
            13.33747211835991
          ],
          [
            99.96714981818239,
            13.337472822617285
          ],
          [
            99.96715053730905,
            13.337653646285633
          ],
          [
            99.96696587943931,
            13.337654350418493
          ],
          [
            99.96696731745004,
            13.338015997767126
          ],
          [
            99.96641334295349,
            13.338018109418584
          ],
          [
            99.96641406156304,
            13.33819893311863
          ],
          [
            99.966229403239,
            13.338199636743514
          ],
          [
            99.96623012172192,
            13.338380460450828
          ],
          [
            99.96586080476743,
            13.338381867317121
          ],
          [
            99.96586152298647,
            13.338562691041576
          ],
          [
            99.965676864356,
            13.338563394282973
          ],
          [
            99.9656811730698,
            13.339648336634104
          ],
          [
            99.96512719464386,
            13.339650445729482
          ],
          [
            99.96512575918707,
            13.339288798230335
          ],
          [
            99.9645717814892,
            13.339290906056704
          ],
          [
            99.96457321612236,
            13.33965255361504
          ],
          [
            99.9645227666757,
            13.33965274551481
          ]
        ]
      }
    },
    {
      "type": "Feature",
      "properties": {
        "indicator": "WATERLINE",
        "role": "HISTORICAL_AND_RECENT_SCREENING",
        "year": 2020,
        "scene_id": "S2B_MSIL2A_20200127T034019_R061_T47PPQ_20201002T124351",
        "acquisition_datetime_bangkok": "2020-01-27T10:40:19.024000+07:00",
        "tide_level_m_msl": 1.1418,
        "tide_target_m_msl": 1.0879,
        "tide_delta_from_target_m": 0.0539,
        "tide_status": "modelled_secondary_extrema_cosine",
        "tide_source_tier": "secondary_published_extrema",
        "mndwi_threshold": 0.0,
        "threshold_method": "fixed_zero",
        "source_resolution_m": 20,
        "confidence": "LOW",
        "interpretation": "image-derived waterline selected near the current tide target; screening only, not tide-normalized or surveyed",
        "segment_id": 3,
        "length_m": 1744.42
      },
      "geometry": {
        "type": "LineString",
        "coordinates": [
          [
            99.96596754208518,
            13.340732204487777
          ],
          [
            99.96605480271099,
            13.340731872036999
          ],
          [
            99.96605408422712,
            13.340551048353756
          ],
          [
            99.96642340445489,
            13.340549640981568
          ],
          [
            99.9664226857071,
            13.340368817315476
          ],
          [
            99.96660734566774,
            13.340368113437611
          ],
          [
            99.9666037514019,
            13.33946399511737
          ],
          [
            99.96697306991851,
            13.339462587057183
          ],
          [
            99.96697163173755,
            13.339100939750338
          ],
          [
            99.9684489031819,
            13.339095302290971
          ],
          [
            99.96845178397906,
            13.339818596577619
          ],
          [
            99.96955974040932,
            13.339814362599755
          ],
          [
            99.9695611825192,
            13.340176009608527
          ],
          [
            99.97029982102423,
            13.340173184188767
          ],
          [
            99.97030054264428,
            13.340354007649573
          ],
          [
            99.97122384122173,
            13.340350472800585
          ],
          [
            99.97122456353887,
            13.340531296209152
          ],
          [
            99.97159388316962,
            13.340529881308676
          ],
          [
            99.97159460577201,
            13.340710704694771
          ],
          [
            99.97196392563457,
            13.340709289236692
          ],
          [
            99.97196609432964,
            13.341251759319691
          ],
          [
            99.97159677364337,
            13.341253174837377
          ],
          [
            99.97159894161095,
            13.341795644956472
          ],
          [
            99.97067563764877,
            13.341799181546909
          ],
          [
            99.97067347174061,
            13.341256711278888
          ],
          [
            99.97048881132801,
            13.341257418163869
          ],
          [
            99.97048736771721,
            13.340895771285611
          ],
          [
            99.96993338723908,
            13.340897891074393
          ],
          [
            99.96993627285588,
            13.34162118493948
          ],
          [
            99.96938229063417,
            13.341623303637286
          ],
          [
            99.96938301165315,
            13.341804127126768
          ],
          [
            99.96864436799237,
            13.341806950214572
          ],
          [
            99.9686463480685,
            13.342303895981035
          ]
        ]
      }
    },
    {
      "type": "Feature",
      "properties": {
        "indicator": "WATERLINE",
        "role": "HISTORICAL_AND_RECENT_SCREENING",
        "year": 2020,
        "scene_id": "S2B_MSIL2A_20200127T034019_R061_T47PPQ_20201002T124351",
        "acquisition_datetime_bangkok": "2020-01-27T10:40:19.024000+07:00",
        "tide_level_m_msl": 1.1418,
        "tide_target_m_msl": 1.0879,
        "tide_delta_from_target_m": 0.0539,
        "tide_status": "modelled_secondary_extrema_cosine",
        "tide_source_tier": "secondary_published_extrema",
        "mndwi_threshold": 0.0,
        "threshold_method": "fixed_zero",
        "source_resolution_m": 20,
        "confidence": "LOW",
        "interpretation": "image-derived waterline selected near the current tide target; screening only, not tide-normalized or surveyed",
        "segment_id": 4,
        "length_m": 5486.37
      },
      "geometry": {
        "type": "LineString",
        "coordinates": [
          [
            99.9723455601831,
            13.343786748308979
          ],
          [
            99.97253020289551,
            13.343781161360441
          ],
          [
            99.97252947942475,
            13.343600338068459
          ],
          [
            99.97271414150471,
            13.343599629575362
          ],
          [
            99.97271197074471,
            13.343057159713556
          ],
          [
            99.97215798570858,
            13.343059284699967
          ],
          [
            99.97215726255526,
            13.342878461377646
          ],
          [
            99.97197260099246,
            13.34287916942759
          ],
          [
            99.97197115499253,
            13.342517522755236
          ],
          [
            99.9714171710638,
            13.342519646038726
          ],
          [
            99.97141500337983,
            13.34197717592119
          ],
          [
            99.97233830781468,
            13.341973636592146
          ],
          [
            99.9723346917895,
            13.341069519925727
          ],
          [
            99.97288867226261,
            13.34106739486408
          ],
          [
            99.97289084308126,
            13.341609864782274
          ],
          [
            99.97418346669353,
            13.341604901390731
          ],
          [
            99.97418129299176,
            13.341062431681548
          ],
          [
            99.9747352731435,
            13.341060302586744
          ],
          [
            99.9747359981119,
            13.341241125795865
          ],
          [
            99.975105318434,
            13.341239705707205
          ],
          [
            99.9751060436877,
            13.341420528893778
          ],
          [
            99.97566002450226,
            13.341418397722572
          ],
          [
            99.97565929883667,
            13.341237574565914
          ],
          [
            99.97584395894943,
            13.341236863916606
          ],
          [
            99.97584250737589,
            13.3408752176154
          ],
          [
            99.97602716720333,
            13.340874506851605
          ],
          [
            99.97602644129537,
            13.340693683707066
          ],
          [
            99.9762111009748,
            13.340692972818815
          ],
          [
            99.9762103749403,
            13.340512149681638
          ],
          [
            99.97676435350223,
            13.340510016240227
          ],
          [
            99.97675999504989,
            13.339425077541994
          ],
          [
            99.97602136024044,
            13.339427921622105
          ],
          [
            99.97602208607321,
            13.33960874478494
          ],
          [
            99.97546810944155,
            13.339610876463528
          ],
          [
            99.97546593321088,
            13.339068406877411
          ],
          [
            99.97565059168704,
            13.339067696482225
          ],
          [
            99.97564986616102,
            13.338886873291603
          ],
          [
            99.97583452448917,
            13.338886162771974
          ],
          [
            99.9758316219434,
            13.33816287002326
          ],
          [
            99.9756469641643,
            13.338163580502986
          ],
          [
            99.97564623869195,
            13.337982757299308
          ],
          [
            99.97546158103937,
            13.337983467634647
          ],
          [
            99.97545867980635,
            13.33726017475389
          ],
          [
            99.97601265108493,
            13.337258043464344
          ],
          [
            99.97601337678883,
            13.337438866658525
          ],
          [
            99.97693666272451,
            13.337435311771394
          ],
          [
            99.97693956839251,
            13.338158604322343
          ],
          [
            99.97712422609642,
            13.338157892901762
          ],
          [
            99.97712495267756,
            13.33833871602298
          ],
          [
            99.97749426832762,
            13.338337292758617
          ],
          [
            99.97749717585775,
            13.339060585137423
          ],
          [
            99.97823580922497,
            13.33905773683583
          ],
          [
            99.97823508177724,
            13.338876913785032
          ],
          [
            99.97841973995489,
            13.338876201383593
          ],
          [
            99.97841755726452,
            13.33833373224554
          ],
          [
            99.97878687276392,
            13.338332307099444
          ],
          [
            99.97878614494748,
            13.338151484068211
          ],
          [
            99.97897080254378,
            13.338150771303555
          ],
          [
            99.97897007460085,
            13.337969948279719
          ],
          [
            99.97915473204912,
            13.33796923539067
          ],
          [
            99.97915254787324,
            13.337426766333502
          ],
          [
            99.97989117591155,
            13.33742391355341
          ],
          [
            99.97989044732549,
            13.337243090569189
          ],
          [
            99.98007510417087,
            13.337242377048184
          ],
          [
            99.98007218938547,
            13.336519085125238
          ],
          [
            99.98025684567111,
            13.336518371509921
          ],
          [
            99.98025611686448,
            13.336337548532672
          ],
          [
            99.98062542912892,
            13.336336120918919
          ],
          [
            99.98062324195037,
            13.335793652031636
          ],
          [
            99.98173117601448,
            13.335789366145613
          ],
          [
            99.9817340955677,
            13.336512657749351
          ],
          [
            99.98136478315833,
            13.336514086995834
          ],
          [
            99.98136551279916,
            13.336694909910305
          ],
          [
            99.98118085644104,
            13.336695624341994
          ],
          [
            99.98118158595544,
            13.336876447263885
          ],
          [
            99.98099692944928,
            13.336877161571211
          ],
          [
            99.98099765883723,
            13.33705798450052
          ],
          [
            99.98081300218303,
            13.337058698683482
          ],
          [
            99.98081373144453,
            13.337239521620205
          ],
          [
            99.9806290746423,
            13.337240235678797
          ],
          [
            99.98063053292319,
            13.33760188156446
          ],
          [
            99.98044587583566,
            13.337602595508704
          ],
          [
            99.98044733388521,
            13.337964241403967
          ],
          [
            99.9802626765124,
            13.337964955233852
          ],
          [
            99.9802641343306,
            13.33832660113871
          ],
          [
            99.97989481900359,
            13.338328028435347
          ],
          [
            99.97989700498822,
            13.338870497333152
          ],
          [
            99.97915837255775,
            13.33887335043369
          ],
          [
            99.97916201333574,
            13.3397774654114
          ],
          [
            99.97860803684071,
            13.339779603975561
          ],
          [
            99.97860876461681,
            13.339960426993288
          ],
          [
            99.97805478761305,
            13.33996256437764
          ],
          [
            99.97805769717777,
            13.340685856542434
          ],
          [
            99.97676507994856,
            13.340690839347458
          ],
          [
            99.97676725935209,
            13.341233308653461
          ],
          [
            99.97695191940038,
            13.341232597197513
          ],
          [
            99.97695264602702,
            13.341413420284303
          ],
          [
            99.97713730620185,
            13.341412708683926
          ],
          [
            99.97713803297653,
            13.341593531758111
          ],
          [
            99.9773226932779,
            13.341592820013302
          ],
          [
            99.97732414713408,
            13.341954466133858
          ],
          [
            99.9780627893304,
            13.341951617730224
          ],
          [
            99.97805915202471,
            13.341047502609154
          ],
          [
            99.97861313149954,
            13.341045365044767
          ],
          [
            99.97861385935101,
            13.341226188044203
          ],
          [
            99.97879851929171,
            13.341225475243862
          ],
          [
            99.97879924729125,
            13.341406298230675
          ],
          [
            99.97935322746059,
            13.341404158992983
          ],
          [
            99.979356141214,
            13.342127450793997
          ],
          [
            99.97917148061914,
            13.342128164047715
          ],
          [
            99.97917220894713,
            13.342308987001449
          ],
          [
            99.9789875482042,
            13.342309700130727
          ],
          [
            99.97898827640567,
            13.342490523091854
          ],
          [
            99.97880361551466,
            13.342491236096688
          ],
          [
            99.9788043435896,
            13.342672059065213
          ],
          [
            99.97861968255052,
            13.342672771945603
          ],
          [
            99.97862259440873,
            13.343396063833584
          ],
          [
            99.97788394794777,
            13.343398914170617
          ],
          [
            99.97788467538997,
            13.34357973717608
          ],
          [
            99.97770001361053,
            13.343580449434182
          ],
          [
            99.97770074092618,
            13.343761272447031
          ],
          [
            99.97751607899865,
            13.343761984580663
          ],
          [
            99.97751680618774,
            13.343942807600891
          ],
          [
            99.97733214411211,
            13.343943519610047
          ],
          [
            99.97733287117465,
            13.34412434263766
          ],
          [
            99.97714820895096,
            13.344125054522339
          ],
          [
            99.97715111675934,
            13.344848346646607
          ],
          [
            99.97672304098108,
            13.344849996476482
          ]
        ]
      }
    },
    {
      "type": "Feature",
      "properties": {
        "indicator": "WATERLINE",
        "role": "HISTORICAL_AND_RECENT_SCREENING",
        "year": 2020,
        "scene_id": "S2B_MSIL2A_20200127T034019_R061_T47PPQ_20201002T124351",
        "acquisition_datetime_bangkok": "2020-01-27T10:40:19.024000+07:00",
        "tide_level_m_msl": 1.1418,
        "tide_target_m_msl": 1.0879,
        "tide_delta_from_target_m": 0.0539,
        "tide_status": "modelled_secondary_extrema_cosine",
        "tide_source_tier": "secondary_published_extrema",
        "mndwi_threshold": 0.0,
        "threshold_method": "fixed_zero",
        "source_resolution_m": 20,
        "confidence": "LOW",
        "interpretation": "image-derived waterline selected near the current tide target; screening only, not tide-normalized or surveyed",
        "segment_id": 5,
        "length_m": 106.12
      },
      "geometry": {
        "type": "LineString",
        "coordinates": [
          [
            99.97777258700356,
            13.345388427559586
          ],
          [
            99.97844593979761,
            13.3453858292059
          ],
          [
            99.97844714813245,
            13.345685969070734
          ]
        ]
      }
    }
  ]
}
