{
  "type": "FeatureCollection",
  "features": [
    {
      "type": "Feature",
      "properties": {
        "indicator": "WATERLINE",
        "role": "HISTORICAL_AND_RECENT_SCREENING",
        "year": 2021,
        "scene_id": "S2B_MSIL2A_20210131T033959_R061_T47PPQ_20210202T120414",
        "acquisition_datetime_bangkok": "2021-01-31T10:39:59.024000+07:00",
        "tide_level_m_msl": 1.2457,
        "tide_target_m_msl": 1.0879,
        "tide_delta_from_target_m": 0.1578,
        "tide_status": "modelled_secondary_extrema_cosine",
        "tide_source_tier": "secondary_published_extrema",
        "mndwi_threshold": 0.25,
        "threshold_method": "otsu",
        "source_resolution_m": 20,
        "confidence": "LOW",
        "interpretation": "image-derived waterline selected near the current tide target; screening only, not tide-normalized or surveyed",
        "segment_id": 1,
        "length_m": 17761.34
      },
      "geometry": {
        "type": "LineString",
        "coordinates": [
          [
            99.95474489084305,
            13.282005817910404
          ],
          [
            99.95456027445337,
            13.282006510166477
          ],
          [
            99.95456168787823,
            13.282368160416864
          ],
          [
            99.95419245452088,
            13.282369544566556
          ],
          [
            99.95419316097578,
            13.282550369707359
          ],
          [
            99.95400854414474,
            13.282551061591212
          ],
          [
            99.95400925047349,
            13.28273188673917
          ],
          [
            99.95382463349533,
            13.282732578498942
          ],
          [
            99.95382533969793,
            13.282913403654048
          ],
          [
            99.95364072257264,
            13.282914095289737
          ],
          [
            99.9536414286491,
            13.283094920451987
          ],
          [
            99.95327219409378,
            13.283096303341356
          ],
          [
            99.95327289990743,
            13.283277128520497
          ],
          [
            99.9529036650369,
            13.283278510894002
          ],
          [
            99.95290437058776,
            13.283459336090027
          ],
          [
            99.95271975300012,
            13.283460027085761
          ],
          [
            99.9527204584248,
            13.283640852288926
          ],
          [
            99.95235122294484,
            13.283642233898341
          ],
          [
            99.95235404365508,
            13.284365534762884
          ],
          [
            99.9518001887168,
            13.284367606289969
          ],
          [
            99.95180723712538,
            13.286175858561208
          ],
          [
            99.95199185681527,
            13.28617516808873
          ],
          [
            99.95199538209539,
            13.287079294078163
          ],
          [
            99.95273386348387,
            13.287076530654879
          ],
          [
            99.95273456911805,
            13.287257355806023
          ],
          [
            99.95310381002282,
            13.287255973271629
          ],
          [
            99.95310663375781,
            13.287979273772272
          ],
          [
            99.95329125474126,
            13.287978582265282
          ],
          [
            99.9532919608379,
            13.288159407374197
          ],
          [
            99.95347658194756,
            13.288158715723574
          ],
          [
            99.95347799444569,
            13.288520365914106
          ],
          [
            99.95366261581825,
            13.288519674110104
          ],
          [
            99.9536647350542,
            13.289062149347146
          ],
          [
            99.9538493568264,
            13.28906145738
          ],
          [
            99.95385076997621,
            13.289423107505526
          ],
          [
            99.95403539201135,
            13.289422415384982
          ],
          [
            99.95403609873868,
            13.289603240434088
          ],
          [
            99.95458996519127,
            13.289601163239778
          ],
          [
            99.9545927938462,
            13.290324463293134
          ],
          [
            99.95477741652294,
            13.290323770588188
          ],
          [
            99.95477953853452,
            13.290866245571609
          ],
          [
            99.95496416161095,
            13.290865552703469
          ],
          [
            99.95496769919055,
            13.291769677574994
          ],
          [
            99.95515232294014,
            13.291768984524124
          ],
          [
            99.9551530306243,
            13.291949809480862
          ],
          [
            99.95533765450011,
            13.291949116286304
          ],
          [
            99.95533836233153,
            13.292129941230671
          ],
          [
            99.95570761032513,
            13.29212855442023
          ],
          [
            99.95570831844054,
            13.292309379342466
          ],
          [
            99.9560775666656,
            13.292307991976761
          ],
          [
            99.95608465113266,
            13.294116240860527
          ],
          [
            99.95590002565784,
            13.294116934708063
          ],
          [
            99.95590073402559,
            13.294297759591894
          ],
          [
            99.95553148277091,
            13.29429914690465
          ],
          [
            99.95553643972472,
            13.295564921155371
          ],
          [
            99.9553518131242,
            13.295565614679184
          ],
          [
            99.95535322921772,
            13.29592726446121
          ],
          [
            99.95516860233312,
            13.295927957870584
          ],
          [
            99.95516931025885,
            13.296108782767458
          ],
          [
            99.95480005618457,
            13.29611016920382
          ],
          [
            99.95480217920405,
            13.296652643937392
          ],
          [
            99.95443292426702,
            13.296654029896414
          ],
          [
            99.9544336316876,
            13.296834854821912
          ],
          [
            99.95424900406655,
            13.29683554761021
          ],
          [
            99.9542518333066,
            13.297558847325195
          ],
          [
            99.95443646147484,
            13.297558154497874
          ],
          [
            99.95444282911015,
            13.299185578616498
          ],
          [
            99.95462745849922,
            13.299184885567376
          ],
          [
            99.95462816620355,
            13.29936571044667
          ],
          [
            99.95481279571894,
            13.299365017253786
          ],
          [
            99.95481350357059,
            13.299545842120718
          ],
          [
            99.95499813321231,
            13.299545148784064
          ],
          [
            99.95499884121129,
            13.29972597363863
          ],
          [
            99.95518347097934,
            13.299725280158206
          ],
          [
            99.95518488728247,
            13.300086929840003
          ],
          [
            99.95536951731367,
            13.300086236206038
          ],
          [
            99.95537376729621,
            13.301171185130347
          ],
          [
            99.95518913644399,
            13.301171878822897
          ],
          [
            99.95519338598369,
            13.302256827712045
          ],
          [
            99.955378017657,
            13.302256133960901
          ],
          [
            99.95538155991325,
            13.303160257914753
          ],
          [
            99.95519692755563,
            13.30316095171472
          ],
          [
            99.95519976100229,
            13.303884250869977
          ],
          [
            99.95501512808667,
            13.303884944574953
          ],
          [
            99.95501583633774,
            13.304065769367021
          ],
          [
            99.95427730402278,
            13.304068542885421
          ],
          [
            99.95428013494194,
            13.30479184218378
          ],
          [
            99.95409550128943,
            13.304792535267257
          ],
          [
            99.95409620890857,
            13.304973360095087
          ],
          [
            99.95391157510869,
            13.30497405305425
          ],
          [
            99.95391299010467,
            13.305335702721605
          ],
          [
            99.95372835602052,
            13.305336395566208
          ],
          [
            99.95372906339735,
            13.30551722040573
          ],
          [
            99.95335979492381,
            13.305518605712221
          ],
          [
            99.95336120916137,
            13.305880255422437
          ],
          [
            99.95317657463507,
            13.30588094789407
          ],
          [
            99.95317728163268,
            13.306061772755012
          ],
          [
            99.952992646959,
            13.306062465102311
          ],
          [
            99.9529933538302,
            13.306243289970393
          ],
          [
            99.95280871900914,
            13.306243982193354
          ],
          [
            99.95280942575391,
            13.306424807068577
          ],
          [
            99.95244015580657,
            13.306426191131743
          ],
          [
            99.952440862288,
            13.306607016023833
          ],
          [
            99.95225622716171,
            13.306607707864028
          ],
          [
            99.95225834625816,
            13.307150182553878
          ],
          [
            99.95207371071068,
            13.307150874289192
          ],
          [
            99.95207512322018,
            13.307512524088864
          ],
          [
            99.95189048738838,
            13.307513215709555
          ],
          [
            99.95189119352193,
            13.307694040615214
          ],
          [
            99.95170655754276,
            13.307694732111544
          ],
          [
            99.95170796956742,
            13.308056381934511
          ],
          [
            99.95152333330394,
            13.308057073316203
          ],
          [
            99.95152474509662,
            13.3084187231482
          ],
          [
            99.95134010854882,
            13.308419414415246
          ],
          [
            99.95134152010951,
            13.308781064256282
          ],
          [
            99.95115688327739,
            13.30878175540867
          ],
          [
            99.9511575889365,
            13.308962580335002
          ],
          [
            99.95078831496703,
            13.308963962256916
          ],
          [
            99.95079043118552,
            13.30950643707861
          ],
          [
            99.95134434335645,
            13.309504363907083
          ],
          [
            99.95134363752902,
            13.309323538998287
          ],
          [
            99.95189754919498,
            13.309321464648932
          ],
          [
            99.9518968429672,
            13.309140639766719
          ],
          [
            99.95208148003132,
            13.309139948058444
          ],
          [
            99.95208006733331,
            13.308778298305663
          ],
          [
            99.9522647041131,
            13.30877760648275
          ],
          [
            99.95226399764287,
            13.30859678161218
          ],
          [
            99.95244863427524,
            13.308596089664892
          ],
          [
            99.95244792767858,
            13.308415264801457
          ],
          [
            99.95263256416355,
            13.308414572729806
          ],
          [
            99.95263185744044,
            13.308233747873505
          ],
          [
            99.952816493778,
            13.308233055677492
          ],
          [
            99.95281578692844,
            13.308052230828324
          ],
          [
            99.9530004231186,
            13.308051538507954
          ],
          [
            99.9529997161426,
            13.307870713665919
          ],
          [
            99.95318435218536,
            13.307870021221197
          ],
          [
            99.95318364508292,
            13.307689196386296
          ],
          [
            99.95336828097828,
            13.307688503817221
          ],
          [
            99.9533675737494,
            13.307507678989467
          ],
          [
            99.95373684523484,
            13.30750629346853
          ],
          [
            99.95373613774262,
            13.307325468657663
          ],
          [
            99.9539207733327,
            13.307324775705808
          ],
          [
            99.95392006571406,
            13.30714395090209
          ],
          [
            99.95410470115672,
            13.307143257825897
          ],
          [
            99.95410399341166,
            13.306962433029323
          ],
          [
            99.95428862870692,
            13.306961739828798
          ],
          [
            99.95428792083544,
            13.306780915039376
          ],
          [
            99.95447255598332,
            13.30678022171452
          ],
          [
            99.95447184798543,
            13.306599396932244
          ],
          [
            99.95465648298588,
            13.306598703483065
          ],
          [
            99.95465577486159,
            13.306417878707943
          ],
          [
            99.95484040971465,
            13.306417185134443
          ],
          [
            99.95483899322377,
            13.306055535595904
          ],
          [
            99.95520826235077,
            13.30605414808571
          ],
          [
            99.95520755384727,
            13.305873323332058
          ],
          [
            99.95539218825812,
            13.305872629385613
          ],
          [
            99.95539147962825,
            13.305691804639121
          ],
          [
            99.95557611389168,
            13.30569111056837
          ],
          [
            99.95557540513542,
            13.305510285829046
          ],
          [
            99.95594467335698,
            13.305508897304865
          ],
          [
            99.95594396433745,
            13.305328072582467
          ],
          [
            99.95612859829556,
            13.305327378129046
          ],
          [
            99.95612718001426,
            13.30496572869599
          ],
          [
            99.95631181368809,
            13.304965034128047
          ],
          [
            99.95631110442632,
            13.304784209417388
          ],
          [
            99.95668037146865,
            13.304782819898868
          ],
          [
            99.95667966194364,
            13.304601995205157
          ],
          [
            99.95686429531214,
            13.304601300254586
          ],
          [
            99.95686358566078,
            13.304420475568051
          ],
          [
            99.95704821888188,
            13.304419780493198
          ],
          [
            99.95704750910414,
            13.30423895581384
          ],
          [
            99.95723214217783,
            13.304238260614715
          ],
          [
            99.95723143227374,
            13.304057435942534
          ],
          [
            99.95741606520004,
            13.304056740619139
          ],
          [
            99.95741535516962,
            13.303875915954142
          ],
          [
            99.95778462071685,
            13.30387452492476
          ],
          [
            99.9577839104232,
            13.303693700276735
          ],
          [
            99.95944560363226,
            13.303687434097116
          ],
          [
            99.95944631515776,
            13.303868258656946
          ],
          [
            99.96000021311488,
            13.303866167488064
          ],
          [
            99.95999950117877,
            13.303685342957658
          ],
          [
            99.96110729598664,
            13.303681157059398
          ],
          [
            99.96110800874398,
            13.303861981530885
          ],
          [
            99.96166190641587,
            13.303859886742593
          ],
          [
            99.9616626195944,
            13.304040711181996
          ],
          [
            99.96203188492986,
            13.304039313966545
          ],
          [
            99.96203259839272,
            13.304220138383673
          ],
          [
            99.96240186395961,
            13.304218740612335
          ],
          [
            99.96240257770681,
            13.304399565007193
          ],
          [
            99.96258721061126,
            13.3043988659106
          ],
          [
            99.96258792450593,
            13.30457969029301
          ],
          [
            99.96277255753667,
            13.30457899105252
          ],
          [
            99.96277327157881,
            13.304759815422488
          ],
          [
            99.96314253788229,
            13.304758416519643
          ],
          [
            99.96314325220878,
            13.304939240867313
          ],
          [
            99.96332788548152,
            13.304938541204953
          ],
          [
            99.96332859995547,
            13.305119365540175
          ],
          [
            99.96369786674293,
            13.305117965793567
          ],
          [
            99.96369858150128,
            13.30529879010648
          ],
          [
            99.963883215016,
            13.305298090022228
          ],
          [
            99.96388392992182,
            13.305478914322688
          ],
          [
            99.96425319719323,
            13.305477513732274
          ],
          [
            99.96425391238344,
            13.305658338010415
          ],
          [
            99.96443854614014,
            13.305657637504247
          ],
          [
            99.96443926147785,
            13.30583846176993
          ],
          [
            99.96462389536083,
            13.30583776111983
          ],
          [
            99.96462532634186,
            13.306199409623657
          ],
          [
            99.96480996048804,
            13.306198708819766
          ],
          [
            99.96481067613136,
            13.30637953305791
          ],
          [
            99.96517994466565,
            13.306378131028167
          ],
          [
            99.9651806605934,
            13.30655895524397
          ],
          [
            99.96536529498152,
            13.306558254018118
          ],
          [
            99.96536815934631,
            13.307281550815823
          ],
          [
            99.96555279427143,
            13.307280849416411
          ],
          [
            99.96555351052609,
            13.307461673599455
          ],
          [
            99.9657381455775,
            13.307460972056088
          ],
          [
            99.96573886197969,
            13.307641796226648
          ],
          [
            99.9659234971574,
            13.307641094539317
          ],
          [
            99.96592421370713,
            13.307821918697405
          ],
          [
            99.96610884901114,
            13.307821216866111
          ],
          [
            99.96611028241628,
            13.308182865154713
          ],
          [
            99.9662949179835,
            13.30818216316957
          ],
          [
            99.96629563483894,
            13.308362987300088
          ],
          [
            99.96648027053244,
            13.308362285170968
          ],
          [
            99.96648313860818,
            13.309085581627459
          ],
          [
            99.96666777483877,
            13.30908487932472
          ],
          [
            99.96666920921429,
            13.309446527517563
          ],
          [
            99.9668538457081,
            13.309445825060955
          ],
          [
            99.96685456304876,
            13.309626649143587
          ],
          [
            99.96703919966887,
            13.309625946542981
          ],
          [
            99.9670399171571,
            13.309806770613118
          ],
          [
            99.96722455390352,
            13.30980606786852
          ],
          [
            99.9672252715393,
            13.309986891926163
          ],
          [
            99.96740990841204,
            13.309986189037561
          ],
          [
            99.96741493311906,
            13.311251957298884
          ],
          [
            99.96759957093978,
            13.311251254206937
          ],
          [
            99.96760172495614,
            13.31179372625016
          ],
          [
            99.96723244848229,
            13.311795132359263
          ],
          [
            99.9672331662351,
            13.311975956388236
          ],
          [
            99.96704852784528,
            13.311976659251473
          ],
          [
            99.96704924547176,
            13.312157483287725
          ],
          [
            99.96686460693432,
            13.312158186026714
          ],
          [
            99.9668667594667,
            13.312700658149481
          ],
          [
            99.96926706496494,
            13.31269151169397
          ],
          [
            99.96926778427763,
            13.312872335601034
          ],
          [
            99.96963706216073,
            13.312870926422065
          ],
          [
            99.96963778175802,
            13.313051750306697
          ],
          [
            99.97019169891361,
            13.313049635502416
          ],
          [
            99.97019241893251,
            13.313230459354696
          ],
          [
            99.97056169725683,
            13.313229048794604
          ],
          [
            99.97056241756036,
            13.313409872624439
          ],
          [
            99.97093169611591,
            13.313408461507901
          ],
          [
            99.97093241670407,
            13.313589285315285
          ],
          [
            99.97167097423495,
            13.313586461432697
          ],
          [
            99.97166953197348,
            13.313224813894761
          ],
          [
            99.97314664433043,
            13.313219159849345
          ],
          [
            99.97314736655164,
            13.313399983540094
          ],
          [
            99.97351664480783,
            13.313398568667358
          ],
          [
            99.9735173673137,
            13.313579392335603
          ],
          [
            99.97370200656272,
            13.313578684688059
          ],
          [
            99.97370272921628,
            13.313759508343736
          ],
          [
            99.97407200795614,
            13.313758092626284
          ],
          [
            99.97407273089439,
            13.313938916259447
          ],
          [
            99.97425737038523,
            13.31393820818953
          ],
          [
            99.97425881656783,
            13.314299855428114
          ],
          [
            99.97444345632192,
            13.314299147204121
          ],
          [
            99.97444417956629,
            13.314479970809545
          ],
          [
            99.9748134593163,
            13.31447855393916
          ],
          [
            99.97481562993566,
            13.315021024679988
          ],
          [
            99.97555419095092,
            13.315018189209667
          ],
          [
            99.97555346685243,
            13.314837365671874
          ],
          [
            99.97684594725695,
            13.314832398503265
          ],
          [
            99.97684667231441,
            13.315013221971201
          ],
          [
            99.97721595260731,
            13.31501180155272
          ],
          [
            99.97721667794949,
            13.315192624998076
          ],
          [
            99.9775859584734,
            13.315191204022943
          ],
          [
            99.97758668410033,
            13.315372027445704
          ],
          [
            99.9779559648552,
            13.315370605913914
          ],
          [
            99.9779566907669,
            13.31555142931408
          ],
          [
            99.97832597175274,
            13.315550007225609
          ],
          [
            99.9783266979492,
            13.315730830603169
          ],
          [
            99.97851133856298,
            13.315730119347675
          ],
          [
            99.9785120649072,
            13.315910942712627
          ],
          [
            99.97869670564722,
            13.315910231312953
          ],
          [
            99.97869743213921,
            13.316091054665291
          ],
          [
            99.97888207300548,
            13.31609034312144
          ],
          [
            99.97888352629579,
            13.316451989798274
          ],
          [
            99.97906816742531,
            13.316451278100232
          ],
          [
            99.97906889422362,
            13.316632101424727
          ],
          [
            99.97925353547939,
            13.316631389582495
          ],
          [
            99.97925426242547,
            13.316812212894375
          ],
          [
            99.97943890380748,
            13.316811500907946
          ],
          [
            99.97943963090137,
            13.316992324207206
          ],
          [
            99.97962427240961,
            13.316991612076578
          ],
          [
            99.97962499965129,
            13.317172435363215
          ],
          [
            99.97980964128578,
            13.31717172308839
          ],
          [
            99.97981036867526,
            13.317352546362399
          ],
          [
            99.97999501043599,
            13.31735183394337
          ],
          [
            99.97999573797325,
            13.317532657204756
          ],
          [
            99.98018037986024,
            13.317531944641516
          ],
          [
            99.98018256294782,
            13.318074414379964
          ],
          [
            99.98055184751159,
            13.318072988790776
          ],
          [
            99.98055767174549,
            13.319519574484817
          ],
          [
            99.9803730283727,
            13.319520287426693
          ],
          [
            99.98037375631344,
            13.319701110636732
          ],
          [
            99.9800044692614,
            13.319702536137886
          ],
          [
            99.98000665232601,
            13.320245005812462
          ],
          [
            99.97982200837266,
            13.320245718391769
          ],
          [
            99.97982273594538,
            13.320426541621426
          ],
          [
            99.97963809184421,
            13.320427254076527
          ],
          [
            99.97964027421581,
            13.320969723779887
          ],
          [
            99.9794556296927,
            13.320970436130809
          ],
          [
            99.9794563570344,
            13.321151259370058
          ],
          [
            99.97927171236343,
            13.32115197159676
          ],
          [
            99.979273166805,
            13.321513618087453
          ],
          [
            99.97908852184914,
            13.321514330199951
          ],
          [
            99.97909070318109,
            13.322056799946445
          ],
          [
            99.97964463925001,
            13.322054663116152
          ],
          [
            99.97964391171737,
            13.321873839899961
          ],
          [
            99.98001320210196,
            13.321872414695271
          ],
          [
            99.98001247430595,
            13.321691591496512
          ],
          [
            99.98056640939076,
            13.321689452712755
          ],
          [
            99.98056568119434,
            13.321508629541448
          ],
          [
            99.9816735502502,
            13.321504348409778
          ],
          [
            99.98167427926907,
            13.32168517152091
          ],
          [
            99.981858924211,
            13.321684457519112
          ],
          [
            99.98185965337771,
            13.321865280617596
          ],
          [
            99.98259823358569,
            13.321862423227893
          ],
          [
            99.98259750387069,
            13.321681600169574
          ],
          [
            99.9827821487586,
            13.321680885496603
          ],
          [
            99.98278141891734,
            13.321500062445716
          ],
          [
            99.98370464250931,
            13.321496487117601
          ],
          [
            99.98370537303592,
            13.321677310118229
          ],
          [
            99.98425930747246,
            13.321675163280391
          ],
          [
            99.98426003842108,
            13.321855986248229
          ],
          [
            99.98462932826547,
            13.321854554331704
          ],
          [
            99.98463005949907,
            13.322035377276807
          ],
          [
            99.98481470454209,
            13.322034661107123
          ],
          [
            99.98481543592361,
            13.322215484039548
          ],
          [
            99.98518472625128,
            13.322214051277326
          ],
          [
            99.9851861895951,
            13.322575697094074
          ],
          [
            99.98537083501684,
            13.322574980491462
          ],
          [
            99.98537156684209,
            13.322755803385844
          ],
          [
            99.98592550345349,
            13.32275365274231
          ],
          [
            99.985926967959,
            13.323115298462792
          ],
          [
            99.98611161374862,
            13.323114581292966
          ],
          [
            99.98611234615474,
            13.32329540413921
          ],
          [
            99.986850929753,
            13.323292534077071
          ],
          [
            99.98685166271834,
            13.323473356880369
          ],
          [
            99.98722095472651,
            13.323471921023609
          ],
          [
            99.98722168797687,
            13.323652743804118
          ],
          [
            99.98740633410176,
            13.323652025664268
          ],
          [
            99.98740706750006,
            13.323832848432067
          ],
          [
            99.98777635999144,
            13.323831411729413
          ],
          [
            99.98777782736903,
            13.3241930572168
          ],
          [
            99.98796247387261,
            13.324192338643892
          ],
          [
            99.98796394156787,
            13.324553984100637
          ],
          [
            99.98814858833478,
            13.324553265373266
          ],
          [
            99.9881493223358,
            13.324734088087624
          ],
          [
            99.98851861611121,
            13.324732650209883
          ],
          [
            99.98851935039731,
            13.32491347290142
          ],
          [
            99.98870399740582,
            13.324912753751045
          ],
          [
            99.98870473183992,
            13.325093576429865
          ],
          [
            99.98888937897463,
            13.325092857135116
          ],
          [
            99.9888901135567,
            13.32527367980122
          ],
          [
            99.98907476081766,
            13.325272960362089
          ],
          [
            99.98907623028867,
            13.325634605666238
          ],
          [
            99.98926087781297,
            13.325633886072614
          ],
          [
            99.98926602226412,
            13.326899644484099
          ],
          [
            99.98908137377998,
            13.32690036414851
          ],
          [
            99.98908357829663,
            13.327442832030313
          ],
          [
            99.98982217381342,
            13.327439952445559
          ],
          [
            99.9898229092226,
            13.327620775027146
          ],
          [
            99.99019220718993,
            13.327619334408764
          ],
          [
            99.99019294288428,
            13.327800156967497
          ],
          [
            99.99222408243375,
            13.327792223852825
          ],
          [
            99.99222481964749,
            13.32797304629748
          ],
          [
            99.99277876697964,
            13.327970879870078
          ],
          [
            99.99277950461573,
            13.328151702281682
          ],
          [
            99.99333345226098,
            13.32814953461513
          ],
          [
            99.99333419031942,
            13.32833035699367
          ],
          [
            99.99370348896925,
            13.328328911190821
          ],
          [
            99.99370422731289,
            13.328509733546433
          ],
          [
            99.99425817561705,
            13.32850756380441
          ],
          [
            99.99425891438307,
            13.328688386126926
          ],
          [
            99.99462821347211,
            13.328686938940388
          ],
          [
            99.99462895252336,
            13.32886776123996
          ],
          [
            99.99518290148627,
            13.32886558942235
          ],
          [
            99.99518364095992,
            13.329046411688795
          ],
          [
            99.9955529404881,
            13.329044963118497
          ],
          [
            99.995553680247,
            13.329225785361983
          ],
          [
            99.99592298000566,
            13.329224336234088
          ],
          [
            99.9959237200498,
            13.329405158454604
          ],
          [
            99.99629302003895,
            13.329403708769096
          ],
          [
            99.99629376036837,
            13.32958453096663
          ],
          [
            99.99647841048365,
            13.32958380591222
          ],
          [
            99.99647915096119,
            13.329764628096957
          ],
          [
            99.99666380120267,
            13.329763902898044
          ],
          [
            99.99666454182835,
            13.32994472506998
          ],
          [
            99.99684919219602,
            13.32994399972656
          ],
          [
            99.99684993296981,
            13.330124821885695
          ],
          [
            99.99721923394657,
            13.330123370775517
          ],
          [
            99.99721997500565,
            13.330304192911651
          ],
          [
            99.99740462561473,
            13.330303467144885
          ],
          [
            99.99740536682195,
            13.330484289268215
          ],
          [
            99.99759001755723,
            13.330483563356928
          ],
          [
            99.9975907589126,
            13.330664385467445
          ],
          [
            99.99777540977408,
            13.330663659411636
          ],
          [
            99.99777615127758,
            13.330844481509343
          ],
          [
            99.99796080226524,
            13.330843755309008
          ],
          [
            99.99796228557953,
            13.331205399476174
          ],
          [
            99.99814693683057,
            13.331204673121105
          ],
          [
            99.99814842046311,
            13.331566317257415
          ],
          [
            99.99833307197751,
            13.331565590747605
          ],
          [
            99.99833455592837,
            13.331927234853053
          ],
          [
            99.99851920770614,
            13.331926508188491
          ],
          [
            99.99851994983523,
            13.332107330227092
          ],
          [
            99.99870460173919,
            13.332106603417984
          ],
          [
            99.9987060863047,
            13.33246824746692
          ],
          [
            99.99889073847206,
            13.332467520503052
          ],
          [
            99.99889445076407,
            13.333371630528614
          ],
          [
            99.99870979791075,
            13.333372357543539
          ],
          [
            99.99871202500624,
            13.333914823558148
          ],
          [
            99.99741945184422,
            13.333919909114975
          ],
          [
            99.99741648624716,
            13.333196620804575
          ],
          [
            99.99667787496544,
            13.333199523718044
          ],
          [
            99.99668083836731,
            13.333922812191526
          ],
          [
            99.99686549175298,
            13.333922086623929
          ],
          [
            99.99686623276808,
            13.33410290872558
          ],
          [
            99.99723553978095,
            13.334101457166916
          ],
          [
            99.99723850504867,
            13.334824745465836
          ],
          [
            99.99797712113809,
            13.334821840572989
          ],
          [
            99.99797934685071,
            13.335364306647351
          ],
          [
            99.99816400125728,
            13.335363580057605
          ],
          [
            99.99816548539503,
            13.335725224073705
          ],
          [
            99.99835014006507,
            13.335724497329174
          ],
          [
            99.99835607815328,
            13.337171073207383
          ],
          [
            99.99854073391019,
            13.337170346246811
          ],
          [
            99.99854518876121,
            13.338255277984437
          ],
          [
            99.99836053218083,
            13.338256005006253
          ],
          [
            99.9983627593429,
            13.338798470870397
          ],
          [
            99.99817810233975,
            13.338799197788422
          ],
          [
            99.99817958689486,
            13.339160841705194
          ],
          [
            99.99799492960622,
            13.339161568509214
          ],
          [
            99.9979978982992,
            13.3398848563522
          ],
          [
            99.9978132404505,
            13.339885583062614
          ],
          [
            99.99781472458834,
            13.340247226988824
          ],
          [
            99.99763006645411,
            13.340247953585214
          ],
          [
            99.99763080840222,
            13.340428775554598
          ],
          [
            99.99652285854272,
            13.340433132371167
          ],
          [
            99.99652359967814,
            13.340613954399098
          ],
          [
            99.99633894119255,
            13.340614680074884
          ],
          [
            99.99633968220165,
            13.340795502110382
          ],
          [
            99.99597036492304,
            13.340796953079028
          ],
          [
            99.9959725871924,
            13.34133941923095
          ],
          [
            99.99523395085623,
            13.341342319677196
          ],
          [
            99.99523469108546,
            13.341523141763322
          ],
          [
            99.99505003183674,
            13.341523866548965
          ],
          [
            99.99505077193962,
            13.341704688642649
          ],
          [
            99.99486611254267,
            13.341705413304021
          ],
          [
            99.9948668525192,
            13.341886235405266
          ],
          [
            99.99394355468377,
            13.341889856746334
          ],
          [
            99.9939457726196,
            13.342432323186868
          ],
          [
            99.99597703202706,
            13.342424351464206
          ],
          [
            99.9959777728712,
            13.342605173493933
          ],
          [
            99.99671641287627,
            13.342602270611474
          ],
          [
            99.99671789569587,
            13.342963914581587
          ],
          [
            99.99690255594432,
            13.342963188504465
          ],
          [
            99.99690478066788,
            13.343505654409453
          ],
          [
            99.9967201200075,
            13.34350638051715
          ],
          [
            99.9967230859099,
            13.344229668394622
          ],
          [
            99.99653842468928,
            13.344230394408614
          ],
          [
            99.99654064881929,
            13.344772860319829
          ],
          [
            99.99672531045188,
            13.344772134275267
          ],
          [
            99.99672753509259,
            13.345314600132378
          ],
          [
            99.99709685914884,
            13.345313147578686
          ],
          [
            99.99710131037446,
            13.346398079099984
          ],
          [
            99.99691664752777,
            13.346398805505231
          ],
          [
            99.99691738929978,
            13.346579627426484
          ],
          [
            99.99673272630478,
            13.346580353707425
          ],
          [
            99.99673425926451,
            13.346954104379693
          ]
        ]
      }
    }
  ]
}
