{
  "type": "FeatureCollection",
  "features": [
    {
      "type": "Feature",
      "properties": {
        "indicator": "WATERLINE",
        "role": "HISTORICAL_AND_RECENT_SCREENING",
        "year": 2024,
        "scene_id": "S2B_MSIL2A_20240215T033839_R061_T47PNQ_20240215T081344",
        "acquisition_datetime_bangkok": "2024-02-15T10:38:39.024000+07:00",
        "tide_level_m_msl": 1.1037,
        "tide_target_m_msl": 1.0879,
        "tide_delta_from_target_m": 0.0158,
        "tide_status": "modelled_secondary_extrema_cosine",
        "tide_source_tier": "secondary_published_extrema",
        "mndwi_threshold": 0.05078,
        "threshold_method": "otsu",
        "source_resolution_m": 20,
        "confidence": "LOW",
        "interpretation": "image-derived waterline selected near the current tide target; screening only, not tide-normalized or surveyed",
        "segment_id": 1,
        "length_m": 5737.68
      },
      "geometry": {
        "type": "LineString",
        "coordinates": [
          [
            99.9841796463136,
            13.347624314866877
          ],
          [
            99.98417927865577,
            13.347533538351612
          ],
          [
            99.98436394307882,
            13.347532821165917
          ],
          [
            99.98436321059226,
            13.347351998569033
          ],
          [
            99.98454787486712,
            13.347351281258897
          ],
          [
            99.98454714225404,
            13.347170458669465
          ],
          [
            99.9847318063807,
            13.34716974123489
          ],
          [
            99.98473034091235,
            13.346808096068314
          ],
          [
            99.98491500475345,
            13.34680737851938
          ],
          [
            99.98491427189818,
            13.346626555942237
          ],
          [
            99.98509893559111,
            13.346625838268876
          ],
          [
            99.98509820260934,
            13.346445015699192
          ],
          [
            99.98528286615405,
            13.346444297901407
          ],
          [
            99.98528139994833,
            13.346082652774335
          ],
          [
            99.98546606320753,
            13.346081934862205
          ],
          [
            99.9854653299836,
            13.345901112304825
          ],
          [
            99.9856499930946,
            13.345900394268282
          ],
          [
            99.98564925974416,
            13.345719571718359
          ],
          [
            99.98583392270699,
            13.34571885355741
          ],
          [
            99.985832455764,
            13.345357208469881
          ],
          [
            99.9860171184413,
            13.345356490194606
          ],
          [
            99.98601638484872,
            13.345175667656997
          ],
          [
            99.98620104737785,
            13.34517494925732
          ],
          [
            99.9862003136588,
            13.344994126727178
          ],
          [
            99.98638497603973,
            13.34499340820311
          ],
          [
            99.98638350835954,
            13.344631763155153
          ],
          [
            99.98656817045496,
            13.344631044516774
          ],
          [
            99.98656743649383,
            13.344450221998958
          ],
          [
            99.98675209844106,
            13.344449503236193
          ],
          [
            99.98675136435345,
            13.344268680725852
          ],
          [
            99.9869360261525,
            13.344267961838705
          ],
          [
            99.98693455773524,
            13.343906316830356
          ],
          [
            99.98711921924878,
            13.343905597828922
          ],
          [
            99.98711848491912,
            13.343724775330918
          ],
          [
            99.9873031462845,
            13.34372405620511
          ],
          [
            99.98730241182838,
            13.343543233714584
          ],
          [
            99.98748707304557,
            13.343542514464406
          ],
          [
            99.98748560389132,
            13.3431808694957
          ],
          [
            99.98767026482301,
            13.343180150131253
          ],
          [
            99.98766953012488,
            13.342999327653077
          ],
          [
            99.9878541909084,
            13.34299860816427
          ],
          [
            99.98785345608381,
            13.342817785693576
          ],
          [
            99.98803811671917,
            13.342817066080414
          ],
          [
            99.98803664682802,
            13.342455421151385
          ],
          [
            99.98822130717787,
            13.342454701423973
          ],
          [
            99.9882205721113,
            13.342273878965642
          ],
          [
            99.98840523231299,
            13.342273159113882
          ],
          [
            99.98840449712,
            13.342092336663038
          ],
          [
            99.98858915717351,
            13.342091616686936
          ],
          [
            99.98858768654556,
            13.34172997179762
          ],
          [
            99.9887723463136,
            13.341729251707289
          ],
          [
            99.98877161087866,
            13.341548429268817
          ],
          [
            99.98895627049852,
            13.341547709054147
          ],
          [
            99.98895553493716,
            13.341366886623174
          ],
          [
            99.98914019440886,
            13.341366166284178
          ],
          [
            99.98913945872108,
            13.3411853438607
          ],
          [
            99.9893241180446,
            13.341184623397378
          ],
          [
            99.98932191063477,
            13.340642156141598
          ],
          [
            99.98895259280056,
            13.34064359687313
          ],
          [
            99.98895112179756,
            13.340281951982426
          ],
          [
            99.9882124870968,
            13.340284831751456
          ],
          [
            99.98821028232119,
            13.339742364274516
          ],
          [
            99.98894891537466,
            13.339739484626763
          ],
          [
            99.98894965083808,
            13.339920307081265
          ],
          [
            99.99024225922352,
            13.339915262451632
          ],
          [
            99.99024299565873,
            13.340096084832698
          ],
          [
            99.99042765409321,
            13.340095363623501
          ],
          [
            99.9904291272709,
            13.340457008357546
          ],
          [
            99.99116776199801,
            13.34045412209547
          ],
          [
            99.99116849915232,
            13.340634944418055
          ],
          [
            99.99135315794413,
            13.340634222506326
          ],
          [
            99.99135389524662,
            13.340815044816162
          ],
          [
            99.99172321307206,
            13.340813600569142
          ],
          [
            99.99172468825893,
            13.341175245140427
          ],
          [
            99.99209400658985,
            13.341173800315111
          ],
          [
            99.99209474447423,
            13.34135462257655
          ],
          [
            99.99227940376059,
            13.341353899952095
          ],
          [
            99.99228087983668,
            13.341715544446838
          ],
          [
            99.99283485845403,
            13.34171337570596
          ],
          [
            99.99283559692033,
            13.34189419791897
          ],
          [
            99.99357423547302,
            13.341891304341656
          ],
          [
            99.99357349645754,
            13.34171048216926
          ],
          [
            99.99375815593109,
            13.341709758448982
          ],
          [
            99.99375667765835,
            13.341348114116666
          ],
          [
            99.99394133684638,
            13.341347390282266
          ],
          [
            99.99394059758912,
            13.341166568122349
          ],
          [
            99.99412525662893,
            13.341165844163674
          ],
          [
            99.99412303851093,
            13.340623377698723
          ],
          [
            99.99430769712797,
            13.340622653636101
          ],
          [
            99.99430621816278,
            13.340261009333394
          ],
          [
            99.9944908764943,
            13.340260285156676
          ],
          [
            99.99448939729832,
            13.339898640863838
          ],
          [
            99.99467405534435,
            13.339897916573031
          ],
          [
            99.9946725759176,
            13.339536272290077
          ],
          [
            99.99485723367815,
            13.339535547885186
          ],
          [
            99.99485501420834,
            13.338993081471656
          ],
          [
            99.99503967154614,
            13.33899235696286
          ],
          [
            99.9950381916798,
            13.338630712694448
          ],
          [
            99.99522284873214,
            13.338629988071585
          ],
          [
            99.99522136863509,
            13.338268343813064
          ],
          [
            99.99540602540196,
            13.338267619076143
          ],
          [
            99.99540454507422,
            13.337905974827517
          ],
          [
            99.99558920155563,
            13.337905249976545
          ],
          [
            99.9955877209972,
            13.337543605737817
          ],
          [
            99.99577237719316,
            13.3375428807728
          ],
          [
            99.99577089640407,
            13.337181236543978
          ],
          [
            99.99595555231458,
            13.337180511464926
          ],
          [
            99.99595407129483,
            13.336818867246008
          ],
          [
            99.99613872691992,
            13.336818142052927
          ],
          [
            99.99613724566953,
            13.336456497843923
          ],
          [
            99.99632190100918,
            13.33645577253682
          ],
          [
            99.99632041952817,
            13.336094128337727
          ],
          [
            99.9965050745824,
            13.33609340291661
          ],
          [
            99.99650359287081,
            13.335731758727437
          ],
          [
            99.9970575571443,
            13.33572958171894
          ],
          [
            99.99705681589327,
            13.335548759651001
          ],
          [
            99.99724147049194,
            13.335548033722938
          ],
          [
            99.99724072911467,
            13.335367211662582
          ],
          [
            99.99797934685071,
            13.335364306647351
          ],
          [
            99.99798083071403,
            13.335725950683859
          ],
          [
            99.99835014006507,
            13.335724497329174
          ],
          [
            99.9983627593429,
            13.338798470870397
          ],
          [
            99.99817810233975,
            13.338799197788422
          ],
          [
            99.99818032918891,
            13.339341663659656
          ],
          [
            99.997995671763,
            13.339342390473883
          ],
          [
            99.9979978982992,
            13.3398848563522
          ],
          [
            99.9978132404505,
            13.339885583062614
          ],
          [
            99.99781472458834,
            13.340247226988824
          ],
          [
            99.99763006645411,
            13.340247953585214
          ],
          [
            99.99763080840222,
            13.340428775554598
          ],
          [
            99.99652285854272,
            13.340433132371167
          ],
          [
            99.99652359967814,
            13.340613954399098
          ],
          [
            99.99633894119255,
            13.340614680074884
          ],
          [
            99.99633968220165,
            13.340795502110382
          ],
          [
            99.99597036492304,
            13.340796953079028
          ],
          [
            99.9959725871924,
            13.34133941923095
          ],
          [
            99.99523395085623,
            13.341342319677196
          ],
          [
            99.99523469108546,
            13.341523141763322
          ],
          [
            99.99505003183674,
            13.341523866548965
          ],
          [
            99.99505077193962,
            13.341704688642649
          ],
          [
            99.99486611254267,
            13.341705413304021
          ],
          [
            99.9948668525192,
            13.341886235405266
          ],
          [
            99.99449753341786,
            13.341887684345025
          ],
          [
            99.99449975258935,
            13.342430150694078
          ],
          [
            99.99560771223335,
            13.34242580207837
          ],
          [
            99.99560845280288,
            13.342606624128457
          ],
          [
            99.99653175289146,
            13.342602996533765
          ],
          [
            99.99653249415846,
            13.342783818530316
          ],
          [
            99.99671715428057,
            13.342783092597838
          ],
          [
            99.99671789569587,
            13.342963914581587
          ],
          [
            99.99690255594432,
            13.342963188504465
          ],
          [
            99.99690478066788,
            13.343505654409453
          ],
          [
            99.9967201200075,
            13.34350638051715
          ],
          [
            99.99672086146664,
            13.34368720249044
          ],
          [
            99.99653620065797,
            13.343687928473866
          ],
          [
            99.99654064881929,
            13.344772860319829
          ],
          [
            99.99672531045188,
            13.344772134275267
          ],
          [
            99.99672753509259,
            13.345314600132378
          ],
          [
            99.99691219712619,
            13.345313873922771
          ],
          [
            99.99691293883237,
            13.34549469585972
          ],
          [
            99.99709760099235,
            13.34549396950544
          ],
          [
            99.99710131037446,
            13.346398079099984
          ],
          [
            99.99691664752777,
            13.346398805505231
          ],
          [
            99.99691738929978,
            13.346579627426484
          ],
          [
            99.99673272630478,
            13.346580353707425
          ],
          [
            99.9967334679504,
            13.34676117563626
          ],
          [
            99.99654880480709,
            13.3467619017929
          ],
          [
            99.99654982970978,
            13.347011827022031
          ]
        ]
      }
    },
    {
      "type": "Feature",
      "properties": {
        "indicator": "WATERLINE",
        "role": "HISTORICAL_AND_RECENT_SCREENING",
        "year": 2024,
        "scene_id": "S2B_MSIL2A_20240215T033839_R061_T47PNQ_20240215T081344",
        "acquisition_datetime_bangkok": "2024-02-15T10:38:39.024000+07:00",
        "tide_level_m_msl": 1.1037,
        "tide_target_m_msl": 1.0879,
        "tide_delta_from_target_m": 0.0158,
        "tide_status": "modelled_secondary_extrema_cosine",
        "tide_source_tier": "secondary_published_extrema",
        "mndwi_threshold": 0.05078,
        "threshold_method": "otsu",
        "source_resolution_m": 20,
        "confidence": "LOW",
        "interpretation": "image-derived waterline selected near the current tide target; screening only, not tide-normalized or surveyed",
        "segment_id": 2,
        "length_m": 26205.93
      },
      "geometry": {
        "type": "LineString",
        "coordinates": [
          [
            99.95050319900078,
            13.283174852023588
          ],
          [
            99.9505057487125,
            13.28382995923216
          ],
          [
            99.95087498467501,
            13.283828580280161
          ],
          [
            99.95087568875412,
            13.284009405575413
          ],
          [
            99.95106030685635,
            13.284008715888925
          ],
          [
            99.95106101108257,
            13.28418954117185
          ],
          [
            99.95124562931099,
            13.284188851341796
          ],
          [
            99.95124633368432,
            13.284369676612403
          ],
          [
            99.9518001887168,
            13.284367606289969
          ],
          [
            99.95180089351057,
            13.284548431528798
          ],
          [
            99.95198551197045,
            13.28454774114389
          ],
          [
            99.95199538209539,
            13.287079294078163
          ],
          [
            99.95273386348387,
            13.287076530654879
          ],
          [
            99.95273456911805,
            13.287257355806023
          ],
          [
            99.95310381002282,
            13.287255973271629
          ],
          [
            99.95310522186936,
            13.287617623527153
          ],
          [
            99.95328984257941,
            13.287616932039649
          ],
          [
            99.9532919608379,
            13.288159407374197
          ],
          [
            99.95347658194756,
            13.288158715723574
          ],
          [
            99.95347799444569,
            13.288520365914106
          ],
          [
            99.95366261581825,
            13.288519674110104
          ],
          [
            99.9536647350542,
            13.289062149347146
          ],
          [
            99.9538493568264,
            13.28906145738
          ],
          [
            99.95385076997621,
            13.289423107505526
          ],
          [
            99.95403539201135,
            13.289422415384982
          ],
          [
            99.95403609873868,
            13.289603240434088
          ],
          [
            99.95458996519127,
            13.289601163239778
          ],
          [
            99.9545927938462,
            13.290324463293134
          ],
          [
            99.95477741652294,
            13.290323770588188
          ],
          [
            99.95477953853452,
            13.290866245571609
          ],
          [
            99.95496416161095,
            13.290865552703469
          ],
          [
            99.95496557661129,
            13.291227202659885
          ],
          [
            99.95515019995067,
            13.291226509638303
          ],
          [
            99.9551530306243,
            13.291949809480862
          ],
          [
            99.95533765450011,
            13.291949116286304
          ],
          [
            99.95533836233153,
            13.292129941230671
          ],
          [
            99.95570761032513,
            13.29212855442023
          ],
          [
            99.95570831844054,
            13.292309379342466
          ],
          [
            99.9560775666656,
            13.292307991976761
          ],
          [
            99.956078275065,
            13.292488816876853
          ],
          [
            99.95626289929851,
            13.292488122983327
          ],
          [
            99.95626927659696,
            13.29411554687904
          ],
          [
            99.95590002565784,
            13.294116934708063
          ],
          [
            99.95590073402559,
            13.294297759591894
          ],
          [
            99.95571610840351,
            13.29429845331525
          ],
          [
            99.95571681664501,
            13.29447927820625
          ],
          [
            99.95553219087564,
            13.29447997180542
          ],
          [
            99.95553643972472,
            13.295564921155371
          ],
          [
            99.9553518131242,
            13.295565614679184
          ],
          [
            99.95535322921772,
            13.29592726446121
          ],
          [
            99.95516860233312,
            13.295927957870584
          ],
          [
            99.95516931025885,
            13.296108782767458
          ],
          [
            99.95498468322697,
            13.296109476052624
          ],
          [
            99.95498680665682,
            13.296651950756914
          ],
          [
            99.95461755174078,
            13.296653336983889
          ],
          [
            99.95461825929814,
            13.296834161899632
          ],
          [
            99.95424900406655,
            13.29683554761021
          ],
          [
            99.95425112598085,
            13.297378022400357
          ],
          [
            99.9544357540123,
            13.297377329582792
          ],
          [
            99.95444282911015,
            13.299185578616498
          ],
          [
            99.95481208787778,
            13.29918419238425
          ],
          [
            99.95481279571894,
            13.299365017253786
          ],
          [
            99.95499742522384,
            13.299364323926893
          ],
          [
            99.95499884121129,
            13.29972597363863
          ],
          [
            99.95518347097934,
            13.299725280158206
          ],
          [
            99.95518488728247,
            13.300086929840003
          ],
          [
            99.95536951731367,
            13.300086236206038
          ],
          [
            99.95537376729621,
            13.301171185130347
          ],
          [
            99.95518913644399,
            13.301171878822897
          ],
          [
            99.95519409427706,
            13.302437652517789
          ],
          [
            99.95537872608723,
            13.302436958756878
          ],
          [
            99.95538155991325,
            13.303160257914753
          ],
          [
            99.95519692755563,
            13.30316095171472
          ],
          [
            99.95519976100229,
            13.303884250869977
          ],
          [
            99.95501512808667,
            13.303884944574953
          ],
          [
            99.95501583633774,
            13.304065769367021
          ],
          [
            99.95427730402278,
            13.304068542885421
          ],
          [
            99.95428013494194,
            13.30479184218378
          ],
          [
            99.95409550128943,
            13.304792535267257
          ],
          [
            99.95409620890857,
            13.304973360095087
          ],
          [
            99.95391157510869,
            13.30497405305425
          ],
          [
            99.95391228260144,
            13.305154877889233
          ],
          [
            99.95372764865418,
            13.305155570724084
          ],
          [
            99.95372906339735,
            13.30551722040573
          ],
          [
            99.95335979492381,
            13.305518605712221
          ],
          [
            99.95336050203734,
            13.30569943056863
          ],
          [
            99.95317586764794,
            13.305700123030517
          ],
          [
            99.95317728163268,
            13.306061772755012
          ],
          [
            99.952992646959,
            13.306062465102311
          ],
          [
            99.9529933538302,
            13.306243289970393
          ],
          [
            99.95280871900914,
            13.306243982193354
          ],
          [
            99.95280942575391,
            13.306424807068577
          ],
          [
            99.95244015580657,
            13.306426191131743
          ],
          [
            99.952440862288,
            13.306607016023833
          ],
          [
            99.95225622716171,
            13.306607707864028
          ],
          [
            99.95225834625816,
            13.307150182553878
          ],
          [
            99.95207371071068,
            13.307150874289192
          ],
          [
            99.9520744169602,
            13.30733169919033
          ],
          [
            99.95188978126531,
            13.307332390801289
          ],
          [
            99.95189119352193,
            13.307694040615214
          ],
          [
            99.95170655754276,
            13.307694732111544
          ],
          [
            99.95170796956742,
            13.308056381934511
          ],
          [
            99.95152333330394,
            13.308057073316203
          ],
          [
            99.95152474509662,
            13.3084187231482
          ],
          [
            99.95134010854882,
            13.308419414415246
          ],
          [
            99.95134152010951,
            13.308781064256282
          ],
          [
            99.95115688327739,
            13.30878175540867
          ],
          [
            99.9511575889365,
            13.308962580335002
          ],
          [
            99.95078831496703,
            13.308963962256916
          ],
          [
            99.95078902036273,
            13.309144787200086
          ],
          [
            99.95060438322538,
            13.309145477969599
          ],
          [
            99.95060649906442,
            13.309687952812633
          ],
          [
            99.95116041167755,
            13.30968588001428
          ],
          [
            99.9511597059766,
            13.309505055098372
          ],
          [
            99.95134434335645,
            13.309504363907083
          ],
          [
            99.95134363752902,
            13.309323538998287
          ],
          [
            99.95189754919498,
            13.309321464648932
          ],
          [
            99.9518968429672,
            13.309140639766719
          ],
          [
            99.95208148003132,
            13.309139948058444
          ],
          [
            99.95208006733331,
            13.308778298305663
          ],
          [
            99.9522647041131,
            13.30877760648275
          ],
          [
            99.95226399764287,
            13.30859678161218
          ],
          [
            99.95244863427524,
            13.308596089664892
          ],
          [
            99.95244792767858,
            13.308415264801457
          ],
          [
            99.95263256416355,
            13.308414572729806
          ],
          [
            99.95263185744044,
            13.308233747873505
          ],
          [
            99.952816493778,
            13.308233055677492
          ],
          [
            99.95281578692844,
            13.308052230828324
          ],
          [
            99.9530004231186,
            13.308051538507954
          ],
          [
            99.9529997161426,
            13.307870713665919
          ],
          [
            99.95318435218536,
            13.307870021221197
          ],
          [
            99.95318364508292,
            13.307689196386296
          ],
          [
            99.95336828097828,
            13.307688503817221
          ],
          [
            99.9533675737494,
            13.307507678989467
          ],
          [
            99.95373684523484,
            13.30750629346853
          ],
          [
            99.95373613774262,
            13.307325468657663
          ],
          [
            99.9539207733327,
            13.307324775705808
          ],
          [
            99.95392006571406,
            13.30714395090209
          ],
          [
            99.95410470115672,
            13.307143257825897
          ],
          [
            99.95410399341166,
            13.306962433029323
          ],
          [
            99.95428862870692,
            13.306961739828798
          ],
          [
            99.95428792083544,
            13.306780915039376
          ],
          [
            99.95447255598332,
            13.30678022171452
          ],
          [
            99.95447184798543,
            13.306599396932244
          ],
          [
            99.95465648298588,
            13.306598703483065
          ],
          [
            99.95465577486159,
            13.306417878707943
          ],
          [
            99.95484040971465,
            13.306417185134443
          ],
          [
            99.95483970146395,
            13.306236360366476
          ],
          [
            99.9550243361696,
            13.306235666668655
          ],
          [
            99.9550236277925,
            13.306054841907844
          ],
          [
            99.95520826235077,
            13.30605414808571
          ],
          [
            99.95520755384727,
            13.305873323332058
          ],
          [
            99.95539218825812,
            13.305872629385613
          ],
          [
            99.95539147962825,
            13.305691804639121
          ],
          [
            99.95557611389168,
            13.30569111056837
          ],
          [
            99.95557540513542,
            13.305510285829046
          ],
          [
            99.95594467335698,
            13.305508897304865
          ],
          [
            99.95594396433745,
            13.305328072582467
          ],
          [
            99.95612859829556,
            13.305327378129046
          ],
          [
            99.95612718001426,
            13.30496572869599
          ],
          [
            99.95631181368809,
            13.304965034128047
          ],
          [
            99.95631110442632,
            13.304784209417388
          ],
          [
            99.95649573795275,
            13.304783514725159
          ],
          [
            99.95649502856462,
            13.304602690021671
          ],
          [
            99.95686429531214,
            13.304601300254586
          ],
          [
            99.95686358566078,
            13.304420475568051
          ],
          [
            99.95704821888188,
            13.304419780493198
          ],
          [
            99.95704750910414,
            13.30423895581384
          ],
          [
            99.95723214217783,
            13.304238260614715
          ],
          [
            99.95723143227374,
            13.304057435942534
          ],
          [
            99.95741606520004,
            13.304056740619139
          ],
          [
            99.95741535516962,
            13.303875915954142
          ],
          [
            99.9575999879485,
            13.30387522050648
          ],
          [
            99.95759927779173,
            13.303694395848664
          ],
          [
            99.95999950117877,
            13.303685342957658
          ],
          [
            99.95999807733821,
            13.303323693889045
          ],
          [
            99.96110587050366,
            13.303319508108608
          ],
          [
            99.96110658323985,
            13.303500332585305
          ],
          [
            99.96147584781754,
            13.303498936233135
          ],
          [
            99.96147656083805,
            13.303679760687576
          ],
          [
            99.96184582564717,
            13.303678363779554
          ],
          [
            99.961846538952,
            13.303859188211728
          ],
          [
            99.96203117147758,
            13.303858489546805
          ],
          [
            99.96203188492986,
            13.304039313966545
          ],
          [
            99.96221651758171,
            13.304038615157737
          ],
          [
            99.96221723118146,
            13.304219439565035
          ],
          [
            99.96277112948417,
            13.304217342304776
          ],
          [
            99.96277184350512,
            13.30439816667995
          ],
          [
            99.96295647638838,
            13.304397467315246
          ],
          [
            99.96295790473584,
            13.304759116038095
          ],
          [
            99.96332717101814,
            13.304757716867128
          ],
          [
            99.96332788548152,
            13.304938541204953
          ],
          [
            99.96351251874364,
            13.304937841408528
          ],
          [
            99.96351323335452,
            13.305118665733904
          ],
          [
            99.96388250012077,
            13.305117265719167
          ],
          [
            99.96388392992182,
            13.305478914322688
          ],
          [
            99.96425319719323,
            13.305477513732274
          ],
          [
            99.96425391238344,
            13.305658338010415
          ],
          [
            99.96443854614014,
            13.305657637504247
          ],
          [
            99.96443926147785,
            13.30583846176993
          ],
          [
            99.96462389536083,
            13.30583776111983
          ],
          [
            99.96462461084604,
            13.306018585373046
          ],
          [
            99.9648092448553,
            13.306017884579015
          ],
          [
            99.96480996048804,
            13.306198708819766
          ],
          [
            99.96499459462358,
            13.306198007881795
          ],
          [
            99.96499531040381,
            13.306378832110076
          ],
          [
            99.96517994466565,
            13.306378131028167
          ],
          [
            99.9651806605934,
            13.30655895524397
          ],
          [
            99.96536529498152,
            13.306558254018118
          ],
          [
            99.96536672714268,
            13.306919902422182
          ],
          [
            99.965551361794,
            13.30691920104251
          ],
          [
            99.96555279427143,
            13.307280849416411
          ],
          [
            99.96573742918595,
            13.307280147882912
          ],
          [
            99.9657381455775,
            13.307460972056088
          ],
          [
            99.9659227806183,
            13.307460270378627
          ],
          [
            99.9659234971574,
            13.307641094539317
          ],
          [
            99.9661081323245,
            13.307640392717895
          ],
          [
            99.96610956570841,
            13.308002041011715
          ],
          [
            99.96629420113871,
            13.30800133903645
          ],
          [
            99.96629563483894,
            13.308362987300088
          ],
          [
            99.96648027053244,
            13.308362285170968
          ],
          [
            99.96648170454907,
            13.308723933404426
          ],
          [
            99.9666663405058,
            13.308723231121448
          ],
          [
            99.96666849202121,
            13.309265703422444
          ],
          [
            99.9668531283781,
            13.309265000975715
          ],
          [
            99.96685456304876,
            13.309626649143587
          ],
          [
            99.96703919966887,
            13.309625946542981
          ],
          [
            99.9670399171571,
            13.309806770613118
          ],
          [
            99.96722455390352,
            13.30980606786852
          ],
          [
            99.96722598918574,
            13.310167715981205
          ],
          [
            99.96741062619539,
            13.310167013082713
          ],
          [
            99.96741493311906,
            13.311251957298884
          ],
          [
            99.96759957093978,
            13.311251254206937
          ],
          [
            99.96760172495614,
            13.31179372625016
          ],
          [
            99.96723244848229,
            13.311795132359263
          ],
          [
            99.9672331662351,
            13.311975956388236
          ],
          [
            99.96704852784528,
            13.311976659251473
          ],
          [
            99.96704924547176,
            13.312157483287725
          ],
          [
            99.96686460693432,
            13.312158186026714
          ],
          [
            99.96686532443448,
            13.312339010070243
          ],
          [
            99.96668068574942,
            13.312339712684976
          ],
          [
            99.9666828379028,
            13.312882184829572
          ],
          [
            99.96723675515874,
            13.312880076493995
          ],
          [
            99.96723603735275,
            13.312699252478055
          ],
          [
            99.96926706496494,
            13.31269151169397
          ],
          [
            99.96926778427763,
            13.312872335601034
          ],
          [
            99.96963706216073,
            13.312870926422065
          ],
          [
            99.96963778175802,
            13.313051750306697
          ],
          [
            99.97019169891361,
            13.313049635502416
          ],
          [
            99.97019241893251,
            13.313230459354696
          ],
          [
            99.97056169725683,
            13.313229048794604
          ],
          [
            99.97056241756036,
            13.313409872624439
          ],
          [
            99.97167025309888,
            13.313405637665031
          ],
          [
            99.97166953197348,
            13.313224813894761
          ],
          [
            99.97185417105553,
            13.313224107608603
          ],
          [
            99.97185344980385,
            13.313043283845657
          ],
          [
            99.9727766443688,
            13.313039750452337
          ],
          [
            99.97277736630538,
            13.31322057416559
          ],
          [
            99.9733312833269,
            13.313218452490004
          ],
          [
            99.97333200568508,
            13.313399276170802
          ],
          [
            99.97351664480783,
            13.313398568667358
          ],
          [
            99.9735173673137,
            13.313579392335603
          ],
          [
            99.97388664580102,
            13.313577976906362
          ],
          [
            99.97388736859158,
            13.313758800552085
          ],
          [
            99.97425664731,
            13.313757384566328
          ],
          [
            99.97425737038523,
            13.31393820818953
          ],
          [
            99.97444200986536,
            13.31393749998546
          ],
          [
            99.97444345632192,
            13.314299147204121
          ],
          [
            99.97481273579795,
            13.314297730353665
          ],
          [
            99.97481562993566,
            13.315021024679988
          ],
          [
            99.9753695507132,
            13.315018898278495
          ],
          [
            99.9753688267517,
            13.314838074730732
          ],
          [
            99.97684594725695,
            13.314832398503265
          ],
          [
            99.97684667231441,
            13.315013221971201
          ],
          [
            99.97721595260731,
            13.31501180155272
          ],
          [
            99.97721667794949,
            13.315192624998076
          ],
          [
            99.9775859584734,
            13.315191204022943
          ],
          [
            99.97758668410033,
            13.315372027445704
          ],
          [
            99.97814060521651,
            13.315369894946764
          ],
          [
            99.97814133126519,
            13.315550718336931
          ],
          [
            99.97832597175274,
            13.315550007225609
          ],
          [
            99.9783266979492,
            13.315730830603169
          ],
          [
            99.97851133856298,
            13.315730119347675
          ],
          [
            99.9785120649072,
            13.315910942712627
          ],
          [
            99.9788813463765,
            13.31590951977911
          ],
          [
            99.97888279964526,
            13.316271166461162
          ],
          [
            99.97906744063776,
            13.316270454773125
          ],
          [
            99.97906889422362,
            13.316632101424727
          ],
          [
            99.97925353547939,
            13.316631389582495
          ],
          [
            99.97925426242547,
            13.316812212894375
          ],
          [
            99.97943890380748,
            13.316811500907946
          ],
          [
            99.97943963090137,
            13.316992324207206
          ],
          [
            99.97962427240961,
            13.316991612076578
          ],
          [
            99.97962499965129,
            13.317172435363215
          ],
          [
            99.97980964128578,
            13.31717172308839
          ],
          [
            99.97981036867526,
            13.317352546362399
          ],
          [
            99.97999501043599,
            13.31735183394337
          ],
          [
            99.97999573797325,
            13.317532657204756
          ],
          [
            99.98018037986024,
            13.317531944641516
          ],
          [
            99.98018256294782,
            13.318074414379964
          ],
          [
            99.98055184751159,
            13.318072988790776
          ],
          [
            99.98055767174549,
            13.319519574484817
          ],
          [
            99.9803730283727,
            13.319520287426693
          ],
          [
            99.98037375631344,
            13.319701110636732
          ],
          [
            99.98018911279281,
            13.319701823454416
          ],
          [
            99.98018984060728,
            13.319882646671866
          ],
          [
            99.98000519693883,
            13.319883359365356
          ],
          [
            99.98000592462702,
            13.320064182590212
          ],
          [
            99.97982128081075,
            13.320064895159502
          ],
          [
            99.97982273594538,
            13.320426541621426
          ],
          [
            99.97963809184421,
            13.320427254076527
          ],
          [
            99.97963954674783,
            13.320788900548045
          ],
          [
            99.97945490236178,
            13.320789612888952
          ],
          [
            99.9794563570344,
            13.321151259370058
          ],
          [
            99.97927171236343,
            13.32115197159676
          ],
          [
            99.979273166805,
            13.321513618087453
          ],
          [
            99.97908852184914,
            13.321514330199951
          ],
          [
            99.97909070318109,
            13.322056799946445
          ],
          [
            99.97964463925001,
            13.322054663116152
          ],
          [
            99.97964391171737,
            13.321873839899961
          ],
          [
            99.98001320210196,
            13.321872414695271
          ],
          [
            99.98001247430595,
            13.321691591496512
          ],
          [
            99.98075105439746,
            13.321688739516372
          ],
          [
            99.98075032606395,
            13.321507916355088
          ],
          [
            99.9816735502502,
            13.321504348409778
          ],
          [
            99.98167427926907,
            13.32168517152091
          ],
          [
            99.981858924211,
            13.321684457519112
          ],
          [
            99.98185965337771,
            13.321865280617596
          ],
          [
            99.9824135885499,
            13.321863137776674
          ],
          [
            99.98241212940486,
            13.321501491637337
          ],
          [
            99.98388928719525,
            13.321495771649277
          ],
          [
            99.98389001785891,
            13.321676594639849
          ],
          [
            99.98444395226299,
            13.321674447399309
          ],
          [
            99.9844446833487,
            13.321855270357084
          ],
          [
            99.98462932826547,
            13.321854554331704
          ],
          [
            99.98463005949907,
            13.322035377276807
          ],
          [
            99.98481470454209,
            13.322034661107123
          ],
          [
            99.98481543592361,
            13.322215484039548
          ],
          [
            99.98500008109285,
            13.322214767725557
          ],
          [
            99.98500081262227,
            13.322395590645305
          ],
          [
            99.98518545791777,
            13.322394874187006
          ],
          [
            99.9851861895951,
            13.322575697094074
          ],
          [
            99.98537083501684,
            13.322574980491462
          ],
          [
            99.98537156684209,
            13.322755803385844
          ],
          [
            99.98592550345349,
            13.32275365274231
          ],
          [
            99.985926967959,
            13.323115298462792
          ],
          [
            99.98611161374862,
            13.323114581292966
          ],
          [
            99.98611234615474,
            13.32329540413921
          ],
          [
            99.986850929753,
            13.323292534077071
          ],
          [
            99.98685166271834,
            13.323473356880369
          ],
          [
            99.98722095472651,
            13.323471921023609
          ],
          [
            99.98722168797687,
            13.323652743804118
          ],
          [
            99.98740633410176,
            13.323652025664268
          ],
          [
            99.98740706750006,
            13.323832848432067
          ],
          [
            99.98777635999144,
            13.323831411729413
          ],
          [
            99.98777782736903,
            13.3241930572168
          ],
          [
            99.98796247387261,
            13.324192338643892
          ],
          [
            99.98796394156787,
            13.324553984100637
          ],
          [
            99.98814858833478,
            13.324553265373266
          ],
          [
            99.9881493223358,
            13.324734088087624
          ],
          [
            99.98851861611121,
            13.324732650209883
          ],
          [
            99.98851935039731,
            13.32491347290142
          ],
          [
            99.98870399740582,
            13.324912753751045
          ],
          [
            99.98870473183992,
            13.325093576429865
          ],
          [
            99.98888937897463,
            13.325092857135116
          ],
          [
            99.9888901135567,
            13.32527367980122
          ],
          [
            99.98907476081766,
            13.325272960362089
          ],
          [
            99.98907623028867,
            13.325634605666238
          ],
          [
            99.98926087781297,
            13.325633886072614
          ],
          [
            99.98926602226412,
            13.326899644484099
          ],
          [
            99.98908137377998,
            13.32690036414851
          ],
          [
            99.98908357829663,
            13.327442832030313
          ],
          [
            99.98982217381342,
            13.327439952445559
          ],
          [
            99.9898229092226,
            13.327620775027146
          ],
          [
            99.99000755821172,
            13.327620054785102
          ],
          [
            99.99000829376891,
            13.327800877353956
          ],
          [
            99.99019294288428,
            13.327800156967497
          ],
          [
            99.9901936785895,
            13.327980979523616
          ],
          [
            99.99074762628162,
            13.327978817528077
          ],
          [
            99.99074689016497,
            13.327797995002333
          ],
          [
            99.99203943343834,
            13.327792945716553
          ],
          [
            99.99204017051494,
            13.327973768171352
          ],
          [
            99.99277876697964,
            13.327970879870078
          ],
          [
            99.99277950461573,
            13.328151702281682
          ],
          [
            99.99333345226098,
            13.32814953461513
          ],
          [
            99.99333419031942,
            13.32833035699367
          ],
          [
            99.9935188396498,
            13.328329634159397
          ],
          [
            99.9935195778563,
            13.328510456525166
          ],
          [
            99.99425817561705,
            13.32850756380441
          ],
          [
            99.99425891438307,
            13.328688386126926
          ],
          [
            99.99462821347211,
            13.328686938940388
          ],
          [
            99.99462895252336,
            13.32886776123996
          ],
          [
            99.99518290148627,
            13.32886558942235
          ],
          [
            99.99518364095992,
            13.329046411688795
          ],
          [
            99.9955529404881,
            13.329044963118497
          ],
          [
            99.995553680247,
            13.329225785361983
          ],
          [
            99.99592298000566,
            13.329224336234088
          ],
          [
            99.9959237200498,
            13.329405158454604
          ],
          [
            99.99610837004985,
            13.329404433679006
          ],
          [
            99.99610911024213,
            13.329585255886721
          ],
          [
            99.99647841048365,
            13.32958380591222
          ],
          [
            99.99647915096119,
            13.329764628096957
          ],
          [
            99.99666380120267,
            13.329763902898044
          ],
          [
            99.99666454182835,
            13.32994472506998
          ],
          [
            99.99684919219602,
            13.32994399972656
          ],
          [
            99.99684993296981,
            13.330124821885695
          ],
          [
            99.99721923394657,
            13.330123370775517
          ],
          [
            99.99721997500565,
            13.330304192911651
          ],
          [
            99.99740462561473,
            13.330303467144885
          ],
          [
            99.99740536682195,
            13.330484289268215
          ],
          [
            99.99759001755723,
            13.330483563356928
          ],
          [
            99.9975907589126,
            13.330664385467445
          ],
          [
            99.99777540977408,
            13.330663659411636
          ],
          [
            99.99777689279206,
            13.331025303604434
          ],
          [
            99.99796154391689,
            13.331024577393897
          ],
          [
            99.99796302725315,
            13.33138622155584
          ],
          [
            99.99814767864135,
            13.331385495190569
          ],
          [
            99.99814842046311,
            13.331566317257415
          ],
          [
            99.99833307197751,
            13.331565590747605
          ],
          [
            99.99833455592837,
            13.331927234853053
          ],
          [
            99.99851920770614,
            13.331926508188491
          ],
          [
            99.99851994983523,
            13.332107330227092
          ],
          [
            99.99870460173919,
            13.332106603417984
          ],
          [
            99.9987060863047,
            13.33246824746692
          ],
          [
            99.99889073847206,
            13.332467520503052
          ],
          [
            99.99889445076407,
            13.333371630528614
          ],
          [
            99.99852514504644,
            13.33337308442411
          ],
          [
            99.99852737173033,
            13.333915550469346
          ],
          [
            99.99760410518603,
            13.333919183009938
          ],
          [
            99.99760188056015,
            13.333376716811651
          ],
          [
            99.99741722762997,
            13.333377442886094
          ],
          [
            99.99741648624716,
            13.333196620804575
          ],
          [
            99.99667787496544,
            13.333199523718044
          ],
          [
            99.99667861579947,
            13.333380345840334
          ],
          [
            99.99649396281441,
            13.333381071243005
          ],
          [
            99.99649544424095,
            13.333742715500128
          ],
          [
            99.99631079097053,
            13.333743440788815
          ],
          [
            99.99631153156304,
            13.333924262923643
          ],
          [
            99.99557291782297,
            13.333927162775549
          ],
          [
            99.99557069772476,
            13.333384696241051
          ],
          [
            99.99575535076461,
            13.333383971510154
          ],
          [
            99.99575387047952,
            13.333022327161109
          ],
          [
            99.99593852323402,
            13.333021602316217
          ],
          [
            99.9959377829707,
            13.332840780147954
          ],
          [
            99.99612243557705,
            13.332840055178893
          ],
          [
            99.99612169518751,
            13.332659233018205
          ],
          [
            99.9963063476457,
            13.332658507924977
          ],
          [
            99.99630560712993,
            13.332477685771861
          ],
          [
            99.99649025943997,
            13.332476960554475
          ],
          [
            99.99648951879797,
            13.332296138408928
          ],
          [
            99.99685882311078,
            13.332294687591498
          ],
          [
            99.99685660042748,
            13.33175222120032
          ],
          [
            99.99648729693776,
            13.331753671956617
          ],
          [
            99.99648581575244,
            13.331392027642012
          ],
          [
            99.9955625582081,
            13.331395652080019
          ],
          [
            99.99556033856996,
            13.33085318543578
          ],
          [
            99.99519103629858,
            13.330854634209588
          ],
          [
            99.99518881758202,
            13.330312167480782
          ],
          [
            99.9944502145539,
            13.330315063294417
          ],
          [
            99.99445169258999,
            13.330676707864267
          ],
          [
            99.99334378607361,
            13.330681047676965
          ],
          [
            99.9933430478731,
            13.330500225332383
          ],
          [
            99.99186583966998,
            13.330506004145827
          ],
          [
            99.99186510257773,
            13.330325181717454
          ],
          [
            99.99094184778188,
            13.330328789059607
          ],
          [
            99.99093963862803,
            13.329786321606791
          ],
          [
            99.99038568685414,
            13.329788484309054
          ],
          [
            99.99038936677428,
            13.330692596869266
          ],
          [
            99.98983541284485,
            13.330694758514493
          ],
          [
            99.98983320609457,
            13.330152290895104
          ],
          [
            99.98964855517448,
            13.330153011144503
          ],
          [
            99.98964781975,
            13.329972188589363
          ],
          [
            99.98946316895618,
            13.329972908694325
          ],
          [
            99.98946243367976,
            13.329792086126458
          ],
          [
            99.98890848164447,
            13.329794245605088
          ],
          [
            99.9889077467904,
            13.32961342300427
          ],
          [
            99.98853844565346,
            13.329614861964878
          ],
          [
            99.98853550744322,
            13.328891571454637
          ],
          [
            99.9877969072333,
            13.328894447602424
          ],
          [
            99.98779764122095,
            13.32907527027431
          ],
          [
            99.98761299100414,
            13.329075988985581
          ],
          [
            99.98761519262081,
            13.329618457015863
          ],
          [
            99.98816914447302,
            13.329616300388222
          ],
          [
            99.98817208175997,
            13.330339590937506
          ],
          [
            99.98780277943875,
            13.330341028904385
          ],
          [
            99.98780498169512,
            13.330883496849525
          ],
          [
            99.98762033010668,
            13.330884215661772
          ],
          [
            99.9876210640767,
            13.331065038315025
          ],
          [
            99.98743641234024,
            13.331065757003037
          ],
          [
            99.98743714618395,
            13.331246579663773
          ],
          [
            99.98725249429944,
            13.331247298227545
          ],
          [
            99.98725322801684,
            13.331428120895765
          ],
          [
            99.98706857598431,
            13.331428839335295
          ],
          [
            99.98706930957538,
            13.331609662010996
          ],
          [
            99.9863307007879,
            13.331612534466108
          ],
          [
            99.98633216690519,
            13.331974179890366
          ],
          [
            99.98540890430486,
            13.331977767537445
          ],
          [
            99.98540670720294,
            13.33143529924596
          ],
          [
            99.98559135933316,
            13.331434582015453
          ],
          [
            99.98559062685035,
            13.331253759256475
          ],
          [
            99.98577527883255,
            13.331253041901709
          ],
          [
            99.98577308103769,
            13.330710573639333
          ],
          [
            99.98595773259753,
            13.330709856180468
          ],
          [
            99.98595626718084,
            13.330348210679313
          ],
          [
            99.98614091845549,
            13.330347493106283
          ],
          [
            99.98613945280786,
            13.329985847614847
          ],
          [
            99.98632410379732,
            13.329985129927655
          ],
          [
            99.98632263791879,
            13.329623484445934
          ],
          [
            99.98650728862307,
            13.32962276664459
          ],
          [
            99.98650435644761,
            13.328899475690148
          ],
          [
            99.98705830684949,
            13.328897321601266
          ],
          [
            99.98705610659754,
            13.328354853448806
          ],
          [
            99.98668680716334,
            13.328356289581837
          ],
          [
            99.98668607404203,
            13.32817546683895
          ],
          [
            99.98594747559198,
            13.328178337453034
          ],
          [
            99.98595040594805,
            13.328901628570247
          ],
          [
            99.9852118051301,
            13.328904497196714
          ],
          [
            99.9852110730734,
            13.328723674381026
          ],
          [
            99.98465712275757,
            13.328725824410414
          ],
          [
            99.98465785440281,
            13.32890664725631
          ],
          [
            99.98410390357805,
            13.328908796107118
          ],
          [
            99.98410097870784,
            13.328185504587113
          ],
          [
            99.98317772985962,
            13.328189083117815
          ],
          [
            99.98317846037521,
            13.328369906052009
          ],
          [
            99.98243986055336,
            13.328372766499317
          ],
          [
            99.98243913058634,
            13.328191943524931
          ],
          [
            99.98206983088484,
            13.328193372922675
          ],
          [
            99.98206910120291,
            13.328012549925594
          ],
          [
            99.98151515198106,
            13.328014692984828
          ],
          [
            99.98151296423434,
            13.327472223887588
          ],
          [
            99.98058971737237,
            13.327475792816518
          ],
          [
            99.98059044592479,
            13.327656615901688
          ],
          [
            99.9804057963829,
            13.32765732929461
          ],
          [
            99.98040725324583,
            13.328018975477166
          ],
          [
            99.98022260341885,
            13.328019688755834
          ],
          [
            99.98022406005065,
            13.32838133494799
          ],
          [
            99.97967010968219,
            13.3283834740383
          ],
          [
            99.97966574238473,
            13.32729853525018
          ],
          [
            99.97929644373087,
            13.327299960518703
          ],
          [
            99.97929571615994,
            13.327119137358187
          ],
          [
            99.97818782076263,
            13.327123409880661
          ],
          [
            99.97818709402527,
            13.326942586657502
          ],
          [
            99.97726384825053,
            13.326946143349888
          ],
          [
            99.97726312220956,
            13.326765320074141
          ],
          [
            99.97689382409865,
            13.326766741791085
          ],
          [
            99.9768930983427,
            13.32658591849275
          ],
          [
            99.97615450254042,
            13.326588760275243
          ],
          [
            99.97615522774787,
            13.32676958361351
          ],
          [
            99.97597057863332,
            13.326770293733395
          ],
          [
            99.97597130371439,
            13.326951117079028
          ],
          [
            99.97578665445198,
            13.3269518270746
          ],
          [
            99.97578810437204,
            13.327313473777993
          ],
          [
            99.97560345482464,
            13.327314183659222
          ],
          [
            99.97560417966363,
            13.32749500701698
          ],
          [
            99.97541952996835,
            13.327495716773887
          ],
          [
            99.97542025468096,
            13.327676540139002
          ],
          [
            99.9752356048378,
            13.327677249771588
          ],
          [
            99.97523705402092,
            13.328038896513933
          ],
          [
            99.97505240389275,
            13.328039606032155
          ],
          [
            99.97505747541159,
            13.329305369617915
          ],
          [
            99.97542677757727,
            13.32930395030759
          ],
          [
            99.97542967692132,
            13.330027243647969
          ],
          [
            99.97487572201078,
            13.330029372531612
          ],
          [
            99.97487427314026,
            13.329667725806829
          ],
          [
            99.97450497036158,
            13.329669144351119
          ],
          [
            99.97450352208261,
            13.329307497576034
          ],
          [
            99.97394956865715,
            13.329309624325314
          ],
          [
            99.9739539111538,
            13.33039456479851
          ],
          [
            99.97376925916757,
            13.330395273506038
          ],
          [
            99.97376998281734,
            13.33057609691906
          ],
          [
            99.97358533068324,
            13.330576805502217
          ],
          [
            99.97358605420655,
            13.330757628922575
          ],
          [
            99.97340140192455,
            13.330758337381358
          ],
          [
            99.97340284872898,
            13.331119984234151
          ],
          [
            99.9724795857866,
            13.33112352461256
          ],
          [
            99.97247741765365,
            13.330581054180255
          ],
          [
            99.97266206985199,
            13.330580346403073
          ],
          [
            99.97266134702524,
            13.330399522930358
          ],
          [
            99.97284599907573,
            13.33039881502879
          ],
          [
            99.97284455317998,
            13.330037168095417
          ],
          [
            99.97302920494543,
            13.330036460079416
          ],
          [
            99.97302848187645,
            13.329855636618763
          ],
          [
            99.97321313349403,
            13.329854928478387
          ],
          [
            99.97321096393983,
            13.329312458110602
          ],
          [
            99.97228770780231,
            13.329315997320109
          ],
          [
            99.9722898752991,
            13.32985846783706
          ],
          [
            99.97192057194623,
            13.329859882640276
          ],
          [
            99.97192129419223,
            13.33004070616058
          ],
          [
            99.97173664236259,
            13.330041413370642
          ],
          [
            99.97173736448211,
            13.33022223689827
          ],
          [
            99.9715527125046,
            13.330222943983944
          ],
          [
            99.97155343449766,
            13.330403767518893
          ],
          [
            99.97136878237231,
            13.33040447448017
          ],
          [
            99.9713716699027,
            13.331127768633596
          ],
          [
            99.97063305909964,
            13.331130595294255
          ],
          [
            99.97063378046025,
            13.331311418865793
          ],
          [
            99.9704491275956,
            13.331312125205043
          ],
          [
            99.97045057007448,
            13.331673772360125
          ],
          [
            99.97026591692479,
            13.331674478584876
          ],
          [
            99.97026663804306,
            13.331855302168426
          ],
          [
            99.97008198474552,
            13.331856008268755
          ],
          [
            99.97008270573727,
            13.332036831859607
          ],
          [
            99.9697133988358,
            13.332038243677069
          ],
          [
            99.96971411956385,
            13.332219067285143
          ],
          [
            99.96952946595991,
            13.332219773002272
          ],
          [
            99.9695316277965,
            13.332762243840563
          ],
          [
            99.96971628181201,
            13.3327615380937
          ],
          [
            99.96971700258275,
            13.332942361691329
          ],
          [
            99.97027096497688,
            13.332940243614877
          ],
          [
            99.97027024379454,
            13.332759420046994
          ],
          [
            99.97082420568098,
            13.332757300791117
          ],
          [
            99.97082637049478,
            13.333299771397632
          ],
          [
            99.97027240737353,
            13.333301890742804
          ],
          [
            99.97027312858789,
            13.333482714302855
          ],
          [
            99.97008847405559,
            13.333483420492449
          ],
          [
            99.97009063735106,
            13.33402589118668
          ],
          [
            99.96990598239647,
            13.334026597271665
          ],
          [
            99.96990886639102,
            13.334749891533752
          ],
          [
            99.96935489981664,
            13.334752009101466
          ],
          [
            99.96935417921364,
            13.334571185510121
          ],
          [
            99.96916952380472,
            13.334571891087371
          ],
          [
            99.96916880334962,
            13.334391067483507
          ],
          [
            99.96898414806725,
            13.334391772916476
          ],
          [
            99.96898198717754,
            13.3338493020595
          ],
          [
            99.96935129690833,
            13.333847891118637
          ],
          [
            99.96934913529132,
            13.333305420297604
          ],
          [
            99.96916448084288,
            13.33330612580549
          ],
          [
            99.96916376046242,
            13.333125302183353
          ],
          [
            99.96842514311082,
            13.333128122831697
          ],
          [
            99.96842658278479,
            13.333489770152603
          ],
          [
            99.967872618836,
            13.333491884287508
          ],
          [
            99.96787189940528,
            13.333311060598664
          ],
          [
            99.96731793577226,
            13.33331317349465
          ],
          [
            99.96731865479134,
            13.33349399721317
          ],
          [
            99.9671340000885,
            13.333494701253
          ],
          [
            99.96713615679802,
            13.334037172422544
          ],
          [
            99.96750546701631,
            13.334035764149185
          ],
          [
            99.96750618621518,
            13.334216587847367
          ],
          [
            99.96769084144556,
            13.334215883499246
          ],
          [
            99.9676915607923,
            13.334396707184924
          ],
          [
            99.96806087149557,
            13.334395298065788
          ],
          [
            99.96806231076985,
            13.334756945389731
          ],
          [
            99.96843162197936,
            13.334755535693523
          ],
          [
            99.96843306184513,
            13.33511718296743
          ],
          [
            99.96861771770836,
            13.33511647789796
          ],
          [
            99.96861987799862,
            13.335658948759528
          ],
          [
            99.96806590914197,
            13.3356610636539
          ],
          [
            99.96806734856538,
            13.336022710941286
          ],
          [
            99.96751337878949,
            13.336024824685575
          ],
          [
            99.96751122090542,
            13.335482353661531
          ],
          [
            99.96788053327661,
            13.335480944692417
          ],
          [
            99.967878374665,
            13.334938473704227
          ],
          [
            99.96732440732725,
            13.334940586867301
          ],
          [
            99.96732728385065,
            13.3356638816317
          ],
          [
            99.9667733147704,
            13.335665993704028
          ],
          [
            99.96677547103963,
            13.33620846483889
          ],
          [
            99.96696012782205,
            13.336207760919509
          ],
          [
            99.96696156566253,
            13.336569408309925
          ],
          [
            99.96714622270878,
            13.336568704236385
          ],
          [
            99.9671476608663,
            13.33693035159658
          ],
          [
            99.96733231817639,
            13.336929647368866
          ],
          [
            99.96733447590422,
            13.33747211835991
          ],
          [
            99.96714981818239,
            13.337472822617285
          ],
          [
            99.96715053730905,
            13.337653646285633
          ],
          [
            99.9664119057663,
            13.337656462010655
          ],
          [
            99.96641118718865,
            13.337475638302774
          ],
          [
            99.96530324037906,
            13.337479857798943
          ],
          [
            99.96530252263554,
            13.337299034029206
          ],
          [
            99.96456389176566,
            13.337301844299148
          ],
          [
            99.96456460896019,
            13.337482668108349
          ],
          [
            99.96382597737151,
            13.337485476267313
          ],
          [
            99.96382239424995,
            13.336581356998058
          ],
          [
            99.96437636589869,
            13.336579251228287
          ],
          [
            99.96437421491787,
            13.336036779724106
          ],
          [
            99.96418955812395,
            13.336037481752182
          ],
          [
            99.96418884128879,
            13.335856657902376
          ],
          [
            99.96400418462149,
            13.335857359786209
          ],
          [
            99.96400346793418,
            13.335676535923936
          ],
          [
            99.9638188113935,
            13.335677237663527
          ],
          [
            99.963818094854,
            13.335496413788787
          ],
          [
            99.96326412558004,
            13.335498518171713
          ],
          [
            99.9632662739952,
            13.336040989876754
          ],
          [
            99.96345093084214,
            13.336040288520612
          ],
          [
            99.96345164713897,
            13.336221112407223
          ],
          [
            99.96363630411255,
            13.336220410906845
          ],
          [
            99.96363845347835,
            13.336762882521457
          ],
          [
            99.96308448129062,
            13.33676498670806
          ],
          [
            99.96308376523648,
            13.336584162809586
          ],
          [
            99.9625297933651,
            13.336586265757104
          ],
          [
            99.96253194032413,
            13.337128737533277
          ],
          [
            99.9627165980369,
            13.337128036655638
          ],
          [
            99.962718745503,
            13.337670508378785
          ],
          [
            99.96240970898793,
            13.337671681313441
          ]
        ]
      }
    },
    {
      "type": "Feature",
      "properties": {
        "indicator": "WATERLINE",
        "role": "HISTORICAL_AND_RECENT_SCREENING",
        "year": 2024,
        "scene_id": "S2B_MSIL2A_20240215T033839_R061_T47PNQ_20240215T081344",
        "acquisition_datetime_bangkok": "2024-02-15T10:38:39.024000+07:00",
        "tide_level_m_msl": 1.1037,
        "tide_target_m_msl": 1.0879,
        "tide_delta_from_target_m": 0.0158,
        "tide_status": "modelled_secondary_extrema_cosine",
        "tide_source_tier": "secondary_published_extrema",
        "mndwi_threshold": 0.05078,
        "threshold_method": "otsu",
        "source_resolution_m": 20,
        "confidence": "LOW",
        "interpretation": "image-derived waterline selected near the current tide target; screening only, not tide-normalized or surveyed",
        "segment_id": 3,
        "length_m": 4100.2
      },
      "geometry": {
        "type": "LineString",
        "coordinates": [
          [
            99.9723455601831,
            13.343786748308979
          ],
          [
            99.97253020289551,
            13.343781161360441
          ],
          [
            99.97252947942475,
            13.343600338068459
          ],
          [
            99.97271414150471,
            13.343599629575362
          ],
          [
            99.97271269432068,
            13.343237983003439
          ],
          [
            99.9730820178992,
            13.34323656565364
          ],
          [
            99.97308129404861,
            13.343055742383651
          ],
          [
            99.97326595568451,
            13.343055033517013
          ],
          [
            99.97326233590567,
            13.342150917177618
          ],
          [
            99.97400097959598,
            13.342148080565542
          ],
          [
            99.97399953066103,
            13.341786434091127
          ],
          [
            99.97418419128222,
            13.3417857246219
          ],
          [
            99.97418129299176,
            13.341062431681548
          ],
          [
            99.9747352731435,
            13.341060302586744
          ],
          [
            99.9747359981119,
            13.341241125795865
          ],
          [
            99.975105318434,
            13.341239705707205
          ],
          [
            99.9751060436877,
            13.341420528893778
          ],
          [
            99.97566002450226,
            13.341418397722572
          ],
          [
            99.97565929883667,
            13.341237574565914
          ],
          [
            99.97584395894943,
            13.341236863916606
          ],
          [
            99.97584250737589,
            13.3408752176154
          ],
          [
            99.97602716720333,
            13.340874506851605
          ],
          [
            99.97602644129537,
            13.340693683707066
          ],
          [
            99.9762111009748,
            13.340692972818815
          ],
          [
            99.9762103749403,
            13.340512149681638
          ],
          [
            99.9763950344717,
            13.340511438668932
          ],
          [
            99.97639430831065,
            13.340330615539123
          ],
          [
            99.97676362706663,
            13.34032919313039
          ],
          [
            99.97675999504989,
            13.339425077541994
          ],
          [
            99.97657533636364,
            13.339425788763656
          ],
          [
            99.9765746101298,
            13.33924496562815
          ],
          [
            99.97638995157008,
            13.339245676705406
          ],
          [
            99.97638704729127,
            13.338522384097343
          ],
          [
            99.97657170530192,
            13.338521673060018
          ],
          [
            99.97657025295246,
            13.338160026760276
          ],
          [
            99.97712422609642,
            13.338157892901762
          ],
          [
            99.97712495267756,
            13.33833871602298
          ],
          [
            99.97749426832762,
            13.338337292758617
          ],
          [
            99.97749717585775,
            13.339060585137423
          ],
          [
            99.97823580922497,
            13.33905773683583
          ],
          [
            99.97823508177724,
            13.338876913785032
          ],
          [
            99.97841973995489,
            13.338876201383593
          ],
          [
            99.97841682972258,
            13.338152909194294
          ],
          [
            99.97897080254378,
            13.338150771303555
          ],
          [
            99.97897007460085,
            13.337969948279719
          ],
          [
            99.97915473204912,
            13.33796923539067
          ],
          [
            99.97915400397972,
            13.337788412374222
          ],
          [
            99.97933866127997,
            13.337787699360778
          ],
          [
            99.97933793308408,
            13.337606876351732
          ],
          [
            99.97970724737775,
            13.337605449941663
          ],
          [
            99.97970651891814,
            13.337424626950034
          ],
          [
            99.97989117591155,
            13.33742391355341
          ],
          [
            99.9798897187502,
            13.33706226758235
          ],
          [
            99.98007437545834,
            13.33706155407137
          ],
          [
            99.98007291806564,
            13.336699908109892
          ],
          [
            99.98044223090061,
            13.336698480724827
          ],
          [
            99.98044150194596,
            13.336517657760213
          ],
          [
            99.98062615821001,
            13.336516943876116
          ],
          [
            99.98062542912892,
            13.336336120918919
          ],
          [
            99.98117939744463,
            13.33633397849037
          ],
          [
            99.98118158595544,
            13.336876447263885
          ],
          [
            99.98099692944928,
            13.336877161571211
          ],
          [
            99.98099765883723,
            13.33705798450052
          ],
          [
            99.98081300218303,
            13.337058698683482
          ],
          [
            99.98081373144453,
            13.337239521620205
          ],
          [
            99.9806290746423,
            13.337240235678797
          ],
          [
            99.98062980377735,
            13.337421058622935
          ],
          [
            99.98044514682707,
            13.337421772557153
          ],
          [
            99.98044660485503,
            13.33778341845764
          ],
          [
            99.9802619476195,
            13.337784132277505
          ],
          [
            99.98026340541611,
            13.338145778187586
          ],
          [
            99.97970943282121,
            13.338147918900873
          ],
          [
            99.97971088983743,
            13.338509564860617
          ],
          [
            99.97952623200972,
            13.338510278182927
          ],
          [
            99.97952696039674,
            13.338691101168898
          ],
          [
            99.979342302421,
            13.33869181436681
          ],
          [
            99.97934303068153,
            13.33887263736018
          ],
          [
            99.97897371442319,
            13.33887406337279
          ],
          [
            99.97897589844585,
            13.339416532397278
          ],
          [
            99.97879123988872,
            13.339417245231989
          ],
          [
            99.97879196778055,
            13.339598068244932
          ],
          [
            99.97860730907539,
            13.339598780955225
          ],
          [
            99.97860803684071,
            13.339779603975561
          ],
          [
            99.97823871912352,
            13.339781029012881
          ],
          [
            99.97823944662508,
            13.339961852050614
          ],
          [
            99.97787012859027,
            13.339963276570236
          ],
          [
            99.97787303760587,
            13.340686568775025
          ],
          [
            99.976949739585,
            13.34069012792147
          ],
          [
            99.97695046617939,
            13.340870951016095
          ],
          [
            99.97676580640567,
            13.34087166245207
          ],
          [
            99.97676798584142,
            13.341414131750238
          ],
          [
            99.97713730620185,
            13.341412708683926
          ],
          [
            99.97713948655812,
            13.341955177898647
          ],
          [
            99.97695482597139,
            13.34195588952899
          ],
          [
            99.97695555264103,
            13.342136712605324
          ],
          [
            99.97677089190626,
            13.342137424111208
          ],
          [
            99.97677161844933,
            13.342318247194921
          ],
          [
            99.97658695756652,
            13.342318958576339
          ],
          [
            99.97658768398304,
            13.342499781667417
          ],
          [
            99.97640302295217,
            13.342500492924371
          ],
          [
            99.97640374924214,
            13.342681316022825
          ],
          [
            99.97621908806322,
            13.342682027155304
          ],
          [
            99.97621981422662,
            13.342862850261122
          ],
          [
            99.97566583021349,
            13.342864982881764
          ],
          [
            99.97566365299124,
            13.34232251346667
          ],
          [
            99.97547899204399,
            13.342323224041381
          ],
          [
            99.975478266462,
            13.342142400887814
          ],
          [
            99.97473962311481,
            13.342145241802273
          ],
          [
            99.97474107319105,
            13.342506888186545
          ],
          [
            99.97455641205283,
            13.342507598098965
          ],
          [
            99.97455786189738,
            13.342869244492713
          ],
          [
            99.97437320047382,
            13.342869954290604
          ],
          [
            99.97437609974234,
            13.343593247086597
          ],
          [
            99.97363745174385,
            13.34359608509292
          ],
          [
            99.97363817603852,
            13.343776908325218
          ],
          [
            99.97326885170035,
            13.343778326541493
          ],
          [
            99.9732695757311,
            13.343959149791079
          ],
          [
            99.97308501347156,
            13.343984853482613
          ]
        ]
      }
    },
    {
      "type": "Feature",
      "properties": {
        "indicator": "WATERLINE",
        "role": "HISTORICAL_AND_RECENT_SCREENING",
        "year": 2024,
        "scene_id": "S2B_MSIL2A_20240215T033839_R061_T47PNQ_20240215T081344",
        "acquisition_datetime_bangkok": "2024-02-15T10:38:39.024000+07:00",
        "tide_level_m_msl": 1.1037,
        "tide_target_m_msl": 1.0879,
        "tide_delta_from_target_m": 0.0158,
        "tide_status": "modelled_secondary_extrema_cosine",
        "tide_source_tier": "secondary_published_extrema",
        "mndwi_threshold": 0.05078,
        "threshold_method": "otsu",
        "source_resolution_m": 20,
        "confidence": "LOW",
        "interpretation": "image-derived waterline selected near the current tide target; screening only, not tide-normalized or surveyed",
        "segment_id": 4,
        "length_m": 474.76
      },
      "geometry": {
        "type": "LineString",
        "coordinates": [
          [
            99.97600985246694,
            13.344671917657966
          ],
          [
            99.97604168761784,
            13.344490969193725
          ],
          [
            99.97622635018068,
            13.344490258095906
          ],
          [
            99.97622489767124,
            13.344128611928692
          ],
          [
            99.97640955994868,
            13.344127900716364
          ],
          [
            99.97640883357276,
            13.343947077638816
          ],
          [
            99.97659349570212,
            13.343946366301997
          ],
          [
            99.97659276919961,
            13.343765543231822
          ],
          [
            99.97677743118093,
            13.343764831770523
          ],
          [
            99.97677670455185,
            13.34358400870772
          ],
          [
            99.97733069001931,
            13.343581873546988
          ],
          [
            99.97733287117465,
            13.34412434263766
          ],
          [
            99.97714820895096,
            13.344125054522339
          ],
          [
            99.97714893588693,
            13.344305877557325
          ],
          [
            99.97696427351515,
            13.344306589317528
          ],
          [
            99.9769657271447,
            13.344668235399638
          ],
          [
            99.97659640181959,
            13.344669658556567
          ],
          [
            99.976596926821,
            13.344800319543847
          ]
        ]
      }
    },
    {
      "type": "Feature",
      "properties": {
        "indicator": "WATERLINE",
        "role": "HISTORICAL_AND_RECENT_SCREENING",
        "year": 2024,
        "scene_id": "S2B_MSIL2A_20240215T033839_R061_T47PNQ_20240215T081344",
        "acquisition_datetime_bangkok": "2024-02-15T10:38:39.024000+07:00",
        "tide_level_m_msl": 1.1037,
        "tide_target_m_msl": 1.0879,
        "tide_delta_from_target_m": 0.0158,
        "tide_status": "modelled_secondary_extrema_cosine",
        "tide_source_tier": "secondary_published_extrema",
        "mndwi_threshold": 0.05078,
        "threshold_method": "otsu",
        "source_resolution_m": 20,
        "confidence": "LOW",
        "interpretation": "image-derived waterline selected near the current tide target; screening only, not tide-normalized or surveyed",
        "segment_id": 5,
        "length_m": 132.17
      },
      "geometry": {
        "type": "LineString",
        "coordinates": [
          [
            99.98052691154584,
            13.346462741683245
          ],
          [
            99.98140492944083,
            13.346459343411354
          ],
          [
            99.98140628304598,
            13.346794524763473
          ]
        ]
      }
    }
  ]
}
