{
  "type": "FeatureCollection",
  "features": [
    {
      "type": "Feature",
      "properties": {
        "year": 1985,
        "target_year": 1985,
        "actual_year": 1987,
        "sensor": "landsat-5",
        "actual_acquisition_period": "1987-12-09 to 1987-12-25",
        "acquisition_period": "1987-12-09 to 1987-12-25",
        "scene_count": 2,
        "method": "MNDWI otsu, conservative morphology, edge-connected ocean exterior, corridor-guided continuous trace",
        "threshold": 0.17578,
        "mndwi_threshold": 0.17578,
        "threshold_candidates": {
          "otsu": {
            "threshold": 0.17578,
            "ocean_fraction": 0.4728
          },
          "fixed_zero": {
            "threshold": 0.0,
            "ocean_fraction": 0.5498
          },
          "percentile_60": {
            "threshold": 0.51032,
            "ocean_fraction": 0.33
          }
        },
        "tide_status": "unverified",
        "source_resolution_m": 30,
        "interpretation": "image-derived water-land boundary, not a true/surveyed shoreline",
        "qa_status": "MVP automated extraction; visual review required",
        "segment_id": 1,
        "length_m": 17224.7
      },
      "geometry": {
        "type": "LineString",
        "coordinates": [
          [
            99.93800043400881,
            13.307112790845935
          ],
          [
            99.93959010991216,
            13.307106918805093
          ],
          [
            99.94016539328733,
            13.307376033496798
          ],
          [
            99.94118083230296,
            13.307372275033547
          ],
          [
            99.94491110792536,
            13.312783268607971
          ],
          [
            99.94517160954604,
            13.312782299565491
          ],
          [
            99.94959018716999,
            13.30948509051124
          ],
          [
            99.95014737254782,
            13.310322566594797
          ],
          [
            99.95073051561786,
            13.310320385337025
          ],
          [
            99.95153321673182,
            13.310588621921369
          ],
          [
            99.95232338638868,
            13.311128144045
          ],
          [
            99.95391308187763,
            13.311122180659458
          ],
          [
            99.95486163676001,
            13.311835455469735
          ],
          [
            99.95548394942843,
            13.312743724020724
          ],
          [
            99.95597304275996,
            13.312741884064238
          ],
          [
            99.95708407634517,
            13.31355142341286
          ],
          [
            99.95819196936874,
            13.31356057831456
          ],
          [
            99.95819285855502,
            13.313786674138584
          ],
          [
            99.96040652783479,
            13.31326764367495
          ],
          [
            99.96124298944278,
            13.314679546834027
          ],
          [
            99.96124477364938,
            13.315131738032433
          ],
          [
            99.96254600474022,
            13.315971950530619
          ],
          [
            99.96405656490558,
            13.315966221520755
          ],
          [
            99.96651511446096,
            13.317146626451756
          ],
          [
            99.96708414432267,
            13.317582152269408
          ],
          [
            99.96734780077139,
            13.31759565334573
          ],
          [
            99.96845991279174,
            13.318661869367178
          ],
          [
            99.96957101240544,
            13.319471349047639
          ],
          [
            99.97162883210724,
            13.320819681693907
          ],
          [
            99.97290218711883,
            13.32135728480986
          ],
          [
            99.97429245239799,
            13.32270815078387
          ],
          [
            99.97568055902028,
            13.32351653772432
          ],
          [
            99.97623667428863,
            13.324056878229984
          ],
          [
            99.97651582087336,
            13.32459828297894
          ],
          [
            99.97651982471085,
            13.325596352240977
          ],
          [
            99.98456882150117,
            13.329720708278913
          ],
          [
            99.98761555956644,
            13.329708868351958
          ],
          [
            99.98823185382133,
            13.32943523067372
          ],
          [
            99.98960078452006,
            13.329158657584227
          ],
          [
            99.99232193681088,
            13.329148031103818
          ],
          [
            99.99370791919515,
            13.329413845285316
          ],
          [
            99.99565007443768,
            13.33021994539485
          ],
          [
            99.99815064599433,
            13.332108783442285
          ],
          [
            99.99899940220106,
            13.336445240482163
          ],
          [
            99.9987257609472,
            13.337260030128476
          ],
          [
            99.99874197652065,
            13.3412079388308
          ],
          [
            99.99904175631563,
            13.346752087330307
          ],
          [
            100.00211554430459,
            13.353249635617077
          ],
          [
            100.02015820414718,
            13.362128385948692
          ],
          [
            100.0209880938192,
            13.361853805473897
          ],
          [
            100.02237314270924,
            13.36184821629362
          ],
          [
            100.02487081016962,
            13.362923057456435
          ],
          [
            100.0265386102302,
            13.364272473643046
          ],
          [
            100.02848804065056,
            13.366705671133879
          ],
          [
            100.02960070328288,
            13.367786084713995
          ],
          [
            100.03210076839065,
            13.36940330617196
          ],
          [
            100.03349163344716,
            13.370753799531192
          ],
          [
            100.03349504738215,
            13.371555019277945
          ],
          [
            100.04134954621306,
            13.394318865374828
          ],
          [
            100.04162775824035,
            13.394588951221595
          ]
        ]
      }
    }
  ]
}
