{
  "type": "FeatureCollection",
  "features": [
    {
      "type": "Feature",
      "properties": {
        "year": 2019,
        "target_year": 2019,
        "actual_year": 2019,
        "sensor": "Sentinel-2A, Sentinel-2B",
        "actual_acquisition_period": "2019-02-21 to 2019-04-17",
        "acquisition_period": "2019-02-21 to 2019-04-17",
        "scene_count": 3,
        "method": "MNDWI otsu, conservative morphology, edge-connected ocean exterior, corridor-guided continuous trace",
        "threshold": 0.18359,
        "mndwi_threshold": 0.18359,
        "threshold_candidates": {
          "otsu": {
            "threshold": 0.18359,
            "ocean_fraction": 0.3748
          },
          "fixed_zero": {
            "threshold": 0.0,
            "ocean_fraction": 0.434
          },
          "percentile_60": {
            "threshold": 0.60369,
            "ocean_fraction": 0.3612
          }
        },
        "tide_status": "unverified",
        "source_resolution_m": 20,
        "interpretation": "image-derived water-land boundary, not a true/surveyed shoreline",
        "qa_status": "MVP automated extraction; visual review required",
        "segment_id": 1,
        "length_m": 14773.7
      },
      "geometry": {
        "type": "LineString",
        "coordinates": [
          [
            99.95115688327739,
            13.30878175540867
          ],
          [
            99.95115898851923,
            13.30932121502991
          ],
          [
            99.95169810989223,
            13.309322211670274
          ],
          [
            99.95244863427524,
            13.308596089664894
          ],
          [
            99.96723531955737,
            13.31251842845951
          ],
          [
            99.96926778427763,
            13.312872335601034
          ],
          [
            99.97019241893251,
            13.313230459354696
          ],
          [
            99.97117894353511,
            13.313226689854318
          ],
          [
            99.97499809917522,
            13.314477845302726
          ],
          [
            99.97927171236343,
            13.32115197159676
          ],
          [
            99.97927462128968,
            13.321875264567707
          ],
          [
            99.98203459585598,
            13.321502952179078
          ],
          [
            99.98500008109285,
            13.322214767725557
          ],
          [
            99.98611161374862,
            13.323114581292966
          ],
          [
            99.9879632077148,
            13.324373161373572
          ],
          [
            99.98926822719216,
            13.327442112335566
          ],
          [
            99.99019294288428,
            13.327800156967498
          ],
          [
            99.9908130688996,
            13.327797736636764
          ],
          [
            99.99277950461573,
            13.328151702281682
          ],
          [
            99.99462895252336,
            13.32886776123996
          ],
          [
            99.99816103311355,
            13.334640291994042
          ],
          [
            99.99816474332066,
            13.335544402066962
          ],
          [
            99.99853854248717,
            13.336636613020264
          ],
          [
            99.99854593127483,
            13.33843609993156
          ],
          [
            99.99818181380994,
            13.339703307560741
          ],
          [
            99.99913854863227,
            13.347836654083226
          ],
          [
            99.99951159527282,
            13.348739306508127
          ],
          [
            100.00174397153353,
            13.352708631649735
          ],
          [
            100.00193087653437,
            13.353250366042833
          ],
          [
            100.0222792830588,
            13.36148694856942
          ],
          [
            100.02283330162942,
            13.361484711041308
          ],
          [
            100.02320340950754,
            13.361664038917636
          ],
          [
            100.02449993600166,
            13.362562912116978
          ],
          [
            100.02653975754093,
            13.364543703650645
          ],
          [
            100.02728228456364,
            13.365444806682149
          ],
          [
            100.03024937712246,
            13.368325913467455
          ],
          [
            100.03228621617042,
            13.369583372468215
          ],
          [
            100.03395525857287,
            13.371203962003197
          ],
          [
            100.03469860517727,
            13.37228585875638
          ],
          [
            100.0374904715879,
            13.377337452618532
          ],
          [
            100.03861717021577,
            13.3816725628824
          ],
          [
            100.03994102503722,
            13.388900006458345
          ]
        ]
      }
    }
  ]
}
