{
  "type": "FeatureCollection",
  "features": [
    {
      "type": "Feature",
      "properties": {
        "year": 2022,
        "target_year": 2022,
        "actual_year": 2022,
        "sensor": "Sentinel-2A, Sentinel-2B",
        "actual_acquisition_period": "2022-01-06 to 2022-04-21",
        "acquisition_period": "2022-01-06 to 2022-04-21",
        "scene_count": 3,
        "method": "MNDWI fixed_zero, conservative morphology, edge-connected ocean exterior, corridor-guided continuous trace",
        "threshold": 0.0,
        "mndwi_threshold": 0.0,
        "threshold_candidates": {
          "otsu": {
            "threshold": -0.04297,
            "ocean_fraction": 0.5148
          },
          "fixed_zero": {
            "threshold": 0.0,
            "ocean_fraction": 0.457
          },
          "percentile_60": {
            "threshold": 0.1278,
            "ocean_fraction": 0.3166
          }
        },
        "tide_status": "unverified",
        "source_resolution_m": 20,
        "interpretation": "image-derived water-land boundary, not a true/surveyed shoreline",
        "qa_status": "MVP automated extraction; visual review required",
        "segment_id": 1,
        "length_m": 15709.8
      },
      "geometry": {
        "type": "LineString",
        "coordinates": [
          [
            99.94692920467276,
            13.313679893021789
          ],
          [
            99.94987288225641,
            13.310956489480704
          ],
          [
            99.95005611091054,
            13.310594149235957
          ],
          [
            99.95126005978425,
            13.310227989635896
          ],
          [
            99.95346796250668,
            13.310219714259155
          ],
          [
            99.95467277274257,
            13.310757672591803
          ],
          [
            99.95652341229548,
            13.311835676129153
          ],
          [
            99.95745059549499,
            13.312847392716321
          ],
          [
            99.95745133586806,
            13.313035805954854
          ],
          [
            99.95985902018944,
            13.314897156704353
          ],
          [
            99.96060114922005,
            13.315798486414504
          ],
          [
            99.96208113869116,
            13.31651619263527
          ],
          [
            99.96337720904276,
            13.317415414221212
          ],
          [
            99.9672618850718,
            13.319208915409089
          ],
          [
            99.96855726852104,
            13.31992728423575
          ],
          [
            99.96911336032646,
            13.3204676421472
          ],
          [
            99.97079105907306,
            13.321184539166506
          ],
          [
            99.971331981348,
            13.321182470363341
          ],
          [
            99.97281419925888,
            13.322442580082821
          ],
          [
            99.97429932708518,
            13.324425973872229
          ],
          [
            99.97909070318109,
            13.322056799946445
          ],
          [
            99.97975345793907,
            13.322054243201727
          ],
          [
            99.97985039169549,
            13.327297822414481
          ],
          [
            99.98091697989656,
            13.327474528125576
          ],
          [
            99.98151296423434,
            13.327472223887588
          ],
          [
            99.98320327777407,
            13.328188984138778
          ],
          [
            99.98391632895984,
            13.328186220561857
          ],
          [
            99.98428635978345,
            13.328365611351924
          ],
          [
            99.98594747559198,
            13.328178337453034
          ],
          [
            99.98594909955142,
            13.328579179856707
          ],
          [
            99.98650408653877,
            13.32883289408802
          ],
          [
            99.98650512378198,
            13.329088761140262
          ],
          [
            99.98706011246173,
            13.329342474023889
          ],
          [
            99.9870621882213,
            13.329854208016584
          ],
          [
            99.98853844565346,
            13.329614861964878
          ],
          [
            99.9890938673359,
            13.32997434850129
          ],
          [
            99.98965146161405,
            13.330867605992438
          ],
          [
            99.99020545135491,
            13.33087414006633
          ],
          [
            99.99157408875872,
            13.330507144453511
          ],
          [
            99.99372121043585,
            13.332668206693091
          ],
          [
            99.99372338204056,
            13.333199841812144
          ],
          [
            99.99483564823139,
            13.334258769349232
          ],
          [
            99.995323482638,
            13.334289791767613
          ],
          [
            99.99632041952817,
            13.336094128337727
          ],
          [
            99.99650433372112,
            13.335912580823331
          ],
          [
            99.9970575571443,
            13.33572958171894
          ],
          [
            99.99835388713535,
            13.336637339950705
          ],
          [
            99.9983560695363,
            13.337168974151878
          ],
          [
            99.99854181672944,
            13.337434064268534
          ],
          [
            99.99854593127483,
            13.33843609993156
          ],
          [
            99.99799864049992,
            13.340065678306408
          ],
          [
            99.9989538848076,
            13.347837382049569
          ],
          [
            99.9993269307833,
            13.348740034794574
          ],
          [
            100.00174546300224,
            13.35307027477521
          ],
          [
            100.01729917424825,
            13.362953596268195
          ],
          [
            100.022095371575,
            13.36166851444052
          ],
          [
            100.02298060443061,
            13.361664939248525
          ],
          [
            100.02487081016962,
            13.362923057456435
          ],
          [
            100.02579800040297,
            13.363823418035842
          ],
          [
            100.02728305005832,
            13.365625626628836
          ],
          [
            100.02950913195325,
            13.367967280147367
          ],
          [
            100.03210153771167,
            13.369584125787236
          ],
          [
            100.03377057897801,
            13.37120471662989
          ],
          [
            100.03488560027701,
            13.37282756162903
          ],
          [
            100.03544504687841,
            13.374091030204752
          ],
          [
            100.0373057875295,
            13.37733821016597
          ],
          [
            100.0382454717661,
            13.38113162269135
          ],
          [
            100.03956775944067,
            13.387997431703946
          ],
          [
            100.03975477994807,
            13.388539128635774
          ]
        ]
      }
    }
  ]
}
