{
  "type": "FeatureCollection",
  "features": [
    {
      "type": "Feature",
      "properties": {
        "control_rank": 1,
        "role": "PSEUDO_PROJECT_VEGETATION_COMPARISON_WINDOW",
        "area_ha": 6.11,
        "user_confirmed_no_known_intervention": true,
        "design": {
          "median_project_interval_from_inland_m": 1497.1,
          "median_project_interval_to_seaward_m": 1620.7,
          "median_project_cross_shore_span_m": 123.6,
          "project_intersecting_transects_used": 20
        }
      },
      "geometry": {
        "type": "Polygon",
        "coordinates": [
          [
            [
              99.24047000723627,
              9.352129501666104
            ],
            [
              99.241034308585,
              9.352839418772687
            ],
            [
              99.24160224759675,
              9.35355390831031
            ],
            [
              99.24159715209308,
              9.353560714571023
            ],
            [
              99.2416225898724,
              9.353579499617531
            ],
            [
              99.24165504272752,
              9.353620326454529
            ],
            [
              99.24166611713788,
              9.353611643204621
            ],
            [
              99.24240105066833,
              9.354154367963758
            ],
            [
              99.24240105066833,
              9.354154367963758
            ],
            [
              99.24313186990258,
              9.3546940512091
            ],
            [
              99.24313186990258,
              9.3546940512091
            ],
            [
              99.24386269137274,
              9.355233732875922
            ],
            [
              99.24453451020895,
              9.354336347776949
            ],
            [
              99.24380368964793,
              9.353796667444966
            ],
            [
              99.24299978961301,
              9.353203017256579
            ],
            [
              99.24299978961301,
              9.353203017256579
            ],
            [
              99.24241398836227,
              9.352770422423715
            ],
            [
              99.24191803878904,
              9.352146500096108
            ],
            [
              99.24135373683714,
              9.351436584383675
            ],
            [
              99.24047000723627,
              9.352129501666104
            ]
          ]
        ]
      }
    },
    {
      "type": "Feature",
      "properties": {
        "control_rank": 2,
        "role": "PSEUDO_PROJECT_VEGETATION_COMPARISON_WINDOW",
        "area_ha": 6.1,
        "user_confirmed_no_known_intervention": true,
        "design": {
          "median_project_interval_from_inland_m": 1497.1,
          "median_project_interval_to_seaward_m": 1620.7,
          "median_project_cross_shore_span_m": 123.6,
          "project_intersecting_transects_used": 20
        }
      },
      "geometry": {
        "type": "Polygon",
        "coordinates": [
          [
            [
              99.24906195794591,
              9.356600896908686
            ],
            [
              99.24991804010033,
              9.356907391273502
            ],
            [
              99.24991239066424,
              9.356921321383435
            ],
            [
              99.25076063700398,
              9.357260647199007
            ],
            [
              99.25075868073944,
              9.357289623174518
            ],
            [
              99.25175821194279,
              9.357356184468864
            ],
            [
              99.25175821194279,
              9.357356184468863
            ],
            [
              99.25257601042728,
              9.357410641607691
            ],
            [
              99.25257601042728,
              9.357410641607693
            ],
            [
              99.25357554218574,
              9.357477197763757
            ],
            [
              99.25365086114402,
              9.356361445571071
            ],
            [
              99.2527421987905,
              9.356300940204251
            ],
            [
              99.2527421987905,
              9.35630094020425
            ],
            [
              99.25174267049287,
              9.356234381603445
            ],
            [
              99.25174267049287,
              9.356234381603446
            ],
            [
              99.25110222101677,
              9.356191732569448
            ],
            [
              99.25038017954026,
              9.355902892771287
            ],
            [
              99.25038619997318,
              9.355886305627195
            ],
            [
              99.24944379074402,
              9.355548904634313
            ],
            [
              99.24906195794591,
              9.356600896908686
            ]
          ]
        ]
      }
    },
    {
      "type": "Feature",
      "properties": {
        "control_rank": 3,
        "role": "PSEUDO_PROJECT_VEGETATION_COMPARISON_WINDOW",
        "area_ha": 6.31,
        "user_confirmed_no_known_intervention": true,
        "design": {
          "median_project_interval_from_inland_m": 1497.1,
          "median_project_interval_to_seaward_m": 1620.7,
          "median_project_cross_shore_span_m": 123.6,
          "project_intersecting_transects_used": 20
        }
      },
      "geometry": {
        "type": "Polygon",
        "coordinates": [
          [
            [
              99.24465599242731,
              9.355463493557508
            ],
            [
              99.24562388751947,
              9.355720040382172
            ],
            [
              99.24562388751947,
              9.355720040382169
            ],
            [
              99.24641580269362,
              9.355929940336228
            ],
            [
              99.24641580269362,
              9.355929940336232
            ],
            [
              99.24738370024916,
              9.356186482287958
            ],
            [
              99.24738370024916,
              9.356186482287956
            ],
            [
              99.24817561743848,
              9.356396378254763
            ],
            [
              99.24817561743848,
              9.356396378254765
            ],
            [
              99.24914351745667,
              9.356652915332825
            ],
            [
              99.24943383411517,
              9.355572469578757
            ],
            [
              99.24855392751233,
              9.355339254804147
            ],
            [
              99.24855392751233,
              9.355339254804143
            ],
            [
              99.24758603154176,
              9.35508271599355
            ],
            [
              99.24758603154176,
              9.355082715993552
            ],
            [
              99.24679411766407,
              9.354872818609564
            ],
            [
              99.24679411766408,
              9.354872818609563
            ],
            [
              99.24582622415606,
              9.354616274926148
            ],
            [
              99.24494632214252,
              9.354383051070378
            ],
            [
              99.24465599242731,
              9.355463493557508
            ]
          ]
        ]
      }
    }
  ]
}
