{
  "type": "FeatureCollection",
  "features": [
    {
      "type": "Feature",
      "properties": {
        "year": 2017,
        "target_year": 2017,
        "actual_year": 2017,
        "sensor": "Sentinel-2A",
        "actual_acquisition_period": "2017-02-26 to 2017-04-27",
        "acquisition_period": "2017-02-26 to 2017-04-27",
        "scene_count": 3,
        "method": "MNDWI otsu, conservative morphology, edge-connected ocean exterior, corridor-guided continuous trace",
        "threshold": 0.17578,
        "mndwi_threshold": 0.17578,
        "threshold_candidates": {
          "otsu": {
            "threshold": 0.17578,
            "ocean_fraction": 0.4482
          },
          "fixed_zero": {
            "threshold": 0.0,
            "ocean_fraction": 0.4579
          },
          "percentile_60": {
            "threshold": 0.52572,
            "ocean_fraction": 0.3829
          }
        },
        "tide_status": "unverified",
        "source_resolution_m": 20,
        "interpretation": "image-derived water-land boundary, not a true/surveyed shoreline",
        "qa_status": "MVP automated extraction; visual review required",
        "segment_id": 1,
        "length_m": 5980.1
      },
      "geometry": {
        "type": "LineString",
        "coordinates": [
          [
            99.21636683597386,
            9.327796123234647
          ],
          [
            99.21673242823208,
            9.329966668349611
          ],
          [
            99.21746205775801,
            9.331775195860683
          ],
          [
            99.21764485901363,
            9.332860467582092
          ],
          [
            99.2181921449485,
            9.3343073101605
          ],
          [
            99.21837438696677,
            9.334488095532619
          ],
          [
            99.21910301799873,
            9.334668544609398
          ],
          [
            99.22010110491469,
            9.33466792831423
          ],
          [
            99.22219967923782,
            9.335390212044215
          ],
          [
            99.22347585647319,
            9.337379280936586
          ],
          [
            99.22365856422101,
            9.338283651680246
          ],
          [
            99.22420553674623,
            9.339187792702113
          ],
          [
            99.22493429635324,
            9.339549126506597
          ],
          [
            99.22522960501823,
            9.340272527862023
          ],
          [
            99.22548115784225,
            9.340272368372373
          ],
          [
            99.22675713781474,
            9.341899630141157
          ],
          [
            99.22730388948092,
            9.34244197197073
          ],
          [
            99.22848394561045,
            9.342983906251426
          ],
          [
            99.23003624844547,
            9.342982904726261
          ],
          [
            99.23222257280324,
            9.344066864432241
          ],
          [
            99.23349811559665,
            9.344970513152374
          ],
          [
            99.23401061291159,
            9.345151072873074
          ],
          [
            99.23459102628296,
            9.345122295387407
          ],
          [
            99.23459116638519,
            9.345331586905672
          ],
          [
            99.23568397602683,
            9.345330863588465
          ],
          [
            99.23586623271378,
            9.345511639529692
          ],
          [
            99.23623111251122,
            9.346415881538544
          ],
          [
            99.23750667398444,
            9.347319515281907
          ],
          [
            99.23859936640437,
            9.347137886075327
          ],
          [
            99.23914651476639,
            9.348222899130214
          ],
          [
            99.23932865115547,
            9.348222776437725
          ],
          [
            99.23914702970555,
            9.348977208967996
          ],
          [
            99.2391480174908,
            9.350423990554075
          ],
          [
            99.24188280829448,
            9.354371536106788
          ],
          [
            99.2444335196128,
            9.355455168790183
          ],
          [
            99.2469838634006,
            9.35599609298537
          ],
          [
            99.24825923053773,
            9.356537892941612
          ],
          [
            99.24953434358105,
            9.356717895154489
          ],
          [
            99.25026316492595,
            9.357079175073554
          ],
          [
            99.25117621993893,
            9.357259426490605
          ],
          [
            99.25339313521413,
            9.357257850199145
          ],
          [
            99.2539995923375,
            9.357438313124884
          ]
        ]
      }
    }
  ]
}
