{
  "type": "FeatureCollection",
  "features": [
    {
      "type": "Feature",
      "properties": {
        "year": 2018,
        "target_year": 2018,
        "actual_year": 2018,
        "sensor": "Sentinel-2A, Sentinel-2B",
        "actual_acquisition_period": "2018-02-01 to 2018-03-28",
        "acquisition_period": "2018-02-01 to 2018-03-28",
        "scene_count": 3,
        "method": "MNDWI otsu, conservative morphology, edge-connected ocean exterior, corridor-guided continuous trace",
        "threshold": 0.23047,
        "mndwi_threshold": 0.23047,
        "threshold_candidates": {
          "otsu": {
            "threshold": 0.23047,
            "ocean_fraction": 0.4602
          },
          "fixed_zero": {
            "threshold": 0.0,
            "ocean_fraction": 0.4679
          },
          "percentile_60": {
            "threshold": 0.71363,
            "ocean_fraction": 0.3971
          }
        },
        "tide_status": "unverified",
        "source_resolution_m": 20,
        "interpretation": "image-derived water-land boundary, not a true/surveyed shoreline",
        "qa_status": "MVP automated extraction; visual review required",
        "segment_id": 1,
        "length_m": 5927.5
      },
      "geometry": {
        "type": "LineString",
        "coordinates": [
          [
            99.21636683597386,
            9.327796123234647
          ],
          [
            99.21673220485644,
            9.329604873910034
          ],
          [
            99.21746183358616,
            9.331413401475372
          ],
          [
            99.21764474681906,
            9.332679570403572
          ],
          [
            99.21800967832381,
            9.333764730364521
          ],
          [
            99.21819203245407,
            9.334126413003283
          ],
          [
            99.21855651648606,
            9.334487983656087
          ],
          [
            99.22001536784181,
            9.337381439168515
          ],
          [
            99.22048803401829,
            9.337381146362862
          ],
          [
            99.22110826785391,
            9.337561658348815
          ],
          [
            99.22147264424311,
            9.337742328710874
          ],
          [
            99.22202951283084,
            9.338284672812513
          ],
          [
            99.22329464690313,
            9.338826571809888
          ],
          [
            99.22400896577692,
            9.338826122407834
          ],
          [
            99.2251177060123,
            9.341538878295275
          ],
          [
            99.22639275446053,
            9.341718965403505
          ],
          [
            99.22693927107875,
            9.341899513880454
          ],
          [
            99.22848382769841,
            9.342803009309778
          ],
          [
            99.22985399603894,
            9.342802125663466
          ],
          [
            99.23040051601303,
            9.342982668723307
          ],
          [
            99.23240470712325,
            9.344066745343133
          ],
          [
            99.23362527157803,
            9.344970429556573
          ],
          [
            99.23439595463437,
            9.345331715760038
          ],
          [
            99.23477366491242,
            9.345874157086223
          ],
          [
            99.23586661926299,
            9.346085927421093
          ],
          [
            99.23586694387329,
            9.346568165507158
          ],
          [
            99.23750667398444,
            9.347319515281907
          ],
          [
            99.2382495162766,
            9.347319017771206
          ],
          [
            99.23896388482596,
            9.347499434707998
          ],
          [
            99.23932850755054,
            9.348012565155528
          ],
          [
            99.23933013429884,
            9.350393537266992
          ],
          [
            99.2422470873921,
            9.354371287660046
          ],
          [
            99.24352244165479,
            9.354913105028398
          ],
          [
            99.2457086270895,
            9.35563518491362
          ],
          [
            99.24698373576084,
            9.355815196419902
          ],
          [
            99.24807696173285,
            9.356357123781295
          ],
          [
            99.24953434358105,
            9.356717895154489
          ],
          [
            99.25008102407958,
            9.357079303494155
          ],
          [
            99.25191532194941,
            9.357439799081684
          ],
          [
            99.25408838475467,
            9.357438249549437
          ]
        ]
      }
    }
  ]
}
