{
  "type": "FeatureCollection",
  "features": [
    {
      "type": "Feature",
      "properties": {
        "year": 2019,
        "target_year": 2019,
        "actual_year": 2019,
        "sensor": "Sentinel-2A, Sentinel-2B",
        "actual_acquisition_period": "2019-02-11 to 2019-04-17",
        "acquisition_period": "2019-02-11 to 2019-04-17",
        "scene_count": 3,
        "method": "MNDWI otsu, conservative morphology, edge-connected ocean exterior, corridor-guided continuous trace",
        "threshold": 0.18359,
        "mndwi_threshold": 0.18359,
        "threshold_candidates": {
          "otsu": {
            "threshold": 0.18359,
            "ocean_fraction": 0.4601
          },
          "fixed_zero": {
            "threshold": 0.0,
            "ocean_fraction": 0.4656
          },
          "percentile_60": {
            "threshold": 0.68691,
            "ocean_fraction": 0.3882
          }
        },
        "tide_status": "unverified",
        "source_resolution_m": 20,
        "interpretation": "image-derived water-land boundary, not a true/surveyed shoreline",
        "qa_status": "MVP automated extraction; visual review required",
        "segment_id": 1,
        "length_m": 5973.5
      },
      "geometry": {
        "type": "LineString",
        "coordinates": [
          [
            99.21636672449971,
            9.32761522598937
          ],
          [
            99.21673209317201,
            9.329423976687494
          ],
          [
            99.21746172150364,
            9.331232504279962
          ],
          [
            99.21800967832381,
            9.333764730364521
          ],
          [
            99.21837438696677,
            9.334488095532619
          ],
          [
            99.2185600977161,
            9.334487981455315
          ],
          [
            99.22001536784181,
            9.337381439168515
          ],
          [
            99.22048803401829,
            9.337381146362862
          ],
          [
            99.22147264424311,
            9.337742328710874
          ],
          [
            99.22202951283084,
            9.338284672812513
          ],
          [
            99.22256599769963,
            9.338634268002059
          ],
          [
            99.22329464690313,
            9.338826571809888
          ],
          [
            99.22400896577692,
            9.338826122407834
          ],
          [
            99.2251177060123,
            9.341538878295275
          ],
          [
            99.22639275446053,
            9.341718965403505
          ],
          [
            99.22848382769841,
            9.342803009309778
          ],
          [
            99.22985399603894,
            9.342802125663466
          ],
          [
            99.23240470712325,
            9.344066745343133
          ],
          [
            99.23362527157803,
            9.344970429556573
          ],
          [
            99.23439595463437,
            9.345331715760038
          ],
          [
            99.23532019206368,
            9.346054692368856
          ],
          [
            99.23586661926299,
            9.346085927421093
          ],
          [
            99.23586694387329,
            9.346568165507158
          ],
          [
            99.23750667398444,
            9.347319515281907
          ],
          [
            99.2382495162766,
            9.347319017771206
          ],
          [
            99.23896388482596,
            9.347499434707998
          ],
          [
            99.23914651476639,
            9.348222899130214
          ],
          [
            99.23932865115547,
            9.348222776437725
          ],
          [
            99.23914702970555,
            9.348977208967996
          ],
          [
            99.2391480174908,
            9.350423990554075
          ],
          [
            99.2422470873921,
            9.354371287660046
          ],
          [
            99.24461565969203,
            9.355455043290176
          ],
          [
            99.24698373576084,
            9.355815196419902
          ],
          [
            99.24807696173285,
            9.356357123781295
          ],
          [
            99.24953434358105,
            9.356717895154489
          ],
          [
            99.25026316492595,
            9.357079175073554
          ],
          [
            99.25117621993893,
            9.357259426490605
          ],
          [
            99.25339313521413,
            9.357257850199145
          ],
          [
            99.25408838475467,
            9.357438249549437
          ]
        ]
      }
    }
  ]
}
