{
  "type": "FeatureCollection",
  "features": [
    {
      "type": "Feature",
      "properties": {
        "year": 2020,
        "target_year": 2020,
        "actual_year": 2020,
        "sensor": "Sentinel-2A, Sentinel-2B",
        "actual_acquisition_period": "2020-02-26 to 2020-04-11",
        "acquisition_period": "2020-02-26 to 2020-04-11",
        "scene_count": 3,
        "method": "MNDWI otsu, conservative morphology, edge-connected ocean exterior, corridor-guided continuous trace",
        "threshold": 0.19922,
        "mndwi_threshold": 0.19922,
        "threshold_candidates": {
          "otsu": {
            "threshold": 0.19922,
            "ocean_fraction": 0.4613
          },
          "fixed_zero": {
            "threshold": 0.0,
            "ocean_fraction": 0.4673
          },
          "percentile_60": {
            "threshold": 0.71292,
            "ocean_fraction": 0.3971
          }
        },
        "tide_status": "unverified",
        "source_resolution_m": 20,
        "interpretation": "image-derived water-land boundary, not a true/surveyed shoreline",
        "qa_status": "MVP automated extraction; visual review required",
        "segment_id": 1,
        "length_m": 5966.0
      },
      "geometry": {
        "type": "LineString",
        "coordinates": [
          [
            99.21636683597386,
            9.327796123234647
          ],
          [
            99.21673220485644,
            9.329604873910034
          ],
          [
            99.21746194567095,
            9.331594298668945
          ],
          [
            99.21764474681906,
            9.332679570403572
          ],
          [
            99.21800967832381,
            9.333764730364521
          ],
          [
            99.22001536784181,
            9.337381439168515
          ],
          [
            99.22048803401829,
            9.337381146362862
          ],
          [
            99.22147264424311,
            9.337742328710874
          ],
          [
            99.22202951283084,
            9.338284672812513
          ],
          [
            99.22256599769963,
            9.338634268002059
          ],
          [
            99.2231958259047,
            9.338826633868484
          ],
          [
            99.22384104202987,
            9.338826228183368
          ],
          [
            99.22438905781908,
            9.34135844201845
          ],
          [
            99.22563710792866,
            9.341719445972833
          ],
          [
            99.22675713781474,
            9.341899630141157
          ],
          [
            99.2273037721848,
            9.342261075008667
          ],
          [
            99.22912546124137,
            9.342802596166457
          ],
          [
            99.22967186234315,
            9.34280224342924
          ],
          [
            99.23021838223046,
            9.342982786771461
          ],
          [
            99.23204031871926,
            9.343886086542758
          ],
          [
            99.23331586038945,
            9.344789735953864
          ],
          [
            99.23401061291159,
            9.345151072873074
          ],
          [
            99.23459140858192,
            9.345693380578904
          ],
          [
            99.23532019206368,
            9.346054692368856
          ],
          [
            99.23586661926299,
            9.346085927421093
          ],
          [
            99.23586694387329,
            9.346568165507158
          ],
          [
            99.23750667398444,
            9.347319515281907
          ],
          [
            99.2382495162766,
            9.347319017771206
          ],
          [
            99.23878174880808,
            9.347499557204028
          ],
          [
            99.23914651476639,
            9.348222899130214
          ],
          [
            99.23932865115547,
            9.348222776437725
          ],
          [
            99.23914702970555,
            9.348977208967996
          ],
          [
            99.2391480174908,
            9.350423990554075
          ],
          [
            99.24188280829448,
            9.354371536106788
          ],
          [
            99.24297589665694,
            9.354732582912321
          ],
          [
            99.2444335196128,
            9.355455168790183
          ],
          [
            99.24516220660779,
            9.355635562823268
          ],
          [
            99.24673026544839,
            9.35581537274105
          ],
          [
            99.24844137112771,
            9.356537765463493
          ],
          [
            99.24953434358105,
            9.356717895154489
          ],
          [
            99.25008102407958,
            9.357079303494155
          ],
          [
            99.25135613986645,
            9.357259299078741
          ],
          [
            99.25191532194941,
            9.357439799081684
          ],
          [
            99.25228480802502,
            9.35743953655365
          ],
          [
            99.25281326717034,
            9.357258263839933
          ],
          [
            99.25339313521413,
            9.357257850199145
          ],
          [
            99.2539995923375,
            9.357438313124884
          ]
        ]
      }
    }
  ]
}
