{
  "type": "FeatureCollection",
  "features": [
    {
      "type": "Feature",
      "properties": {
        "year": 2021,
        "target_year": 2021,
        "actual_year": 2021,
        "sensor": "Sentinel-2A, Sentinel-2B",
        "actual_acquisition_period": "2021-02-20 to 2021-04-26",
        "acquisition_period": "2021-02-20 to 2021-04-26",
        "scene_count": 3,
        "method": "MNDWI otsu, conservative morphology, edge-connected ocean exterior, corridor-guided continuous trace",
        "threshold": 0.22266,
        "mndwi_threshold": 0.22266,
        "threshold_candidates": {
          "otsu": {
            "threshold": 0.22266,
            "ocean_fraction": 0.4604
          },
          "fixed_zero": {
            "threshold": 0.0,
            "ocean_fraction": 0.4698
          },
          "percentile_60": {
            "threshold": 0.6856,
            "ocean_fraction": 0.3992
          }
        },
        "tide_status": "unverified",
        "source_resolution_m": 20,
        "interpretation": "image-derived water-land boundary, not a true/surveyed shoreline",
        "qa_status": "MVP automated extraction; visual review required",
        "segment_id": 1,
        "length_m": 5957.0
      },
      "geometry": {
        "type": "LineString",
        "coordinates": [
          [
            99.21636683597386,
            9.327796123234647
          ],
          [
            99.21673231654313,
            9.329785771130743
          ],
          [
            99.21746194567095,
            9.331594298668945
          ],
          [
            99.21764474681906,
            9.332679570403572
          ],
          [
            99.21800967832381,
            9.333764730364521
          ],
          [
            99.21837438696677,
            9.334488095532619
          ],
          [
            99.21910301799873,
            9.334668544609398
          ],
          [
            99.22001536784181,
            9.337381439168515
          ],
          [
            99.22048803401829,
            9.337381146362862
          ],
          [
            99.22110826785391,
            9.337561658348815
          ],
          [
            99.22147264424311,
            9.337742328710874
          ],
          [
            99.22202951283084,
            9.338284672812513
          ],
          [
            99.22280019771395,
            9.338645984916878
          ],
          [
            99.2229307284695,
            9.339369491576793
          ],
          [
            99.2232952228474,
            9.339731057026691
          ],
          [
            99.2242068091197,
            9.341177659953726
          ],
          [
            99.22457119083177,
            9.341358326977995
          ],
          [
            99.22604368115655,
            9.3417191876037
          ],
          [
            99.22657488763528,
            9.341718849331775
          ],
          [
            99.22693927107875,
            9.341899513880454
          ],
          [
            99.2273037721848,
            9.342261075008667
          ],
          [
            99.22848382769841,
            9.342803009309778
          ],
          [
            99.22985399603894,
            9.342802125663466
          ],
          [
            99.23040051601303,
            9.342982668723307
          ],
          [
            99.23276909589597,
            9.344247403758823
          ],
          [
            99.23362527157803,
            9.344970429556573
          ],
          [
            99.23459128748235,
            9.345512483743208
          ],
          [
            99.2353200705831,
            9.345873795546328
          ],
          [
            99.23555198213784,
            9.345873641843498
          ],
          [
            99.2360487545847,
            9.346085806438087
          ],
          [
            99.23604907944566,
            9.346568044517802
          ],
          [
            99.23750667398444,
            9.347319515281907
          ],
          [
            99.23823521773461,
            9.347319027362166
          ],
          [
            99.23896388482596,
            9.347499434707998
          ],
          [
            99.23914651476639,
            9.348222899130214
          ],
          [
            99.23932865115547,
            9.348222776437725
          ],
          [
            99.23914702970555,
            9.348977208967996
          ],
          [
            99.2391480174908,
            9.350423990554075
          ],
          [
            99.24206494784455,
            9.354371411930153
          ],
          [
            99.2447977997687,
            9.355454917696687
          ],
          [
            99.24534434677092,
            9.355635436946866
          ],
          [
            99.24698373576084,
            9.355815196419902
          ],
          [
            99.24807696173285,
            9.356357123781295
          ],
          [
            99.24953434358105,
            9.356717895154489
          ],
          [
            99.25026316492595,
            9.357079175073554
          ],
          [
            99.25117621993893,
            9.357259426490605
          ],
          [
            99.25339313521413,
            9.357257850199145
          ],
          [
            99.25408838475467,
            9.357438249549437
          ]
        ]
      }
    }
  ]
}
