{
  "type": "FeatureCollection",
  "features": [
    {
      "type": "Feature",
      "properties": {
        "year": 2024,
        "target_year": 2024,
        "actual_year": 2024,
        "sensor": "Sentinel-2A, Sentinel-2B",
        "actual_acquisition_period": "2024-02-25 to 2024-04-20",
        "acquisition_period": "2024-02-25 to 2024-04-20",
        "scene_count": 3,
        "method": "MNDWI otsu, conservative morphology, edge-connected ocean exterior, corridor-guided continuous trace",
        "threshold": 0.03516,
        "mndwi_threshold": 0.03516,
        "threshold_candidates": {
          "otsu": {
            "threshold": 0.03516,
            "ocean_fraction": 0.4642
          },
          "fixed_zero": {
            "threshold": 0.0,
            "ocean_fraction": 0.4683
          },
          "percentile_60": {
            "threshold": 0.21245,
            "ocean_fraction": 0.3971
          }
        },
        "tide_status": "unverified",
        "source_resolution_m": 20,
        "interpretation": "image-derived water-land boundary, not a true/surveyed shoreline",
        "qa_status": "MVP automated extraction; visual review required",
        "segment_id": 1,
        "length_m": 6020.1
      },
      "geometry": {
        "type": "LineString",
        "coordinates": [
          [
            99.21636705892894,
            9.3281579177197
          ],
          [
            99.21654996625854,
            9.329424087570114
          ],
          [
            99.21727959366065,
            9.331232615557392
          ],
          [
            99.21764497121046,
            9.333041364758769
          ],
          [
            99.2181921449485,
            9.3343073101605
          ],
          [
            99.21837438696677,
            9.334488095532619
          ],
          [
            99.21910301799873,
            9.334668544609398
          ],
          [
            99.21983335021895,
            9.33756244893095
          ],
          [
            99.22019749884319,
            9.337381326417031
          ],
          [
            99.22048803401829,
            9.337381146362862
          ],
          [
            99.22147264424311,
            9.337742328710874
          ],
          [
            99.22202951283084,
            9.338284672812513
          ],
          [
            99.22256599769963,
            9.338634268002059
          ],
          [
            99.2231958259047,
            9.338826633868484
          ],
          [
            99.22384104202987,
            9.338826228183368
          ],
          [
            99.22457130670641,
            9.341539223983467
          ],
          [
            99.22604379779554,
            9.34190008458711
          ],
          [
            99.22657500454838,
            9.341899746308517
          ],
          [
            99.2271217559397,
            9.342442088424997
          ],
          [
            99.22848394561045,
            9.342983906251426
          ],
          [
            99.23003624844547,
            9.342982904726261
          ],
          [
            99.23222257280324,
            9.344066864432241
          ],
          [
            99.23349811559665,
            9.344970513152374
          ],
          [
            99.23422689648504,
            9.345331827264395
          ],
          [
            99.23459140858192,
            9.345693380578904
          ],
          [
            99.2347740285153,
            9.346416847569637
          ],
          [
            99.23732466057534,
            9.347500533809916
          ],
          [
            99.2380530818008,
            9.347319149482196
          ],
          [
            99.23805320471159,
            9.347500046254163
          ],
          [
            99.23878174880808,
            9.347499557204028
          ],
          [
            99.23914637127075,
            9.34801268784521
          ],
          [
            99.2391480174908,
            9.350423990554075
          ],
          [
            99.24188280829448,
            9.354371536106788
          ],
          [
            99.2449800664421,
            9.35563568860619
          ],
          [
            99.2469838634006,
            9.35599609298537
          ],
          [
            99.24825923053773,
            9.356537892941612
          ],
          [
            99.2504454352162,
            9.357259943064323
          ],
          [
            99.25117634976574,
            9.357440322983466
          ],
          [
            99.25339326618678,
            9.357438746661003
          ],
          [
            99.25408851608925,
            9.35761914599968
          ]
        ]
      }
    }
  ]
}
