{
  "type": "FeatureCollection",
  "name": "krabi_province_boundary",
  "features": [
    {
      "type": "Feature",
      "properties": {
        "pro_code": "81",
        "pro_th": "กระบี่",
        "pro_en": "Krabi",
        "reg_nesdb": "South",
        "reg_royin": "South",
        "perimeter": 777.02456363084,
        "area_sqkm": 5319.41524737463,
        "source": "OpenGISData-Thailand/provinces.geojson",
        "source_url": "https://raw.githubusercontent.com/chingchai/OpenGISData-Thailand/refs/heads/master/provinces.geojson",
        "usage": "province-wide visualization and analysis AOI",
        "official_cadastral_boundary": false
      },
      "geometry": {
        "type": "MultiPolygon",
        "coordinates": [
          [
            [
              [
                99.06119942874304,
                7.215490014497264
              ],
              [
                99.06839565646888,
                7.20896686404131
              ],
              [
                99.05911732384271,
                7.196756682899066
              ],
              [
                99.05409192421702,
                7.198525788789636
              ],
              [
                99.05262642924016,
                7.204832688086967
              ],
              [
                99.0572631224718,
                7.215432857460184
              ],
              [
                99.06119942874304,
                7.215490014497264
              ]
            ]
          ],
          [
            [
              [
                99.07931717303927,
                7.229542363890983
              ],
              [
                99.08562708219252,
                7.223090901894731
              ],
              [
                99.08281745163843,
                7.219063713786447
              ],
              [
                99.06856570379342,
                7.214135468349528
              ],
              [
                99.06142919372562,
                7.219067656968977
              ],
              [
                99.0720774379176,
                7.228711904195637
              ],
              [
                99.07931717303927,
                7.229542363890983
              ]
            ]
          ],
          [
            [
              [
                99.21761423698537,
                7.406435300888598
              ],
              [
                99.21847612645477,
                7.402739098476968
              ],
              [
                99.21136908523823,
                7.406200290456869
              ],
              [
                99.20966035401312,
                7.402595207962668
              ],
              [
                99.19922683961104,
                7.401979790395637
              ],
              [
                99.20140117527993,
                7.435161135648072
              ],
              [
                99.21761423698537,
                7.406435300888598
              ]
            ]
          ],
          [
            [
              [
                99.12333994783515,
                7.542447156090856
              ],
              [
                99.1363557094435,
                7.535122982325556
              ],
              [
                99.13516469739558,
                7.524556724183226
              ],
              [
                99.11699613952322,
                7.542720272591312
              ],
              [
                99.12333994783515,
                7.542447156090856
              ]
            ]
          ],
          [
            [
              [
                99.14592497317477,
                7.5602717184688
              ],
              [
                99.14278155089495,
                7.559943717680817
              ],
              [
                99.14293369312905,
                7.56344834441295
              ],
              [
                99.14592497317477,
                7.5602717184688
              ]
            ]
          ],
          [
            [
              [
                99.14275804009117,
                7.57287523811938
              ],
              [
                99.14120454784035,
                7.573993463815078
              ],
              [
                99.14062146421499,
                7.579900546604334
              ],
              [
                99.14275804009117,
                7.57287523811938
              ]
            ]
          ],
          [
            [
              [
                99.11813981652459,
                7.493854486636797
              ],
              [
                99.12010967648679,
                7.499765962204672
              ],
              [
                99.12206901968082,
                7.495184846476691
              ],
              [
                99.11813981652459,
                7.493854486636797
              ]
            ]
          ],
          [
            [
              [
                98.8645435768083,
                7.612159979060424
              ],
              [
                98.86241235757869,
                7.616929819252888
              ],
              [
                98.86513298057132,
                7.616362486682015
              ],
              [
                98.8645435768083,
                7.612159979060424
              ]
            ]
          ],
          [
            [
              [
                99.07542962009879,
                7.570784985215614
              ],
              [
                99.08029187807954,
                7.550038694442869
              ],
              [
                99.09444323418104,
                7.532811513783144
              ],
              [
                99.11058516860246,
                7.498148126421875
              ],
              [
                99.10946314104937,
                7.481852350072055
              ],
              [
                99.0985140582512,
                7.467318837788869
              ],
              [
                99.08974402827836,
                7.474247558019094
              ],
              [
                99.08842920489424,
                7.482308229969319
              ],
              [
                99.06686937294893,
                7.500305326489666
              ],
              [
                99.03510574170885,
                7.564581280876808
              ],
              [
                99.03053152718785,
                7.589059008590367
              ],
              [
                99.03359735305112,
                7.602613909731749
              ],
              [
                99.02681323848591,
                7.622067355140943
              ],
              [
                99.03215453712153,
                7.626658293246789
              ],
              [
                99.03160361452876,
                7.632564664773802
              ],
              [
                99.02706816504822,
                7.643556159656149
              ],
              [
                99.01905166788856,
                7.64385001060316
              ],
              [
                99.01970244019766,
                7.648761838001352
              ],
              [
                99.02655205804562,
                7.645759404335571
              ],
              [
                99.03861762366228,
                7.64981495838066
              ],
              [
                99.04820442814786,
                7.643807599654028
              ],
              [
                99.0588870298197,
                7.613840997588256
              ],
              [
                99.06181597998292,
                7.611830729742551
              ],
              [
                99.06503076655164,
                7.617321615936899
              ],
              [
                99.06615933845917,
                7.608747737029457
              ],
              [
                99.07948549749865,
                7.597034032135813
              ],
              [
                99.07542962009879,
                7.570784985215614
              ]
            ]
          ],
          [
            [
              [
                99.14694075283116,
                7.582645549040674
              ],
              [
                99.14155278080015,
                7.588077627615368
              ],
              [
                99.1420127143066,
                7.594531637052649
              ],
              [
                99.14837812866878,
                7.589857369562771
              ],
              [
                99.14694075283116,
                7.582645549040674
              ]
            ]
          ],
          [
            [
              [
                99.14940059703835,
                7.608799422115659
              ],
              [
                99.14681491034891,
                7.612519809299191
              ],
              [
                99.14914452378724,
                7.617945340757907
              ],
              [
                99.14940059703835,
                7.608799422115659
              ]
            ]
          ],
          [
            [
              [
                99.14551976657654,
                7.615587890206085
              ],
              [
                99.13993241946217,
                7.640884499
              ],
              [
                99.1463186252306,
                7.638641863860379
              ],
              [
                99.14962161653585,
                7.630127548843115
              ],
              [
                99.14551976657654,
                7.615587890206085
              ]
            ]
          ],
          [
            [
              [
                99.06933016472179,
                7.687472579375077
              ],
              [
                99.0924018930584,
                7.679260912741018
              ],
              [
                99.10938075480065,
                7.686236852412638
              ],
              [
                99.12156131311816,
                7.670427270926909
              ],
              [
                99.12999993583588,
                7.642352449163595
              ],
              [
                99.11747630470289,
                7.625336996861243
              ],
              [
                99.11940901207286,
                7.614579351889726
              ],
              [
                99.12454257345613,
                7.610992955553655
              ],
              [
                99.11968362017204,
                7.588229492437709
              ],
              [
                99.11539636317805,
                7.586993640254589
              ],
              [
                99.11710980772989,
                7.597606145908434
              ],
              [
                99.11002202520605,
                7.602151241604311
              ],
              [
                99.09061565452521,
                7.605686408347752
              ],
              [
                99.08748017898104,
                7.595678454079471
              ],
              [
                99.07873344043335,
                7.600837357508661
              ],
              [
                99.06768869877672,
                7.612496979368301
              ],
              [
                99.0646664730927,
                7.619593858179759
              ],
              [
                99.0575780259142,
                7.623941922501984
              ],
              [
                99.05098499509704,
                7.647551665421818
              ],
              [
                99.03793664031572,
                7.654988635033835
              ],
              [
                99.04107285759727,
                7.665307874500544
              ],
              [
                99.03864564691344,
                7.684074666037997
              ],
              [
                99.06933016472179,
                7.687472579375077
              ]
            ]
          ],
          [
            [
              [
                98.77247456765892,
                7.76239863437667
              ],
              [
                98.78060348180972,
                7.75751315708973
              ],
              [
                98.79163879311987,
                7.728522215073167
              ],
              [
                98.76806280439368,
                7.738262428291165
              ],
              [
                98.76888195712857,
                7.717696974041994
              ],
              [
                98.75584970550672,
                7.732346537758177
              ],
              [
                98.7584715175291,
                7.745582395126608
              ],
              [
                98.76511689756828,
                7.745373535067184
              ],
              [
                98.76785628831323,
                7.739666089984697
              ],
              [
                98.773865626383,
                7.743709904979265
              ],
              [
                98.77187652934329,
                7.750880361639626
              ],
              [
                98.75962602864541,
                7.760707946619693
              ],
              [
                98.75826530950299,
                7.765254876131586
              ],
              [
                98.76316135952725,
                7.762191155348713
              ],
              [
                98.7658674080274,
                7.76475822687282
              ],
              [
                98.75660040875685,
                7.787574615174329
              ],
              [
                98.77247456765892,
                7.76239863437667
              ]
            ]
          ],
          [
            [
              [
                99.13001958084061,
                7.733012778877992
              ],
              [
                99.1221000553856,
                7.736047128338038
              ],
              [
                99.1233857952352,
                7.742720237084017
              ],
              [
                99.13001958084061,
                7.733012778877992
              ]
            ]
          ],
          [
            [
              [
                99.1290279528247,
                7.742273631729612
              ],
              [
                99.12475223973838,
                7.745165574303861
              ],
              [
                99.12532168391013,
                7.750238922226296
              ],
              [
                99.1290279528247,
                7.742273631729612
              ]
            ]
          ],
          [
            [
              [
                98.99428877900458,
                7.804834673101555
              ],
              [
                98.99671117512275,
                7.796824721281777
              ],
              [
                98.99318934600915,
                7.801328312954571
              ],
              [
                98.99428877900458,
                7.804834673101555
              ]
            ]
          ],
          [
            [
              [
                98.99232390977589,
                7.805839280427779
              ],
              [
                98.9877911950747,
                7.809671162583149
              ],
              [
                98.99260079121476,
                7.808432011958869
              ],
              [
                98.99232390977589,
                7.805839280427779
              ]
            ]
          ],
          [
            [
              [
                98.79645006550781,
                7.814833214519511
              ],
              [
                98.79287208545054,
                7.818803645915031
              ],
              [
                98.79735973457245,
                7.820558417179857
              ],
              [
                98.79645006550781,
                7.814833214519511
              ]
            ]
          ],
          [
            [
              [
                98.76515592885369,
                7.695191559092217
              ],
              [
                98.77086503281284,
                7.679277059379927
              ],
              [
                98.76362143893401,
                7.673218179060652
              ],
              [
                98.76138127212263,
                7.676690487187905
              ],
              [
                98.76556752842116,
                7.676842608235336
              ],
              [
                98.7654490848887,
                7.680460254505112
              ],
              [
                98.76119729171334,
                7.683435075021934
              ],
              [
                98.76575429512462,
                7.689196859429694
              ],
              [
                98.76464796235703,
                7.69960500819623
              ],
              [
                98.76515592885369,
                7.695191559092217
              ]
            ]
          ],
          [
            [
              [
                99.11940373998527,
                7.696455867988941
              ],
              [
                99.11237388398577,
                7.715010569948842
              ],
              [
                99.11969781721656,
                7.705317779793817
              ],
              [
                99.11940373998527,
                7.696455867988941
              ]
            ]
          ],
          [
            [
              [
                99.03382557702399,
                7.818774486683392
              ],
              [
                99.03860214826587,
                7.819406711294824
              ],
              [
                99.03372648127196,
                7.820192974314036
              ],
              [
                99.02619689699316,
                7.836406226317547
              ],
              [
                99.034539213529,
                7.838154271580683
              ],
              [
                99.04723621372439,
                7.859544393775611
              ],
              [
                99.05626339161137,
                7.865373788788603
              ],
              [
                99.07656564609746,
                7.887179125455384
              ],
              [
                99.08362091288976,
                7.909921955688744
              ],
              [
                99.08044573920945,
                7.918382526759737
              ],
              [
                99.07157441741144,
                7.915794258862004
              ],
              [
                99.06992977568618,
                7.922915727819463
              ],
              [
                99.0643775922788,
                7.921824359917487
              ],
              [
                99.05064558331918,
                7.896185762337921
              ],
              [
                99.03182776453531,
                7.885631884297217
              ],
              [
                99.01989009016789,
                7.891390757544237
              ],
              [
                99.01418429201917,
                7.917021884367091
              ],
              [
                99.00347006095267,
                7.927338119220791
              ],
              [
                99.00165863181333,
                7.937969034560098
              ],
              [
                98.99293584653148,
                7.941257071677303
              ],
              [
                98.97818794022801,
                7.939371107358686
              ],
              [
                98.97194994932123,
                7.933345199979864
              ],
              [
                98.94132049313244,
                7.990320474267308
              ],
              [
                98.9512732972587,
                7.997773663954436
              ],
              [
                98.96515327783791,
                7.984713748678734
              ],
              [
                98.9820926575143,
                7.995407325732911
              ],
              [
                98.98478084740616,
                8.006155895562783
              ],
              [
                98.98164256064142,
                8.015793875256062
              ],
              [
                98.97124777906274,
                8.004455729114575
              ],
              [
                98.96564934835513,
                8.007153722620158
              ],
              [
                98.96798700499991,
                8.009894732745154
              ],
              [
                98.95945294909403,
                8.013684096105207
              ],
              [
                98.96317350166014,
                8.01518036411868
              ],
              [
                98.95919287560618,
                8.025294680212733
              ],
              [
                98.95400565687648,
                8.002069516837919
              ],
              [
                98.93749842404583,
                7.992680256171681
              ],
              [
                98.92392811431033,
                7.970455143942153
              ],
              [
                98.89395432983636,
                7.936984253962764
              ],
              [
                98.8764635910705,
                7.972013132828819
              ],
              [
                98.85828222552651,
                7.995329145113303
              ],
              [
                98.85603948675701,
                8.021813865695632
              ],
              [
                98.84229338025835,
                8.012330192346498
              ],
              [
                98.84491947065894,
                8.006135525859523
              ],
              [
                98.84027470256993,
                8.003136273175887
              ],
              [
                98.83587959666333,
                8.016318488110725
              ],
              [
                98.82684423905478,
                8.0167693326898
              ],
              [
                98.82969980394739,
                8.023351744549386
              ],
              [
                98.82632224511131,
                8.028574152420104
              ],
              [
                98.81495904134425,
                8.040471466785625
              ],
              [
                98.79859876078787,
                8.04773696472875
              ],
              [
                98.77342066795771,
                8.041570055354871
              ],
              [
                98.7735926568701,
                8.022913155730134
              ],
              [
                98.76482188511045,
                8.021085565780828
              ],
              [
                98.76308862727704,
                8.041056550147355
              ],
              [
                98.74977115896642,
                8.054797282592018
              ],
              [
                98.7434396463164,
                8.066654297144572
              ],
              [
                98.74476362648785,
                8.073843474603436
              ],
              [
                98.73998133655007,
                8.077893414590312
              ],
              [
                98.74711506770132,
                8.089074168111216
              ],
              [
                98.74725704712922,
                8.114741974959847
              ],
              [
                98.74206433205882,
                8.115334591869997
              ],
              [
                98.72473979786437,
                8.0997571222504
              ],
              [
                98.69808145648791,
                8.049610542925306
              ],
              [
                98.66746991756509,
                8.037222319143263
              ],
              [
                98.67220043497798,
                8.094212462833529
              ],
              [
                98.66313788249965,
                8.130623091966958
              ],
              [
                98.66560565112148,
                8.133514008698882
              ],
              [
                98.67800277309651,
                8.12856655784408
              ],
              [
                98.68917798392704,
                8.13416363520456
              ],
              [
                98.69564878994098,
                8.144652194781793
              ],
              [
                98.67744852977569,
                8.18515649921447
              ],
              [
                98.65810448904719,
                8.210005211518899
              ],
              [
                98.63685167418674,
                8.219473491038903
              ],
              [
                98.62306639896296,
                8.233077997689039
              ],
              [
                98.60943141833357,
                8.266036254857859
              ],
              [
                98.60359348709467,
                8.300775725191311
              ],
              [
                98.60546257123832,
                8.316326978074231
              ],
              [
                98.62208349470124,
                8.354950077846679
              ],
              [
                98.63333635765963,
                8.373709827406989
              ],
              [
                98.65899289026062,
                8.380160616317244
              ],
              [
                98.66258648721154,
                8.385274297173675
              ],
              [
                98.64285921791699,
                8.413399045252822
              ],
              [
                98.6506459584718,
                8.421669459562471
              ],
              [
                98.66300280258197,
                8.42549735940476
              ],
              [
                98.66481081563076,
                8.432090654345076
              ],
              [
                98.66292940343942,
                8.44500965173542
              ],
              [
                98.66811756415271,
                8.45989581397724
              ],
              [
                98.66454369175395,
                8.459041945957651
              ],
              [
                98.66454966060867,
                8.465925396623934
              ],
              [
                98.6606750816528,
                8.46604755619299
              ],
              [
                98.64813963938785,
                8.48430617142904
              ],
              [
                98.65378808310277,
                8.483507328369914
              ],
              [
                98.67563305778093,
                8.518046754910241
              ],
              [
                98.6823258685413,
                8.550763284606981
              ],
              [
                98.69086398204018,
                8.575749189626166
              ],
              [
                98.70747454864873,
                8.597150171004028
              ],
              [
                98.70318147838971,
                8.607442621400475
              ],
              [
                98.70372888716304,
                8.631733990303447
              ],
              [
                98.72166933801913,
                8.629472548772693
              ],
              [
                98.74561127155874,
                8.672693183403021
              ],
              [
                98.76039692070941,
                8.672344327011057
              ],
              [
                98.77019642870081,
                8.658880844622994
              ],
              [
                98.79550200611348,
                8.640570623112222
              ],
              [
                98.79973690955224,
                8.64509493223093
              ],
              [
                98.79971777085079,
                8.655516205634333
              ],
              [
                98.84414112545677,
                8.65514510361317
              ],
              [
                98.8754781719153,
                8.659411266333661
              ],
              [
                98.8907366240094,
                8.667551048826672
              ],
              [
                98.91033048563907,
                8.617265310927172
              ],
              [
                98.91809426274729,
                8.609274360428357
              ],
              [
                98.91490484543286,
                8.602501537635476
              ],
              [
                98.91935649463858,
                8.592866381313936
              ],
              [
                98.93575876045846,
                8.585253846213242
              ],
              [
                98.93540673536653,
                8.557538813010103
              ],
              [
                98.93338705953809,
                8.54130090680057
              ],
              [
                98.94116935663455,
                8.532608430337062
              ],
              [
                98.94279711148285,
                8.50711087136172
              ],
              [
                98.95016276343331,
                8.492251999998402
              ],
              [
                98.94834606430759,
                8.47182894397508
              ],
              [
                98.94058475183462,
                8.456482305883588
              ],
              [
                98.93909338009996,
                8.43852296907724
              ],
              [
                98.94713835587936,
                8.425447844775832
              ],
              [
                98.97003942551072,
                8.417248313409951
              ],
              [
                99.00948027138516,
                8.382958633261785
              ],
              [
                99.03425633795095,
                8.365311842932305
              ],
              [
                99.05225805700805,
                8.360072554988562
              ],
              [
                99.11879276679142,
                8.36693327818459
              ],
              [
                99.15167399223095,
                8.360991625311472
              ],
              [
                99.1754426133584,
                8.373281308139982
              ],
              [
                99.20320342742622,
                8.367087172304894
              ],
              [
                99.20178885354923,
                8.35839526188647
              ],
              [
                99.20905880808719,
                8.337398225809451
              ],
              [
                99.22068027792803,
                8.325351362719381
              ],
              [
                99.26331965439978,
                8.301924971639712
              ],
              [
                99.27526573012281,
                8.30065676236936
              ],
              [
                99.29224226857053,
                8.312630359710049
              ],
              [
                99.2994322291259,
                8.315972929827694
              ],
              [
                99.29848364253903,
                8.30678807407358
              ],
              [
                99.30303196835061,
                8.30714701914877
              ],
              [
                99.317566049699,
                8.294376657038546
              ],
              [
                99.32462308420533,
                8.296367171222546
              ],
              [
                99.33076608769197,
                8.291197795132536
              ],
              [
                99.33576144542097,
                8.269397725936651
              ],
              [
                99.33273791923482,
                8.262265727241697
              ],
              [
                99.33344518874445,
                8.257700059050846
              ],
              [
                99.32219034502255,
                8.251468528868942
              ],
              [
                99.31242607568566,
                8.235090542841736
              ],
              [
                99.32165586802924,
                8.209388705026429
              ],
              [
                99.31694495590854,
                8.195067352852046
              ],
              [
                99.30547239705163,
                8.19010348385043
              ],
              [
                99.30695806895797,
                8.174756241819319
              ],
              [
                99.2898751577802,
                8.165658959837815
              ],
              [
                99.28855590076938,
                8.15129121642678
              ],
              [
                99.29884393025642,
                8.141392579528425
              ],
              [
                99.2969579445288,
                8.131982176756074
              ],
              [
                99.34494600364785,
                8.136050343699466
              ],
              [
                99.35272153298023,
                8.132330533621442
              ],
              [
                99.38598595886272,
                8.141265400144636
              ],
              [
                99.39413269868797,
                8.087949840801203
              ],
              [
                99.38526482608634,
                8.082222388915081
              ],
              [
                99.38758655029785,
                8.064883572259642
              ],
              [
                99.41110092451862,
                8.006993390102593
              ],
              [
                99.4153021638372,
                8.00059183093744
              ],
              [
                99.39779520898111,
                7.983306875397406
              ],
              [
                99.39297641402284,
                7.964339820009748
              ],
              [
                99.39676638686434,
                7.953790934661159
              ],
              [
                99.38618206625904,
                7.941953632359442
              ],
              [
                99.3761272657413,
                7.943053952900891
              ],
              [
                99.3701880532027,
                7.945887684881378
              ],
              [
                99.36422895630366,
                7.944271545782688
              ],
              [
                99.36347244218133,
                7.936482358463591
              ],
              [
                99.33367037593086,
                7.928564791981358
              ],
              [
                99.33075873950473,
                7.880346575462029
              ],
              [
                99.31394029774494,
                7.866887860170679
              ],
              [
                99.29013031234688,
                7.861827028499185
              ],
              [
                99.27839611238483,
                7.84855887644513
              ],
              [
                99.29402224000754,
                7.825102105522894
              ],
              [
                99.29331835703464,
                7.819740258842269
              ],
              [
                99.28728634130502,
                7.81788214256064
              ],
              [
                99.28735963859644,
                7.810662577749408
              ],
              [
                99.30326048286369,
                7.809158951556869
              ],
              [
                99.30095058065056,
                7.789576331789982
              ],
              [
                99.28750709199079,
                7.770847680720751
              ],
              [
                99.28869844872759,
                7.762335515057815
              ],
              [
                99.30631033720695,
                7.755232011087764
              ],
              [
                99.31211257382557,
                7.728647283353403
              ],
              [
                99.30772748623302,
                7.701349647904823
              ],
              [
                99.29624999774454,
                7.688667831193346
              ],
              [
                99.28670460726008,
                7.687899211180022
              ],
              [
                99.28541279371086,
                7.67990428066345
              ],
              [
                99.27590621028696,
                7.680114014675524
              ],
              [
                99.26185891491053,
                7.662501825702003
              ],
              [
                99.17769126854614,
                7.612849167560474
              ],
              [
                99.14490242331262,
                7.724516888881311
              ],
              [
                99.13855456324515,
                7.734435925258516
              ],
              [
                99.12366750043026,
                7.752441471019892
              ],
              [
                99.10376275401886,
                7.760707219020619
              ],
              [
                99.09908950419015,
                7.771608982756707
              ],
              [
                99.1003539192435,
                7.763510512737013
              ],
              [
                99.10781869599832,
                7.757253575544142
              ],
              [
                99.11501504876034,
                7.752725443255698
              ],
              [
                99.11004108104811,
                7.741396994654917
              ],
              [
                99.11058813477058,
                7.727571030122582
              ],
              [
                99.1082784379227,
                7.739669147779662
              ],
              [
                99.1019065396497,
                7.748421887804709
              ],
              [
                99.10750424835203,
                7.736570052925529
              ],
              [
                99.10878324326218,
                7.714452358497068
              ],
              [
                99.10231380484034,
                7.696608973776454
              ],
              [
                99.09131218267906,
                7.690346147352771
              ],
              [
                99.06729304089444,
                7.694718551443443
              ],
              [
                99.05392049641387,
                7.720118072422549
              ],
              [
                99.04689182673313,
                7.724892790617317
              ],
              [
                99.0628354357486,
                7.699450154628908
              ],
              [
                99.04205439307206,
                7.699889153627225
              ],
              [
                99.01957971595523,
                7.765190270920818
              ],
              [
                99.0250554756182,
                7.771471107680343
              ],
              [
                99.04463976679152,
                7.771251839388956
              ],
              [
                99.04839842637818,
                7.765370577984285
              ],
              [
                99.04308905420915,
                7.75912564074846
              ],
              [
                99.04787972613696,
                7.762488443008321
              ],
              [
                99.04960547119035,
                7.767438517205014
              ],
              [
                99.04187467987995,
                7.77406590505167
              ],
              [
                99.02642513435606,
                7.773929765635986
              ],
              [
                99.0220272992207,
                7.780913878358881
              ],
              [
                99.03070740304642,
                7.797166227084269
              ],
              [
                99.01690372056481,
                7.823090302503545
              ],
              [
                99.0276015937595,
                7.829522926861297
              ],
              [
                99.03382557702399,
                7.818774486683392
              ]
            ]
          ],
          [
            [
              [
                98.77120792575812,
                7.813190393735931
              ],
              [
                98.77199687454429,
                7.822394752320114
              ],
              [
                98.77477310857935,
                7.822274692032834
              ],
              [
                98.77120792575812,
                7.813190393735931
              ]
            ]
          ],
          [
            [
              [
                99.07237319101473,
                7.914704120081822
              ],
              [
                99.07928913927246,
                7.916327123495893
              ],
              [
                99.07986115555187,
                7.902380309889611
              ],
              [
                99.06360976067108,
                7.875203128168859
              ],
              [
                99.05842675520304,
                7.878041397499799
              ],
              [
                99.06478847919057,
                7.918568426351166
              ],
              [
                99.06816256656029,
                7.921257839617985
              ],
              [
                99.06861956725788,
                7.917571660712473
              ],
              [
                99.07237319101473,
                7.914704120081822
              ]
            ]
          ],
          [
            [
              [
                98.80905133385473,
                7.968378370836373
              ],
              [
                98.80507783152377,
                7.97263529734411
              ],
              [
                98.81395629409785,
                7.974024483723133
              ],
              [
                98.80905133385473,
                7.968378370836373
              ]
            ]
          ],
          [
            [
              [
                98.80785370061322,
                7.949880145218172
              ],
              [
                98.80287851730037,
                7.954309591150321
              ],
              [
                98.80936617491847,
                7.958362784158178
              ],
              [
                98.80785370061322,
                7.949880145218172
              ]
            ]
          ],
          [
            [
              [
                99.02183994313812,
                7.835349259150526
              ],
              [
                99.02161381592818,
                7.831384993754939
              ],
              [
                99.01467202429143,
                7.830462631256735
              ],
              [
                99.01567820909166,
                7.835041414093439
              ],
              [
                99.02183994313812,
                7.835349259150526
              ]
            ]
          ],
          [
            [
              [
                99.04436754603903,
                7.866614471829844
              ],
              [
                99.04279855679982,
                7.87052236838769
              ],
              [
                99.04932381935612,
                7.869433344359306
              ],
              [
                99.04436754603903,
                7.866614471829844
              ]
            ]
          ],
          [
            [
              [
                99.04737030219827,
                7.879526282462947
              ],
              [
                99.0456687618867,
                7.877021384422195
              ],
              [
                99.03947485391106,
                7.878909167122742
              ],
              [
                99.04737030219827,
                7.879526282462947
              ]
            ]
          ],
          [
            [
              [
                98.96692446491205,
                7.852988190050565
              ],
              [
                98.97342356778233,
                7.851978360501726
              ],
              [
                98.98379663241492,
                7.821953398246051
              ],
              [
                98.98328515994636,
                7.803417031247831
              ],
              [
                98.9917330992326,
                7.796821261247331
              ],
              [
                98.98672738538016,
                7.783388811527828
              ],
              [
                98.95842756682195,
                7.823409151812951
              ],
              [
                98.94198357742667,
                7.837563157615687
              ],
              [
                98.93486604052688,
                7.838925755278383
              ],
              [
                98.93919804445042,
                7.854360605517275
              ],
              [
                98.9547759980949,
                7.858018156287756
              ],
              [
                98.96692446491205,
                7.852988190050565
              ]
            ]
          ],
          [
            [
              [
                98.99352863807509,
                7.819133662246302
              ],
              [
                98.98817341434767,
                7.815165308480579
              ],
              [
                98.98131118314849,
                7.830307565109806
              ],
              [
                98.9908253495353,
                7.843603355422122
              ],
              [
                98.99352863807509,
                7.819133662246302
              ]
            ]
          ],
          [
            [
              [
                98.98348111595868,
                7.844232372783803
              ],
              [
                98.97979665396669,
                7.84760795072527
              ],
              [
                98.98353334809762,
                7.849580073914109
              ],
              [
                98.98348111595868,
                7.844232372783803
              ]
            ]
          ],
          [
            [
              [
                99.03240128935084,
                7.867407628490747
              ],
              [
                99.03685242388435,
                7.868298826454954
              ],
              [
                99.03982800433548,
                7.863163434130158
              ],
              [
                99.03814049500095,
                7.854738101337785
              ],
              [
                99.0325592081919,
                7.853068511092863
              ],
              [
                99.0305872714228,
                7.840638184706601
              ],
              [
                99.01788139155656,
                7.836874210542795
              ],
              [
                99.01245452350113,
                7.841211816744058
              ],
              [
                99.00276340338654,
                7.869448105190354
              ],
              [
                99.0056546116582,
                7.882450673426225
              ],
              [
                99.02231056696728,
                7.88441868344834
              ],
              [
                99.03240128935084,
                7.867407628490747
              ]
            ]
          ],
          [
            [
              [
                98.99094766523784,
                7.850280208972616
              ],
              [
                98.97033910722296,
                7.906819826085957
              ],
              [
                98.96791092709674,
                7.923453484552396
              ],
              [
                98.97262124207388,
                7.926513514299145
              ],
              [
                98.98557733356657,
                7.92798521328661
              ],
              [
                98.99095313997702,
                7.924493741334856
              ],
              [
                98.99842021314879,
                7.901399129640692
              ],
              [
                98.99169119857126,
                7.880143417263279
              ],
              [
                98.9941057037855,
                7.863034684227177
              ],
              [
                98.99094766523784,
                7.850280208972616
              ]
            ]
          ],
          [
            [
              [
                99.05342337181129,
                7.882735637953989
              ],
              [
                99.04438944519796,
                7.883252860738812
              ],
              [
                99.05654207706084,
                7.894765402893633
              ],
              [
                99.05342337181129,
                7.882735637953989
              ]
            ]
          ]
        ]
      }
    }
  ]
}