{
"type": "FeatureCollection",
"name": "rayong_transects_50m",
"crs": { "type": "name", "properties": { "name": "urn:ogc:def:crs:EPSG::32647" } },
"features": [
{ "type": "Feature", "properties": { "transect_id": 1 }, "geometry": { "type": "LineString", "coordinates": [ [ 793393.869910102686845, 1410311.114561811555177 ], [ 791426.130089898710139, 1410668.885438188910484 ] ] } },
{ "type": "Feature", "properties": { "transect_id": 2 }, "geometry": { "type": "LineString", "coordinates": [ [ 793411.758453921996988, 1410409.501552823930979 ], [ 791444.018633717321791, 1410767.272429197095335 ] ] } },
{ "type": "Feature", "properties": { "transect_id": 3 }, "geometry": { "type": "LineString", "coordinates": [ [ 793155.772829513647594, 1411293.56502246693708 ], [ 791594.035210618400015, 1410044.174927369458601 ] ] } },
{ "type": "Feature", "properties": { "transect_id": 4 }, "geometry": { "type": "LineString", "coordinates": [ [ 793259.840961497044191, 1411066.989706872962415 ], [ 791365.02806912525557, 1410426.92400485323742 ] ] } },
{ "type": "Feature", "properties": { "transect_id": 5 }, "geometry": { "type": "LineString", "coordinates": [ [ 793205.256765514845029, 1410294.202801462262869 ], [ 791517.933790052542463, 1411367.953785851597786 ] ] } },
{ "type": "Feature", "properties": { "transect_id": 6 }, "geometry": { "type": "LineString", "coordinates": [ [ 791544.362526387674734, 1410306.80114174913615 ], [ 793280.848810639465228, 1411299.079018457792699 ] ] } },
{ "type": "Feature", "properties": { "transect_id": 7 }, "geometry": { "type": "LineString", "coordinates": [ [ 791593.976420222898014, 1410219.976827536476776 ], [ 793330.462704474688508, 1411212.254704245133325 ] ] } },
{ "type": "Feature", "properties": { "transect_id": 8 }, "geometry": { "type": "LineString", "coordinates": [ [ 791643.590314058121294, 1410133.152513323817402 ], [ 793380.076598309911788, 1411125.430390032473952 ] ] } },
{ "type": "Feature", "properties": { "transect_id": 9 }, "geometry": { "type": "LineString", "coordinates": [ [ 791554.435358055401593, 1410754.731339896563441 ], [ 793506.809478424023837, 1410320.870424263179302 ] ] } },
{ "type": "Feature", "properties": { "transect_id": 10 }, "geometry": { "type": "LineString", "coordinates": [ [ 791532.742312274756841, 1410657.112633883720264 ], [ 793485.116432641050778, 1410223.251718239160255 ] ] } },
{ "type": "Feature", "properties": { "transect_id": 11 }, "geometry": { "type": "LineString", "coordinates": [ [ 791511.049266491783783, 1410559.493927859934047 ], [ 793463.423386860406026, 1410125.633012226549909 ] ] } },
{ "type": "Feature", "properties": { "transect_id": 12 }, "geometry": { "type": "LineString", "coordinates": [ [ 791564.043418959947303, 1410716.773551382357255 ], [ 793333.879863721318543, 1409785.280685712350532 ] ] } },
{ "type": "Feature", "properties": { "transect_id": 13 }, "geometry": { "type": "LineString", "coordinates": [ [ 791517.46877567411866, 1410628.281729139154777 ], [ 793287.305220440612175, 1409696.788863478926942 ] ] } },
{ "type": "Feature", "properties": { "transect_id": 14 }, "geometry": { "type": "LineString", "coordinates": [ [ 791470.894132393528707, 1410539.789906905731186 ], [ 793240.730577154899947, 1409608.297041235724464 ] ] } },
{ "type": "Feature", "properties": { "transect_id": 15 }, "geometry": { "type": "LineString", "coordinates": [ [ 791424.31948910781648, 1410451.298084663227201 ], [ 793194.155933874077164, 1409519.805219002068043 ] ] } },
{ "type": "Feature", "properties": { "transect_id": 16 }, "geometry": { "type": "LineString", "coordinates": [ [ 791377.744845824548975, 1410362.806262424448505 ], [ 793147.581290591042489, 1409431.31339676422067 ] ] } },
{ "type": "Feature", "properties": { "transect_id": 17 }, "geometry": { "type": "LineString", "coordinates": [ [ 791331.170202541397884, 1410274.314440186601132 ], [ 793101.006647307658568, 1409342.821574525441974 ] ] } },
{ "type": "Feature", "properties": { "transect_id": 18 }, "geometry": { "type": "LineString", "coordinates": [ [ 791639.338464708533138, 1410581.541456751059741 ], [ 792682.238483611261472, 1408874.977789443917572 ] ] } },
{ "type": "Feature", "properties": { "transect_id": 19 }, "geometry": { "type": "LineString", "coordinates": [ [ 791554.010281340801157, 1410529.396455804118887 ], [ 792596.910300248651765, 1408822.832788500236347 ] ] } },
{ "type": "Feature", "properties": { "transect_id": 20 }, "geometry": { "type": "LineString", "coordinates": [ [ 791468.682097975630313, 1410477.251454858575016 ], [ 792511.582116883480921, 1408770.687787554692477 ] ] } },
{ "type": "Feature", "properties": { "transect_id": 21 }, "geometry": { "type": "LineString", "coordinates": [ [ 791383.353914610459469, 1410425.106453913263977 ], [ 792426.253933518310077, 1408718.542786609381437 ] ] } },
{ "type": "Feature", "properties": { "transect_id": 22 }, "geometry": { "type": "LineString", "coordinates": [ [ 791298.025731245288625, 1410372.961452967952937 ], [ 792340.925750153139234, 1408666.397785664070398 ] ] } },
{ "type": "Feature", "properties": { "transect_id": 23 }, "geometry": { "type": "LineString", "coordinates": [ [ 791212.697547880117781, 1410320.816452022409067 ], [ 792255.59756678796839, 1408614.252784718526527 ] ] } },
{ "type": "Feature", "properties": { "transect_id": 24 }, "geometry": { "type": "LineString", "coordinates": [ [ 791127.369364517391659, 1410268.671451078727841 ], [ 792170.269383420119993, 1408562.107783771585673 ] ] } },
{ "type": "Feature", "properties": { "transect_id": 25 }, "geometry": { "type": "LineString", "coordinates": [ [ 790642.978455734904855, 1409528.269624474924058 ], [ 792600.078025708207861, 1409116.24866237398237 ] ] } },
{ "type": "Feature", "properties": { "transect_id": 26 }, "geometry": { "type": "LineString", "coordinates": [ [ 790603.882955957320519, 1409147.574547302210703 ], [ 792597.97142927616369, 1409301.233782549621537 ] ] } },
{ "type": "Feature", "properties": { "transect_id": 27 }, "geometry": { "type": "LineString", "coordinates": [ [ 791061.441965928999707, 1408372.016887500882149 ], [ 792289.323192965239286, 1409950.72132224868983 ] ] } },
{ "type": "Feature", "properties": { "transect_id": 28 }, "geometry": { "type": "LineString", "coordinates": [ [ 791140.377187666716054, 1408310.62282614945434 ], [ 792368.258414702955633, 1409889.327260897262022 ] ] } },
{ "type": "Feature", "properties": { "transect_id": 29 }, "geometry": { "type": "LineString", "coordinates": [ [ 792287.555418397649191, 1408215.743720448575914 ], [ 791393.128227397683077, 1410004.598102448508143 ] ] } },
{ "type": "Feature", "properties": { "transect_id": 30 }, "geometry": { "type": "LineString", "coordinates": [ [ 792376.99813749990426, 1408260.465079999761656 ], [ 791482.570946495281532, 1410049.319461997365579 ] ] } },
{ "type": "Feature", "properties": { "transect_id": 31 }, "geometry": { "type": "LineString", "coordinates": [ [ 792069.037549501284957, 1408192.154357517603785 ], [ 791973.907250655349344, 1410189.890632965601981 ] ] } },
{ "type": "Feature", "properties": { "transect_id": 32 }, "geometry": { "type": "LineString", "coordinates": [ [ 792168.924363261787221, 1408196.910872458480299 ], [ 792073.794064439833164, 1410194.647147907875478 ] ] } },
{ "type": "Feature", "properties": { "transect_id": 33 }, "geometry": { "type": "LineString", "coordinates": [ [ 792268.811177034629509, 1408201.667387400055304 ], [ 792173.68087821197696, 1410199.403662849450484 ] ] } },
{ "type": "Feature", "properties": { "transect_id": 34 }, "geometry": { "type": "LineString", "coordinates": [ [ 792368.69799080665689, 1408206.42390234163031 ], [ 792273.567691984702833, 1410204.16017779102549 ] ] } },
{ "type": "Feature", "properties": { "transect_id": 35 }, "geometry": { "type": "LineString", "coordinates": [ [ 792468.584804579149932, 1408211.180417282972485 ], [ 792373.454505757195875, 1410208.916692732367665 ] ] } },
{ "type": "Feature", "properties": { "transect_id": 36 }, "geometry": { "type": "LineString", "coordinates": [ [ 792568.471618351526558, 1408215.93693222454749 ], [ 792473.341319529572502, 1410213.67320767394267 ] ] } },
{ "type": "Feature", "properties": { "transect_id": 37 }, "geometry": { "type": "LineString", "coordinates": [ [ 792668.3584321240196, 1408220.693447166122496 ], [ 792573.228133302065544, 1410218.429722615517676 ] ] } },
{ "type": "Feature", "properties": { "transect_id": 38 }, "geometry": { "type": "LineString", "coordinates": [ [ 792768.245245908387005, 1408225.449962108395994 ], [ 792673.114947062451392, 1410223.18623755639419 ] ] } },
{ "type": "Feature", "properties": { "transect_id": 39 }, "geometry": { "type": "LineString", "coordinates": [ [ 792868.132059680530801, 1408230.206477049970999 ], [ 792773.00176083529368, 1410227.942752497969195 ] ] } },
{ "type": "Feature", "properties": { "transect_id": 40 }, "geometry": { "type": "LineString", "coordinates": [ [ 792226.92559764359612, 1408435.879570567281917 ], [ 793572.271185626857914, 1409915.759717367822304 ] ] } },
{ "type": "Feature", "properties": { "transect_id": 41 }, "geometry": { "type": "LineString", "coordinates": [ [ 793557.183436314691789, 1408334.798844932345673 ], [ 792394.707048880984075, 1409962.265787348849699 ] ] } },
{ "type": "Feature", "properties": { "transect_id": 42 }, "geometry": { "type": "LineString", "coordinates": [ [ 792033.410474000382237, 1409010.458459711633623 ], [ 794017.966227428172715, 1409258.527928887400776 ] ] } },
{ "type": "Feature", "properties": { "transect_id": 43 }, "geometry": { "type": "LineString", "coordinates": [ [ 792045.813947458169423, 1408911.230672045843676 ], [ 794030.369700887356885, 1409159.300141209969297 ] ] } },
{ "type": "Feature", "properties": { "transect_id": 44 }, "geometry": { "type": "LineString", "coordinates": [ [ 792058.217420916887932, 1408812.00288437306881 ], [ 794042.773174345609732, 1409060.072353539988399 ] ] } },
{ "type": "Feature", "properties": { "transect_id": 45 }, "geometry": { "type": "LineString", "coordinates": [ [ 792070.620894375373609, 1408712.775096701690927 ], [ 794055.17664780409541, 1408960.844565868610516 ] ] } },
{ "type": "Feature", "properties": { "transect_id": 46 }, "geometry": { "type": "LineString", "coordinates": [ [ 792083.024367833626457, 1408613.547309031710029 ], [ 794067.580121262813918, 1408861.61677819583565 ] ] } },
{ "type": "Feature", "properties": { "transect_id": 47 }, "geometry": { "type": "LineString", "coordinates": [ [ 792289.058579737087712, 1409315.037596869515255 ], [ 793788.734290465479717, 1407991.794322693953291 ] ] } },
{ "type": "Feature", "properties": { "transect_id": 48 }, "geometry": { "type": "LineString", "coordinates": [ [ 792222.896416028379463, 1409240.05381133290939 ], [ 793722.572126756771468, 1407916.810537157347426 ] ] } },
{ "type": "Feature", "properties": { "transect_id": 49 }, "geometry": { "type": "LineString", "coordinates": [ [ 792545.721325998776592, 1409453.895965414121747 ], [ 793247.968209183192812, 1407581.23761027911678 ] ] } },
{ "type": "Feature", "properties": { "transect_id": 50 }, "geometry": { "type": "LineString", "coordinates": [ [ 792452.088408252224326, 1409418.783621259266511 ], [ 793154.335291416151449, 1407546.125266116345301 ] ] } },
{ "type": "Feature", "properties": { "transect_id": 51 }, "geometry": { "type": "LineString", "coordinates": [ [ 792358.455490495311096, 1409383.671277100220323 ], [ 793060.702373659238219, 1407511.012921957299113 ] ] } },
{ "type": "Feature", "properties": { "transect_id": 52 }, "geometry": { "type": "LineString", "coordinates": [ [ 792264.822572728153318, 1409348.558932937448844 ], [ 792967.069455912569538, 1407475.900577802443877 ] ] } },
{ "type": "Feature", "properties": { "transect_id": 53 }, "geometry": { "type": "LineString", "coordinates": [ [ 792171.189654971240088, 1409313.446588778635487 ], [ 792873.436538155656308, 1407440.78823364363052 ] ] } },
{ "type": "Feature", "properties": { "transect_id": 54 }, "geometry": { "type": "LineString", "coordinates": [ [ 791726.792695089592598, 1409041.006257462315261 ], [ 793141.006257456843741, 1407626.792695083189756 ] ] } },
{ "type": "Feature", "properties": { "transect_id": 55 }, "geometry": { "type": "LineString", "coordinates": [ [ 791656.082016970845871, 1408970.295579343801364 ], [ 793070.295579338097014, 1407556.082016964675859 ] ] } },
{ "type": "Feature", "properties": { "transect_id": 56 }, "geometry": { "type": "LineString", "coordinates": [ [ 791341.398410626687109, 1407915.05061816633679 ], [ 793264.446305907564238, 1408464.492873964132741 ] ] } },
{ "type": "Feature", "properties": { "transect_id": 57 }, "geometry": { "type": "LineString", "coordinates": [ [ 792174.3259261661442, 1409120.05588773614727 ], [ 792390.444287711172365, 1407131.766961598070338 ] ] } },
{ "type": "Feature", "properties": { "transect_id": 58 }, "geometry": { "type": "LineString", "coordinates": [ [ 792074.911479871254414, 1409109.249969660770148 ], [ 792291.029841392068192, 1407120.961043519899249 ] ] } },
{ "type": "Feature", "properties": { "transect_id": 59 }, "geometry": { "type": "LineString", "coordinates": [ [ 791975.497033552266657, 1409098.444051582366228 ], [ 792191.615395097294822, 1407110.155125444289297 ] ] } },
{ "type": "Feature", "properties": { "transect_id": 60 }, "geometry": { "type": "LineString", "coordinates": [ [ 791876.082587257376872, 1409087.638133506989107 ], [ 792092.20094877819065, 1407099.349207366118208 ] ] } },
{ "type": "Feature", "properties": { "transect_id": 61 }, "geometry": { "type": "LineString", "coordinates": [ [ 791776.668140938389115, 1409076.832215428818017 ], [ 791992.78650248341728, 1407088.543289290741086 ] ] } },
{ "type": "Feature", "properties": { "transect_id": 62 }, "geometry": { "type": "LineString", "coordinates": [ [ 792029.651696719578467, 1409068.363482224289328 ], [ 791544.580446644104086, 1407128.078481934498996 ] ] } },
{ "type": "Feature", "properties": { "transect_id": 63 }, "geometry": { "type": "LineString", "coordinates": [ [ 791932.637446703622118, 1409092.617044728482142 ], [ 791447.566196630941704, 1407152.332044437760487 ] ] } },
{ "type": "Feature", "properties": { "transect_id": 64 }, "geometry": { "type": "LineString", "coordinates": [ [ 791835.623196690576151, 1409116.870607231743634 ], [ 791350.55194661510177, 1407176.585606941953301 ] ] } },
{ "type": "Feature", "properties": { "transect_id": 65 }, "geometry": { "type": "LineString", "coordinates": [ [ 791216.359191845287569, 1409128.036307201255113 ], [ 791776.534195364569314, 1407208.08735854877159 ] ] } },
{ "type": "Feature", "properties": { "transect_id": 66 }, "geometry": { "type": "LineString", "coordinates": [ [ 790929.805005640839227, 1408998.072192726191133 ], [ 791887.50926698569674, 1407242.281046888325363 ] ] } },
{ "type": "Feature", "properties": { "transect_id": 67 }, "geometry": { "type": "LineString", "coordinates": [ [ 790386.977294873679057, 1408122.11126079922542 ], [ 792378.763707810081542, 1407941.039768724702299 ] ] } },
{ "type": "Feature", "properties": { "transect_id": 68 }, "geometry": { "type": "LineString", "coordinates": [ [ 790985.323049773694947, 1407078.645446558948606 ], [ 791896.274658399866894, 1408859.141772514674813 ] ] } },
{ "type": "Feature", "properties": { "transect_id": 69 }, "geometry": { "type": "LineString", "coordinates": [ [ 791074.347866071504541, 1407033.097866127500311 ], [ 791985.299474697676487, 1408813.594192083226517 ] ] } },
{ "type": "Feature", "properties": { "transect_id": 70 }, "geometry": { "type": "LineString", "coordinates": [ [ 791163.372682369197719, 1406987.550285696052015 ], [ 792074.324290995369665, 1408768.046611651778221 ] ] } },
{ "type": "Feature", "properties": { "transect_id": 71 }, "geometry": { "type": "LineString", "coordinates": [ [ 791252.397498666890897, 1406942.002705264603719 ], [ 792163.349107293062843, 1408722.499031220329925 ] ] } },
{ "type": "Feature", "properties": { "transect_id": 72 }, "geometry": { "type": "LineString", "coordinates": [ [ 791341.422314962139353, 1406896.455124834552407 ], [ 792252.373923593200743, 1408676.951450787484646 ] ] } },
{ "type": "Feature", "properties": { "transect_id": 73 }, "geometry": { "type": "LineString", "coordinates": [ [ 791226.167389788082801, 1406963.658983960747719 ], [ 792523.635741823702119, 1408485.689166140276939 ] ] } },
{ "type": "Feature", "properties": { "transect_id": 74 }, "geometry": { "type": "LineString", "coordinates": [ [ 791302.268898900365457, 1406898.785566356964409 ], [ 792599.73725093039684, 1408420.815748541615903 ] ] } },
{ "type": "Feature", "properties": { "transect_id": 75 }, "geometry": { "type": "LineString", "coordinates": [ [ 791378.37040800973773, 1406833.912148755742237 ], [ 792675.838760039769113, 1408355.942330940393731 ] ] } },
{ "type": "Feature", "properties": { "transect_id": 76 }, "geometry": { "type": "LineString", "coordinates": [ [ 791454.471917116432451, 1406769.038731157081202 ], [ 792751.940269152051769, 1408291.068913336610422 ] ] } },
{ "type": "Feature", "properties": { "transect_id": 77 }, "geometry": { "type": "LineString", "coordinates": [ [ 791530.573426225921139, 1406704.165313555859029 ], [ 792828.041778261540458, 1408226.195495735388249 ] ] } },
{ "type": "Feature", "properties": { "transect_id": 78 }, "geometry": { "type": "LineString", "coordinates": [ [ 791606.674935338203795, 1406639.29189595207572 ], [ 792904.143287368235178, 1408161.322078136727214 ] ] } },
{ "type": "Feature", "properties": { "transect_id": 79 }, "geometry": { "type": "LineString", "coordinates": [ [ 791682.776444447576068, 1406574.418478350853547 ], [ 792980.244796477607451, 1408096.448660535505041 ] ] } },
{ "type": "Feature", "properties": { "transect_id": 80 }, "geometry": { "type": "LineString", "coordinates": [ [ 791758.877953554270789, 1406509.545060752192512 ], [ 793056.346305589890108, 1408031.575242931721732 ] ] } },
{ "type": "Feature", "properties": { "transect_id": 81 }, "geometry": { "type": "LineString", "coordinates": [ [ 792549.043217391241342, 1406264.833075993228704 ], [ 792458.227895546006039, 1408262.770156413316727 ] ] } },
{ "type": "Feature", "properties": { "transect_id": 82 }, "geometry": { "type": "LineString", "coordinates": [ [ 792648.940071400720626, 1406269.373842084314674 ], [ 792558.124749578768387, 1408267.310922505799681 ] ] } },
{ "type": "Feature", "properties": { "transect_id": 83 }, "geometry": { "type": "LineString", "coordinates": [ [ 793608.762103143148124, 1407014.008649260504171 ], [ 791711.395507050212473, 1407646.464181318646297 ] ] } },
{ "type": "Feature", "properties": { "transect_id": 84 }, "geometry": { "type": "LineString", "coordinates": [ [ 793640.384879746823572, 1407108.87697906862013 ], [ 791743.018283651559614, 1407741.332511119777337 ] ] } },
{ "type": "Feature", "properties": { "transect_id": 85 }, "geometry": { "type": "LineString", "coordinates": [ [ 793110.288158353301696, 1406562.642503968672827 ], [ 792388.299953230773099, 1408427.778700513998047 ] ] } },
{ "type": "Feature", "properties": { "transect_id": 86 }, "geometry": { "type": "LineString", "coordinates": [ [ 793203.544968180591241, 1406598.741914224578068 ], [ 792481.556763058062643, 1408463.878110769903287 ] ] } },
{ "type": "Feature", "properties": { "transect_id": 87 }, "geometry": { "type": "LineString", "coordinates": [ [ 793296.801777997869067, 1406634.841324476525187 ], [ 792574.813572895596735, 1408499.977521029766649 ] ] } },
{ "type": "Feature", "properties": { "transect_id": 88 }, "geometry": { "type": "LineString", "coordinates": [ [ 792866.78622853429988, 1406611.688168557127938 ], [ 793192.370954139856622, 1408585.008868912933394 ] ] } },
{ "type": "Feature", "properties": { "transect_id": 89 }, "geometry": { "type": "LineString", "coordinates": [ [ 792958.217686406685971, 1406595.897711339173838 ], [ 793298.031519416137598, 1408566.81794282910414 ] ] } },
{ "type": "Feature", "properties": { "transect_id": 90 }, "geometry": { "type": "LineString", "coordinates": [ [ 793056.763697982067242, 1406578.907019688514993 ], [ 793396.577530989656225, 1408549.827251178445294 ] ] } },
{ "type": "Feature", "properties": { "transect_id": 91 }, "geometry": { "type": "LineString", "coordinates": [ [ 792790.901486940099858, 1406695.146116289542988 ], [ 793855.244577365345322, 1408388.419214718742296 ] ] } },
{ "type": "Feature", "properties": { "transect_id": 92 }, "geometry": { "type": "LineString", "coordinates": [ [ 792875.56514185864944, 1406641.928961769444868 ], [ 793939.908232289250009, 1408335.202060195384547 ] ] } },
{ "type": "Feature", "properties": { "transect_id": 93 }, "geometry": { "type": "LineString", "coordinates": [ [ 792960.228796782437712, 1406588.711807246087119 ], [ 794024.571887207683176, 1408281.984905675286427 ] ] } },
{ "type": "Feature", "properties": { "transect_id": 94 }, "geometry": { "type": "LineString", "coordinates": [ [ 793044.892451703664847, 1406535.494652724359185 ], [ 794109.235542128910311, 1408228.767751153558493 ] ] } },
{ "type": "Feature", "properties": { "transect_id": 95 }, "geometry": { "type": "LineString", "coordinates": [ [ 792659.646997008705512, 1407290.923597039654851 ], [ 794658.253236483084038, 1407365.576792108360678 ] ] } },
{ "type": "Feature", "properties": { "transect_id": 96 }, "geometry": { "type": "LineString", "coordinates": [ [ 792750.007615492562763, 1407756.996657434850931 ], [ 794464.993466912419535, 1406728.005146571435034 ] ] } },
{ "type": "Feature", "properties": { "transect_id": 97 }, "geometry": { "type": "LineString", "coordinates": [ [ 792569.642798306536861, 1407184.531251885462552 ], [ 794568.642107767635025, 1407121.271780072711408 ] ] } },
{ "type": "Feature", "properties": { "transect_id": 98 }, "geometry": { "type": "LineString", "coordinates": [ [ 792566.47982471564319, 1407084.581286412430927 ], [ 794565.479134176741354, 1407021.321814599679783 ] ] } },
{ "type": "Feature", "properties": { "transect_id": 99 }, "geometry": { "type": "LineString", "coordinates": [ [ 792563.316851124749519, 1406984.631320939399302 ], [ 794562.316160585847683, 1406921.371849126648158 ] ] } },
{ "type": "Feature", "properties": { "transect_id": 100 }, "geometry": { "type": "LineString", "coordinates": [ [ 792560.153877533855848, 1406884.681355466134846 ], [ 794559.153186994954012, 1406821.421883653383702 ] ] } },
{ "type": "Feature", "properties": { "transect_id": 101 }, "geometry": { "type": "LineString", "coordinates": [ [ 792556.990903942962177, 1406784.731389993103221 ], [ 794555.990213404060341, 1406721.471918180352077 ] ] } },
{ "type": "Feature", "properties": { "transect_id": 102 }, "geometry": { "type": "LineString", "coordinates": [ [ 792553.827930352068506, 1406684.781424520071596 ], [ 794552.827239813166671, 1406621.521952707320452 ] ] } },
{ "type": "Feature", "properties": { "transect_id": 103 }, "geometry": { "type": "LineString", "coordinates": [ [ 792550.664956761174835, 1406584.831459047039971 ], [ 794549.664266222273, 1406521.571987234288827 ] ] } },
{ "type": "Feature", "properties": { "transect_id": 104 }, "geometry": { "type": "LineString", "coordinates": [ [ 792547.501983170281164, 1406484.881493574474007 ], [ 794546.501292631379329, 1406421.62202176079154 ] ] } },
{ "type": "Feature", "properties": { "transect_id": 105 }, "geometry": { "type": "LineString", "coordinates": [ [ 792544.339009579620324, 1406384.931528107263148 ], [ 794543.338319040252827, 1406321.672056281939149 ] ] } },
{ "type": "Feature", "properties": { "transect_id": 106 }, "geometry": { "type": "LineString", "coordinates": [ [ 792541.176035988726653, 1406284.981562634231523 ], [ 794540.175345449359156, 1406221.722090808907524 ] ] } },
{ "type": "Feature", "properties": { "transect_id": 107 }, "geometry": { "type": "LineString", "coordinates": [ [ 792538.013062397832982, 1406185.031597161199898 ], [ 794537.012371858465485, 1406121.772125335875899 ] ] } },
{ "type": "Feature", "properties": { "transect_id": 108 }, "geometry": { "type": "LineString", "coordinates": [ [ 792534.850088806939311, 1406085.081631688168272 ], [ 794533.849398267571814, 1406021.822159862844273 ] ] } },
{ "type": "Feature", "properties": { "transect_id": 109 }, "geometry": { "type": "LineString", "coordinates": [ [ 792531.68711521604564, 1405985.131666215136647 ], [ 794530.686424676678143, 1405921.872194389812648 ] ] } },
{ "type": "Feature", "properties": { "transect_id": 110 }, "geometry": { "type": "LineString", "coordinates": [ [ 792528.524141625151969, 1405885.181700741639361 ], [ 794527.523451085784473, 1405821.922228917246684 ] ] } },
{ "type": "Feature", "properties": { "transect_id": 111 }, "geometry": { "type": "LineString", "coordinates": [ [ 792525.361168034374714, 1405785.231735268607736 ], [ 794524.360477495007217, 1405721.972263444215059 ] ] } },
{ "type": "Feature", "properties": { "transect_id": 112 }, "geometry": { "type": "LineString", "coordinates": [ [ 792522.198194443481043, 1405685.28176979557611 ], [ 794521.197503904113546, 1405622.022297971183434 ] ] } },
{ "type": "Feature", "properties": { "transect_id": 113 }, "geometry": { "type": "LineString", "coordinates": [ [ 793512.146237172535621, 1406601.041439435910434 ], [ 793435.279992973781191, 1404602.519090173300356 ] ] } },
{ "type": "Feature", "properties": { "transect_id": 114 }, "geometry": { "type": "LineString", "coordinates": [ [ 793412.220119721023366, 1406604.884751645615324 ], [ 793335.353875498985872, 1404606.362402383936569 ] ] } },
{ "type": "Feature", "properties": { "transect_id": 115 }, "geometry": { "type": "LineString", "coordinates": [ [ 793312.294002246344462, 1406608.728063856484368 ], [ 793235.427758047590032, 1404610.205714593874291 ] ] } },
{ "type": "Feature", "properties": { "transect_id": 116 }, "geometry": { "type": "LineString", "coordinates": [ [ 794259.911024891887791, 1405522.844249721383676 ], [ 792289.717483209562488, 1405866.846296681789681 ] ] } },
{ "type": "Feature", "properties": { "transect_id": 117 }, "geometry": { "type": "LineString", "coordinates": [ [ 794277.111127239535563, 1405621.353926801821217 ], [ 792306.917585558374412, 1405965.355973769677803 ] ] } },
{ "type": "Feature", "properties": { "transect_id": 118 }, "geometry": { "type": "LineString", "coordinates": [ [ 794294.311229588347487, 1405719.863603889709339 ], [ 792324.117687906022184, 1406063.865650850115344 ] ] } },
{ "type": "Feature", "properties": { "transect_id": 119 }, "geometry": { "type": "LineString", "coordinates": [ [ 794311.51133193646092, 1405818.373280973639339 ], [ 792341.317790254135616, 1406162.375327934045345 ] ] } },
{ "type": "Feature", "properties": { "transect_id": 120 }, "geometry": { "type": "LineString", "coordinates": [ [ 794328.711434285040013, 1405916.882958059664816 ], [ 792358.517892602016218, 1406260.885005016345531 ] ] } },
{ "type": "Feature", "properties": { "transect_id": 121 }, "geometry": { "type": "LineString", "coordinates": [ [ 794345.9115366328042, 1406015.392635141965002 ], [ 792375.717994950478896, 1406359.394682102371007 ] ] } },
{ "type": "Feature", "properties": { "transect_id": 122 }, "geometry": { "type": "LineString", "coordinates": [ [ 794044.157165554701351, 1406980.056396818952635 ], [ 792629.943603187450208, 1405565.842834439827129 ] ] } },
{ "type": "Feature", "properties": { "transect_id": 123 }, "geometry": { "type": "LineString", "coordinates": [ [ 793973.446487441775389, 1407050.767074931645766 ], [ 792559.232925062882714, 1405636.553512564161792 ] ] } },
{ "type": "Feature", "properties": { "transect_id": 124 }, "geometry": { "type": "LineString", "coordinates": [ [ 793743.338928737677634, 1405503.635475618764758 ], [ 792848.911737737711519, 1407292.489857618696988 ] ] } },
{ "type": "Feature", "properties": { "transect_id": 125 }, "geometry": { "type": "LineString", "coordinates": [ [ 794355.156062034191564, 1406532.379533213097602 ], [ 792360.620553120272234, 1406384.636162188835442 ] ] } },
{ "type": "Feature", "properties": { "transect_id": 126 }, "geometry": { "type": "LineString", "coordinates": [ [ 794347.768893482047133, 1406632.106308664660901 ], [ 792353.233384569059126, 1406484.362937628757209 ] ] } },
{ "type": "Feature", "properties": { "transect_id": 127 }, "geometry": { "type": "LineString", "coordinates": [ [ 794340.381724930484779, 1406731.833084110403433 ], [ 792345.846216017496772, 1406584.089713074499741 ] ] } },
{ "type": "Feature", "properties": { "transect_id": 128 }, "geometry": { "type": "LineString", "coordinates": [ [ 794323.227897272910923, 1406508.664985776180401 ], [ 792385.392476027365774, 1407003.431476320838556 ] ] } },
{ "type": "Feature", "properties": { "transect_id": 129 }, "geometry": { "type": "LineString", "coordinates": [ [ 794347.966221801238135, 1406605.556756844045594 ], [ 792410.130800552899018, 1407100.323247377527878 ] ] } },
{ "type": "Feature", "properties": { "transect_id": 130 }, "geometry": { "type": "LineString", "coordinates": [ [ 794372.704546328168362, 1406702.448527906555682 ], [ 792434.869125079829246, 1407197.215018440037966 ] ] } },
{ "type": "Feature", "properties": { "transect_id": 131 }, "geometry": { "type": "LineString", "coordinates": [ [ 794397.442870854400098, 1406799.340298966038972 ], [ 792459.607449607457966, 1407294.106789505109191 ] ] } },
{ "type": "Feature", "properties": { "transect_id": 132 }, "geometry": { "type": "LineString", "coordinates": [ [ 794422.181195380631834, 1406896.232070025522262 ], [ 792484.345774135086685, 1407390.998560570180416 ] ] } },
{ "type": "Feature", "properties": { "transect_id": 133 }, "geometry": { "type": "LineString", "coordinates": [ [ 794350.479951753513888, 1407630.804481197381392 ], [ 792512.189891724614426, 1406842.965884022181854 ] ] } },
{ "type": "Feature", "properties": { "transect_id": 134 }, "geometry": { "type": "LineString", "coordinates": [ [ 793844.432289131451398, 1408206.04591619851999 ], [ 792919.300275738118216, 1406432.876223869388923 ] ] } },
{ "type": "Feature", "properties": { "transect_id": 135 }, "geometry": { "type": "LineString", "coordinates": [ [ 793755.773804514901713, 1408252.302516868105158 ], [ 792830.641791121568531, 1406479.132824538974091 ] ] } },
{ "type": "Feature", "properties": { "transect_id": 136 }, "geometry": { "type": "LineString", "coordinates": [ [ 793667.115319898352027, 1408298.559117537690327 ], [ 792741.983306505018845, 1406525.38942520855926 ] ] } },
{ "type": "Feature", "properties": { "transect_id": 137 }, "geometry": { "type": "LineString", "coordinates": [ [ 792957.621489656856284, 1408409.091493636835366 ], [ 793261.735858168220147, 1406432.348098336253315 ] ] } },
{ "type": "Feature", "properties": { "transect_id": 138 }, "geometry": { "type": "LineString", "coordinates": [ [ 792407.777361070970073, 1408185.348228994989768 ], [ 793625.414931364357471, 1406598.729576826328412 ] ] } },
{ "type": "Feature", "properties": { "transect_id": 139 }, "geometry": { "type": "LineString", "coordinates": [ [ 792328.446428472176194, 1408124.466350488830358 ], [ 793546.083998745307326, 1406537.847698304336518 ] ] } },
{ "type": "Feature", "properties": { "transect_id": 140 }, "geometry": { "type": "LineString", "coordinates": [ [ 792249.115495863137767, 1408063.584471974987537 ], [ 793466.753066136268899, 1406476.965819790493697 ] ] } },
{ "type": "Feature", "properties": { "transect_id": 141 }, "geometry": { "type": "LineString", "coordinates": [ [ 792169.784563244087622, 1408002.702593452995643 ], [ 793387.42213353747502, 1406416.083941284334287 ] ] } },
{ "type": "Feature", "properties": { "transect_id": 142 }, "geometry": { "type": "LineString", "coordinates": [ [ 792090.453630645293742, 1407941.820714946836233 ], [ 793308.091200918424875, 1406355.202062762342393 ] ] } },
{ "type": "Feature", "properties": { "transect_id": 143 }, "geometry": { "type": "LineString", "coordinates": [ [ 792011.122698036255315, 1407880.938836432993412 ], [ 793228.760268309386447, 1406294.320184248499572 ] ] } },
{ "type": "Feature", "properties": { "transect_id": 144 }, "geometry": { "type": "LineString", "coordinates": [ [ 792548.19300071510952, 1408081.913471936946735 ], [ 792496.927799137192778, 1406082.570610117865726 ] ] } },
{ "type": "Feature", "properties": { "transect_id": 145 }, "geometry": { "type": "LineString", "coordinates": [ [ 792448.225857635843568, 1408084.476732016075402 ], [ 792396.960656034643762, 1406085.133870197460055 ] ] } },
{ "type": "Feature", "properties": { "transect_id": 146 }, "geometry": { "type": "LineString", "coordinates": [ [ 792348.258714544936083, 1408087.03999209520407 ], [ 792296.993512943736278, 1406087.697130276588723 ] ] } },
{ "type": "Feature", "properties": { "transect_id": 147 }, "geometry": { "type": "LineString", "coordinates": [ [ 792483.700185344554484, 1408055.259477676590905 ], [ 791961.617755962070078, 1406124.604164853924885 ] ] } },
{ "type": "Feature", "properties": { "transect_id": 148 }, "geometry": { "type": "LineString", "coordinates": [ [ 792776.211457194876857, 1407926.722128750523552 ], [ 791512.865554876043461, 1406376.252157711191103 ] ] } },
{ "type": "Feature", "properties": { "transect_id": 149 }, "geometry": { "type": "LineString", "coordinates": [ [ 792698.687958646100014, 1407989.889423864660785 ], [ 791435.342056321678683, 1406439.419452829984948 ] ] } },
{ "type": "Feature", "properties": { "transect_id": 150 }, "geometry": { "type": "LineString", "coordinates": [ [ 792621.164460091735236, 1408053.05671898345463 ], [ 791357.818557772901841, 1406502.58674794412218 ] ] } },
{ "type": "Feature", "properties": { "transect_id": 151 }, "geometry": { "type": "LineString", "coordinates": [ [ 791900.941339941811748, 1408310.0 ], [ 791900.941339941811748, 1406310.0 ] ] } },
{ "type": "Feature", "properties": { "transect_id": 152 }, "geometry": { "type": "LineString", "coordinates": [ [ 791800.941339941811748, 1408310.0 ], [ 791800.941339941811748, 1406310.0 ] ] } },
{ "type": "Feature", "properties": { "transect_id": 153 }, "geometry": { "type": "LineString", "coordinates": [ [ 792470.01131208287552, 1407960.499757287325338 ], [ 790938.865729290060699, 1406673.801189520163462 ] ] } },
{ "type": "Feature", "properties": { "transect_id": 154 }, "geometry": { "type": "LineString", "coordinates": [ [ 792432.396676708711311, 1408010.026308659696952 ], [ 790853.69224196113646, 1406782.145081623224542 ] ] } },
{ "type": "Feature", "properties": { "transect_id": 155 }, "geometry": { "type": "LineString", "coordinates": [ [ 792371.002615357167087, 1408088.961530397180468 ], [ 790792.298180609592237, 1406861.080303360708058 ] ] } },
{ "type": "Feature", "properties": { "transect_id": 156 }, "geometry": { "type": "LineString", "coordinates": [ [ 792532.431374570471235, 1407206.643918442539871 ], [ 790665.740162171772681, 1407924.602077079936862 ] ] } },
{ "type": "Feature", "properties": { "transect_id": 157 }, "geometry": { "type": "LineString", "coordinates": [ [ 792171.653052328852937, 1408455.117423939984292 ], [ 791000.671944633824751, 1406833.758967144880444 ] ] } },
{ "type": "Feature", "properties": { "transect_id": 158 }, "geometry": { "type": "LineString", "coordinates": [ [ 792090.585129488725215, 1408513.666479324223474 ], [ 790919.604021793697029, 1406892.308022529119626 ] ] } },
{ "type": "Feature", "properties": { "transect_id": 159 }, "geometry": { "type": "LineString", "coordinates": [ [ 792009.51720663823653, 1408572.215534715913236 ], [ 790838.536098963930272, 1406950.857077905908227 ] ] } },
{ "type": "Feature", "properties": { "transect_id": 160 }, "geometry": { "type": "LineString", "coordinates": [ [ 791928.449283800902776, 1408630.764590098289773 ], [ 790757.468176121008582, 1407009.406133292010054 ] ] } },
{ "type": "Feature", "properties": { "transect_id": 161 }, "geometry": { "type": "LineString", "coordinates": [ [ 791847.381360960775055, 1408689.313645482761785 ], [ 790676.400253280880861, 1407067.955188676482067 ] ] } },
{ "type": "Feature", "properties": { "transect_id": 162 }, "geometry": { "type": "LineString", "coordinates": [ [ 791766.313438120647334, 1408747.862700867000967 ], [ 790595.33233044075314, 1407126.504244060721248 ] ] } },
{ "type": "Feature", "properties": { "transect_id": 163 }, "geometry": { "type": "LineString", "coordinates": [ [ 791685.245515288203023, 1408806.411756245652214 ], [ 790514.264407593174838, 1407185.053299450548366 ] ] } },
{ "type": "Feature", "properties": { "transect_id": 164 }, "geometry": { "type": "LineString", "coordinates": [ [ 790077.152772286441177, 1408005.807659629965201 ], [ 792072.070171948987991, 1407863.31355967069976 ] ] } },
{ "type": "Feature", "properties": { "transect_id": 165 }, "geometry": { "type": "LineString", "coordinates": [ [ 790070.028067288221791, 1407906.061789647676051 ], [ 792064.945466950768605, 1407763.567689686547965 ] ] } },
{ "type": "Feature", "properties": { "transect_id": 166 }, "geometry": { "type": "LineString", "coordinates": [ [ 790062.903362290351652, 1407806.315919669577852 ], [ 792057.820761952199973, 1407663.821819698670879 ] ] } },
{ "type": "Feature", "properties": { "transect_id": 167 }, "geometry": { "type": "LineString", "coordinates": [ [ 790055.778657292132266, 1407706.570049686357379 ], [ 792050.696056953980587, 1407564.075949715450406 ] ] } },
{ "type": "Feature", "properties": { "transect_id": 168 }, "geometry": { "type": "LineString", "coordinates": [ [ 790569.322681566001847, 1408468.593350659357384 ], [ 791432.233676150906831, 1406664.324907377129421 ] ] } },
{ "type": "Feature", "properties": { "transect_id": 169 }, "geometry": { "type": "LineString", "coordinates": [ [ 790479.109259390505031, 1408425.447800923837349 ], [ 791342.020253998925909, 1406621.179357652785257 ] ] } },
{ "type": "Feature", "properties": { "transect_id": 170 }, "geometry": { "type": "LineString", "coordinates": [ [ 790742.521209233556874, 1408477.13466470502317 ], [ 790898.181459828396328, 1406483.201394411269575 ] ] } },
{ "type": "Feature", "properties": { "transect_id": 171 }, "geometry": { "type": "LineString", "coordinates": [ [ 791041.728899199515581, 1408460.182920322753489 ], [ 790409.273367158835754, 1406562.816324224229902 ] ] } },
{ "type": "Feature", "properties": { "transect_id": 172 }, "geometry": { "type": "LineString", "coordinates": [ [ 789791.157214317005128, 1408008.912655477644876 ], [ 791506.143065747339278, 1406979.921144630992785 ] ] } },
{ "type": "Feature", "properties": { "transect_id": 173 }, "geometry": { "type": "LineString", "coordinates": [ [ 789739.70763877464924, 1407923.163362906314433 ], [ 791454.693490204983391, 1406894.171852059662342 ] ] } },
{ "type": "Feature", "properties": { "transect_id": 174 }, "geometry": { "type": "LineString", "coordinates": [ [ 790265.169466028455645, 1408331.479399886680767 ], [ 790765.935109949670732, 1406395.185576659394428 ] ] } },
{ "type": "Feature", "properties": { "transect_id": 175 }, "geometry": { "type": "LineString", "coordinates": [ [ 790168.354774856357835, 1408306.441117687150836 ], [ 790669.120418799459003, 1406370.147294465452433 ] ] } },
{ "type": "Feature", "properties": { "transect_id": 176 }, "geometry": { "type": "LineString", "coordinates": [ [ 790071.540083695203066, 1408281.402835490414873 ], [ 790572.305727638304234, 1406345.109012268716469 ] ] } },
{ "type": "Feature", "properties": { "transect_id": 177 }, "geometry": { "type": "LineString", "coordinates": [ [ 789974.725392532534897, 1408256.364553292980418 ], [ 790475.491036478430033, 1406320.070730072213337 ] ] } },
{ "type": "Feature", "properties": { "transect_id": 178 }, "geometry": { "type": "LineString", "coordinates": [ [ 789877.910701372777112, 1408231.326271096710116 ], [ 790378.67634531587828, 1406295.032447875011712 ] ] } },
{ "type": "Feature", "properties": { "transect_id": 179 }, "geometry": { "type": "LineString", "coordinates": [ [ 789781.096010222565383, 1408206.28798890276812 ], [ 790281.86165414378047, 1406269.994165675481781 ] ] } },
{ "type": "Feature", "properties": { "transect_id": 180 }, "geometry": { "type": "LineString", "coordinates": [ [ 790546.011616051779129, 1408070.49128796113655 ], [ 789346.011616051779129, 1406470.49128796113655 ] ] } },
{ "type": "Feature", "properties": { "transect_id": 181 }, "geometry": { "type": "LineString", "coordinates": [ [ 790836.720316871185787, 1407611.533835593145341 ], [ 788913.672421590308659, 1407062.091579795349389 ] ] } },
{ "type": "Feature", "properties": { "transect_id": 182 }, "geometry": { "type": "LineString", "coordinates": [ [ 790809.248204078525305, 1407707.68623036541976 ], [ 788886.20030880253762, 1407158.243974550860003 ] ] } },
{ "type": "Feature", "properties": { "transect_id": 183 }, "geometry": { "type": "LineString", "coordinates": [ [ 790421.797305292566307, 1408327.956291037611663 ], [ 789218.706982008065097, 1406730.278703406453133 ] ] } },
{ "type": "Feature", "properties": { "transect_id": 184 }, "geometry": { "type": "LineString", "coordinates": [ [ 789557.866949162795208, 1408500.104913243092597 ], [ 789886.664923786767758, 1406527.317065581213683 ] ] } },
{ "type": "Feature", "properties": { "transect_id": 185 }, "geometry": { "type": "LineString", "coordinates": [ [ 789261.337872266769409, 1406574.316182476934046 ], [ 790049.176469441968948, 1408412.606242505833507 ] ] } },
{ "type": "Feature", "properties": { "transect_id": 186 }, "geometry": { "type": "LineString", "coordinates": [ [ 788710.0, 1407429.558423694688827 ], [ 790710.0, 1407429.558423717971891 ] ] } },
{ "type": "Feature", "properties": { "transect_id": 187 }, "geometry": { "type": "LineString", "coordinates": [ [ 788710.000000001047738, 1407329.558423694688827 ], [ 790710.000000001047738, 1407329.558423717971891 ] ] } },
{ "type": "Feature", "properties": { "transect_id": 188 }, "geometry": { "type": "LineString", "coordinates": [ [ 788932.28490465215873, 1407932.551378258503973 ], [ 790391.359312929329462, 1406564.669120492879301 ] ] } },
{ "type": "Feature", "properties": { "transect_id": 189 }, "geometry": { "type": "LineString", "coordinates": [ [ 788863.890791763900779, 1407859.597657844657078 ], [ 790322.965200041071512, 1406491.715400079032406 ] ] } },
{ "type": "Feature", "properties": { "transect_id": 190 }, "geometry": { "type": "LineString", "coordinates": [ [ 788612.521020106156357, 1406816.121484988369048 ], [ 790535.568915390060283, 1407365.563740775454789 ] ] } },
{ "type": "Feature", "properties": { "transect_id": 191 }, "geometry": { "type": "LineString", "coordinates": [ [ 788752.965557122020982, 1407533.805550086311996 ], [ 790439.224792820517905, 1406458.384799858089536 ] ] } },
{ "type": "Feature", "properties": { "transect_id": 192 }, "geometry": { "type": "LineString", "coordinates": [ [ 788897.426066287211142, 1407703.631378941936418 ], [ 790153.342927418765612, 1406147.137614764040336 ] ] } },
{ "type": "Feature", "properties": { "transect_id": 193 }, "geometry": { "type": "LineString", "coordinates": [ [ 789651.533287455327809, 1407915.607359458459541 ], [ 789208.291080262744799, 1405965.341647878987715 ] ] } },
{ "type": "Feature", "properties": { "transect_id": 194 }, "geometry": { "type": "LineString", "coordinates": [ [ 789554.020001865108497, 1407937.769469819730148 ], [ 789110.777794694644399, 1405987.503758235136047 ] ] } },
{ "type": "Feature", "properties": { "transect_id": 195 }, "geometry": { "type": "LineString", "coordinates": [ [ 789456.506716297008097, 1407959.931580176111311 ], [ 789013.264509104425088, 1406009.665868596639484 ] ] } },
{ "type": "Feature", "properties": { "transect_id": 196 }, "geometry": { "type": "LineString", "coordinates": [ [ 789358.993430706788786, 1407982.093690537381917 ], [ 788915.751223536324687, 1406031.827978952787817 ] ] } },
{ "type": "Feature", "properties": { "transect_id": 197 }, "geometry": { "type": "LineString", "coordinates": [ [ 788447.068316306453198, 1407795.301237229956314 ], [ 789647.068316306453198, 1406195.301237229956314 ] ] } },
{ "type": "Feature", "properties": { "transect_id": 198 }, "geometry": { "type": "LineString", "coordinates": [ [ 788402.171570032835007, 1407760.462837190832943 ], [ 789531.965062579838559, 1406110.139637269545346 ] ] } },
{ "type": "Feature", "properties": { "transect_id": 199 }, "geometry": { "type": "LineString", "coordinates": [ [ 789958.459525609039702, 1406823.278114453423768 ], [ 787997.298174228169955, 1407215.51038473425433 ] ] } },
{ "type": "Feature", "properties": { "transect_id": 200 }, "geometry": { "type": "LineString", "coordinates": [ [ 788750.290775928180665, 1408007.336941113229841 ], [ 789033.133488404331729, 1406027.437953791115433 ] ] } },
{ "type": "Feature", "properties": { "transect_id": 201 }, "geometry": { "type": "LineString", "coordinates": [ [ 789836.367175565450452, 1407107.64088318683207 ], [ 787838.862497809459455, 1407007.765649306122214 ] ] } },
{ "type": "Feature", "properties": { "transect_id": 202 }, "geometry": { "type": "LineString", "coordinates": [ [ 789831.373413871391676, 1407207.516117074526846 ], [ 787833.868736115400679, 1407107.64088319381699 ] ] } },
{ "type": "Feature", "properties": { "transect_id": 203 }, "geometry": { "type": "LineString", "coordinates": [ [ 789524.389598910114728, 1407931.166119170607999 ], [ 788070.363293798291124, 1406557.919053256278858 ] ] } },
{ "type": "Feature", "properties": { "transect_id": 204 }, "geometry": { "type": "LineString", "coordinates": [ [ 789455.727245610905811, 1408003.867434428771958 ], [ 788001.700940504902974, 1406630.62036850838922 ] ] } },
{ "type": "Feature", "properties": { "transect_id": 205 }, "geometry": { "type": "LineString", "coordinates": [ [ 789009.844359660055488, 1408326.772374242544174 ], [ 788310.25911986338906, 1406453.118059204891324 ] ] } },
{ "type": "Feature", "properties": { "transect_id": 206 }, "geometry": { "type": "LineString", "coordinates": [ [ 788454.110886046779342, 1408373.663869242416695 ], [ 788667.177133315359242, 1406385.045561402803287 ] ] } },
{ "type": "Feature", "properties": { "transect_id": 207 }, "geometry": { "type": "LineString", "coordinates": [ [ 788354.679970654775389, 1408363.01055687922053 ], [ 788567.746217923355289, 1406374.392249039607123 ] ] } },
{ "type": "Feature", "properties": { "transect_id": 208 }, "geometry": { "type": "LineString", "coordinates": [ [ 787385.765597555437125, 1407251.217409701785073 ], [ 789377.552010490675457, 1407432.288901787949726 ] ] } },
{ "type": "Feature", "properties": { "transect_id": 209 }, "geometry": { "type": "LineString", "coordinates": [ [ 787394.819172160234302, 1407151.628089054021984 ], [ 789386.605585095239803, 1407332.699581142049283 ] ] } },
{ "type": "Feature", "properties": { "transect_id": 210 }, "geometry": { "type": "LineString", "coordinates": [ [ 787528.337670851964504, 1407633.09744833689183 ], [ 789271.194235612638295, 1406652.051580565981567 ] ] } },
{ "type": "Feature", "properties": { "transect_id": 211 }, "geometry": { "type": "LineString", "coordinates": [ [ 789038.224066768074408, 1407915.989495605695993 ], [ 787624.010504389181733, 1406501.775933238212019 ] ] } },
{ "type": "Feature", "properties": { "transect_id": 212 }, "geometry": { "type": "LineString", "coordinates": [ [ 788967.513388649444096, 1407986.70017372444272 ], [ 787553.299826270551421, 1406572.486611356958747 ] ] } },
{ "type": "Feature", "properties": { "transect_id": 213 }, "geometry": { "type": "LineString", "coordinates": [ [ 788972.686481640092097, 1406593.582444843137637 ], [ 787655.677265906357206, 1408098.735834259772673 ] ] } },
{ "type": "Feature", "properties": { "transect_id": 214 }, "geometry": { "type": "LineString", "coordinates": [ [ 789047.944151113624685, 1406659.432905632769689 ], [ 787730.934935374069028, 1408164.586295044282451 ] ] } },
{ "type": "Feature", "properties": { "transect_id": 215 }, "geometry": { "type": "LineString", "coordinates": [ [ 788521.059342681779526, 1406433.532141544856131 ], [ 788444.193098459742032, 1408432.054490806534886 ] ] } },
{ "type": "Feature", "properties": { "transect_id": 216 }, "geometry": { "type": "LineString", "coordinates": [ [ 788620.985460133291781, 1406437.375453754328191 ], [ 788544.119215934537351, 1408435.897803016938269 ] ] } },
{ "type": "Feature", "properties": { "transect_id": 217 }, "geometry": { "type": "LineString", "coordinates": [ [ 787951.561183588812128, 1406744.297758183442056 ], [ 789405.587488683871925, 1408117.544824115466326 ] ] } },
{ "type": "Feature", "properties": { "transect_id": 218 }, "geometry": { "type": "LineString", "coordinates": [ [ 788020.223536876845174, 1406671.596442937385291 ], [ 789474.249841988668777, 1408044.843508851714432 ] ] } },
{ "type": "Feature", "properties": { "transect_id": 219 }, "geometry": { "type": "LineString", "coordinates": [ [ 788088.885890178731643, 1406598.895127676660195 ], [ 789542.912195279612206, 1407972.142193602630869 ] ] } },
{ "type": "Feature", "properties": { "transect_id": 220 }, "geometry": { "type": "LineString", "coordinates": [ [ 788157.548243475146592, 1406526.193812421755865 ], [ 789611.574548576027155, 1407899.440878347726539 ] ] } },
{ "type": "Feature", "properties": { "transect_id": 221 }, "geometry": { "type": "LineString", "coordinates": [ [ 788226.210596771677956, 1406453.492497166851535 ], [ 789680.236901872558519, 1407826.739563092822209 ] ] } },
{ "type": "Feature", "properties": { "transect_id": 222 }, "geometry": { "type": "LineString", "coordinates": [ [ 788793.459991201176308, 1406103.572791537037119 ], [ 789260.205896148341708, 1408048.347395499004051 ] ] } },
{ "type": "Feature", "properties": { "transect_id": 223 }, "geometry": { "type": "LineString", "coordinates": [ [ 788890.698721398017369, 1406080.235496290028095 ], [ 789357.444626347743906, 1408025.010100251063704 ] ] } },
{ "type": "Feature", "properties": { "transect_id": 224 }, "geometry": { "type": "LineString", "coordinates": [ [ 788987.937451596138999, 1406056.898201042786241 ], [ 789454.683356545865536, 1408001.67280500382185 ] ] } },
{ "type": "Feature", "properties": { "transect_id": 225 }, "geometry": { "type": "LineString", "coordinates": [ [ 789085.176181794144213, 1406033.560905795311555 ], [ 789551.92208674387075, 1407978.335509756347165 ] ] } },
{ "type": "Feature", "properties": { "transect_id": 226 }, "geometry": { "type": "LineString", "coordinates": [ [ 789182.414911992265843, 1406010.22361054783687 ], [ 789649.16081694199238, 1407954.998214508872479 ] ] } },
{ "type": "Feature", "properties": { "transect_id": 227 }, "geometry": { "type": "LineString", "coordinates": [ [ 790338.92511256528087, 1406403.375380294164643 ], [ 788681.57130787265487, 1407522.829875157913193 ] ] } },
{ "type": "Feature", "properties": { "transect_id": 228 }, "geometry": { "type": "LineString", "coordinates": [ [ 790515.038010983262211, 1406983.038933300413191 ], [ 788521.407453910447657, 1407142.529377858620137 ] ] } },
{ "type": "Feature", "properties": { "transect_id": 229 }, "geometry": { "type": "LineString", "coordinates": [ [ 790523.012533211382106, 1407082.720461155055091 ], [ 788529.381976138334721, 1407242.210905711399391 ] ] } },
{ "type": "Feature", "properties": { "transect_id": 230 }, "geometry": { "type": "LineString", "coordinates": [ [ 790153.807696984615177, 1406426.673316840082407 ], [ 788991.331309545319527, 1408054.140259252861142 ] ] } },
{ "type": "Feature", "properties": { "transect_id": 231 }, "geometry": { "type": "LineString", "coordinates": [ [ 790235.18104410241358, 1406484.797136210137978 ], [ 789072.704656668705866, 1408112.264078626642004 ] ] } },
{ "type": "Feature", "properties": { "transect_id": 232 }, "geometry": { "type": "LineString", "coordinates": [ [ 790627.343925773049705, 1407609.892395668430254 ], [ 788677.078214187757112, 1407166.650188500760123 ] ] } },
{ "type": "Feature", "properties": { "transect_id": 233 }, "geometry": { "type": "LineString", "coordinates": [ [ 790605.181815412710421, 1407707.405681253178045 ], [ 788654.916103829978965, 1407264.163474074332044 ] ] } },
{ "type": "Feature", "properties": { "transect_id": 234 }, "geometry": { "type": "LineString", "coordinates": [ [ 789959.699823110131547, 1406587.87929604225792 ], [ 789385.004051969852298, 1408503.531866482226178 ] ] } },
{ "type": "Feature", "properties": { "transect_id": 235 }, "geometry": { "type": "LineString", "coordinates": [ [ 790055.482451632269658, 1406616.614084598841146 ], [ 789480.78668049199041, 1408532.266655038809404 ] ] } },
{ "type": "Feature", "properties": { "transect_id": 236 }, "geometry": { "type": "LineString", "coordinates": [ [ 788903.983805227908306, 1407186.246813396224752 ], [ 790769.120001778821461, 1407908.235018505016342 ] ] } },
{ "type": "Feature", "properties": { "transect_id": 237 }, "geometry": { "type": "LineString", "coordinates": [ [ 788940.083215483697131, 1407092.990003568818793 ], [ 790805.219412034610286, 1407814.978208677610382 ] ] } },
{ "type": "Feature", "properties": { "transect_id": 238 }, "geometry": { "type": "LineString", "coordinates": [ [ 788976.182625739485957, 1406999.733193741412833 ], [ 790841.318822290399112, 1407721.721398850204423 ] ] } },
{ "type": "Feature", "properties": { "transect_id": 239 }, "geometry": { "type": "LineString", "coordinates": [ [ 789728.231920831254683, 1406302.587705644313246 ], [ 790177.950934221153148, 1408251.37009703554213 ] ] } },
{ "type": "Feature", "properties": { "transect_id": 240 }, "geometry": { "type": "LineString", "coordinates": [ [ 789825.671040400746278, 1406280.101754974573851 ], [ 790275.390053790644743, 1408228.884146365802735 ] ] } },
{ "type": "Feature", "properties": { "transect_id": 241 }, "geometry": { "type": "LineString", "coordinates": [ [ 790555.073681551148184, 1406371.873277690494433 ], [ 789730.737941857543774, 1408194.089123375015333 ] ] } },
{ "type": "Feature", "properties": { "transect_id": 242 }, "geometry": { "type": "LineString", "coordinates": [ [ 790646.184473844710737, 1406413.090064680436626 ], [ 789821.848734131781384, 1408235.305910356109962 ] ] } },
{ "type": "Feature", "properties": { "transect_id": 243 }, "geometry": { "type": "LineString", "coordinates": [ [ 790737.295266128494404, 1406454.306851665955037 ], [ 789912.959526415565051, 1408276.522697341628373 ] ] } },
{ "type": "Feature", "properties": { "transect_id": 244 }, "geometry": { "type": "LineString", "coordinates": [ [ 790828.406058414606377, 1406495.52363865240477 ], [ 790004.070318697253242, 1408317.739484326215461 ] ] } },
{ "type": "Feature", "properties": { "transect_id": 245 }, "geometry": { "type": "LineString", "coordinates": [ [ 791295.924673756351694, 1406847.675761139718816 ], [ 789707.209007804980502, 1408062.575976285384968 ] ] } },
{ "type": "Feature", "properties": { "transect_id": 246 }, "geometry": { "type": "LineString", "coordinates": [ [ 791356.669684513355605, 1406927.11154443747364 ], [ 789767.954018561984412, 1408142.011759583139792 ] ] } },
{ "type": "Feature", "properties": { "transect_id": 247 }, "geometry": { "type": "LineString", "coordinates": [ [ 791618.205248988466337, 1407648.766474437667057 ], [ 789619.353734052274376, 1407580.997593399370089 ] ] } },
{ "type": "Feature", "properties": { "transect_id": 248 }, "geometry": { "type": "LineString", "coordinates": [ [ 791564.668429163633846, 1407954.431908963946626 ], [ 789624.383428870118223, 1407469.360658902442083 ] ] } },
{ "type": "Feature", "properties": { "transect_id": 249 }, "geometry": { "type": "LineString", "coordinates": [ [ 790027.131931075360626, 1408560.53933614003472 ], [ 791011.246444415068254, 1406819.413658702047542 ] ] } },
{ "type": "Feature", "properties": { "transect_id": 250 }, "geometry": { "type": "LineString", "coordinates": [ [ 789940.075647205929272, 1408511.333610474830493 ], [ 790924.190160540514626, 1406770.207933034049347 ] ] } },
{ "type": "Feature", "properties": { "transect_id": 251 }, "geometry": { "type": "LineString", "coordinates": [ [ 790425.962472889106721, 1408597.969342158641666 ], [ 790259.87151318253018, 1406604.877825669012964 ] ] } },
{ "type": "Feature", "properties": { "transect_id": 252 }, "geometry": { "type": "LineString", "coordinates": [ [ 790504.808133816695772, 1408574.919220816576853 ], [ 789981.716700605931692, 1406644.537042981712148 ] ] } },
{ "type": "Feature", "properties": { "transect_id": 253 }, "geometry": { "type": "LineString", "coordinates": [ [ 790749.945669147418812, 1408475.627741414587945 ], [ 789573.602273795986548, 1406858.155572809278965 ] ] } },
{ "type": "Feature", "properties": { "transect_id": 254 }, "geometry": { "type": "LineString", "coordinates": [ [ 791006.758576393127441, 1408174.747659498360008 ], [ 789201.037538747303188, 1407314.880498709157109 ] ] } },
{ "type": "Feature", "properties": { "transect_id": 255 }, "geometry": { "type": "LineString", "coordinates": [ [ 790963.765218356042169, 1408265.033711376134306 ], [ 789158.044180705794133, 1407405.166550596244633 ] ] } },
{ "type": "Feature", "properties": { "transect_id": 256 }, "geometry": { "type": "LineString", "coordinates": [ [ 789557.637345747789368, 1408781.852661623386666 ], [ 790452.064536747755483, 1406992.998279623454437 ] ] } },
{ "type": "Feature", "properties": { "transect_id": 257 }, "geometry": { "type": "LineString", "coordinates": [ [ 789468.194626645534299, 1408737.131302072200924 ], [ 790362.621817650157027, 1406948.276920074597001 ] ] } },
{ "type": "Feature", "properties": { "transect_id": 258 }, "geometry": { "type": "LineString", "coordinates": [ [ 789378.751907547819428, 1408692.409942523343489 ], [ 790273.179098547785543, 1406903.555560523411259 ] ] } },
{ "type": "Feature", "properties": { "transect_id": 259 }, "geometry": { "type": "LineString", "coordinates": [ [ 789827.549025681335479, 1408769.044050398282707 ], [ 789637.930840426357463, 1406778.053105210419744 ] ] } },
{ "type": "Feature", "properties": { "transect_id": 260 }, "geometry": { "type": "LineString", "coordinates": [ [ 789727.999478422454558, 1408778.524959661066532 ], [ 789538.38129316654522, 1406787.53401447320357 ] ] } },
{ "type": "Feature", "properties": { "transect_id": 261 }, "geometry": { "type": "LineString", "coordinates": [ [ 790418.594187099137343, 1408303.339195233769715 ], [ 788675.443112856359221, 1407322.816715957596898 ] ] } },
{ "type": "Feature", "properties": { "transect_id": 262 }, "geometry": { "type": "LineString", "coordinates": [ [ 790369.568063138751313, 1408390.496748941252008 ], [ 788626.416988890385255, 1407409.974269674858078 ] ] } },
{ "type": "Feature", "properties": { "transect_id": 263 }, "geometry": { "type": "LineString", "coordinates": [ [ 790320.541939178132452, 1408477.654302649432793 ], [ 788577.39086492464412, 1407497.131823391886428 ] ] } },
{ "type": "Feature", "properties": { "transect_id": 264 }, "geometry": { "type": "LineString", "coordinates": [ [ 790271.515815212391317, 1408564.811856366228312 ], [ 788528.364740964025259, 1407584.289377099834383 ] ] } },
{ "type": "Feature", "properties": { "transect_id": 265 }, "geometry": { "type": "LineString", "coordinates": [ [ 789991.4100525486283, 1408903.534793795784935 ], [ 788679.052622694987804, 1407394.323749472154304 ] ] } },
{ "type": "Feature", "properties": { "transect_id": 266 }, "geometry": { "type": "LineString", "coordinates": [ [ 789915.949500332353637, 1408969.152665288187563 ], [ 788603.59207047871314, 1407459.941620964556932 ] ] } },
{ "type": "Feature", "properties": { "transect_id": 267 }, "geometry": { "type": "LineString", "coordinates": [ [ 789840.488948109443299, 1409034.770536786410958 ], [ 788528.131518269074149, 1407525.559492451604456 ] ] } },
{ "type": "Feature", "properties": { "transect_id": 268 }, "geometry": { "type": "LineString", "coordinates": [ [ 789765.028395899804309, 1409100.388408273458481 ], [ 788452.670966046163812, 1407591.17736394982785 ] ] } },
{ "type": "Feature", "properties": { "transect_id": 269 }, "geometry": { "type": "LineString", "coordinates": [ [ 789689.567843683529645, 1409166.006279765861109 ], [ 788377.210413829889148, 1407656.795235442230478 ] ] } },
{ "type": "Feature", "properties": { "transect_id": 270 }, "geometry": { "type": "LineString", "coordinates": [ [ 789614.107291467254981, 1409231.624151258496568 ], [ 788301.749861613614485, 1407722.413106934865937 ] ] } },
{ "type": "Feature", "properties": { "transect_id": 271 }, "geometry": { "type": "LineString", "coordinates": [ [ 788314.267601267085411, 1409307.221456994302571 ], [ 789443.635432451381348, 1407656.606934494804591 ] ] } },
{ "type": "Feature", "properties": { "transect_id": 272 }, "geometry": { "type": "LineString", "coordinates": [ [ 788231.736875141970813, 1409250.753065435215831 ], [ 789361.104706326266751, 1407600.138542935717851 ] ] } },
{ "type": "Feature", "properties": { "transect_id": 273 }, "geometry": { "type": "LineString", "coordinates": [ [ 788710.480075545841828, 1409379.999999999767169 ], [ 788710.480075545841828, 1407379.999999999767169 ] ] } },
{ "type": "Feature", "properties": { "transect_id": 274 }, "geometry": { "type": "LineString", "coordinates": [ [ 788610.480075545841828, 1409379.999999999767169 ], [ 788610.480075545841828, 1407379.999999999767169 ] ] } },
{ "type": "Feature", "properties": { "transect_id": 275 }, "geometry": { "type": "LineString", "coordinates": [ [ 789100.745059715467505, 1409194.3103312025778 ], [ 787924.023061157786287, 1407577.113578141666949 ] ] } },
{ "type": "Feature", "properties": { "transect_id": 276 }, "geometry": { "type": "LineString", "coordinates": [ [ 789032.38406043977011, 1409245.71195467049256 ], [ 787832.384060434182175, 1407645.711954674683511 ] ] } },
{ "type": "Feature", "properties": { "transect_id": 277 }, "geometry": { "type": "LineString", "coordinates": [ [ 789216.452807132154703, 1409050.47173500014469 ], [ 787520.456199128413573, 1407990.473854983225465 ] ] } },
{ "type": "Feature", "properties": { "transect_id": 278 }, "geometry": { "type": "LineString", "coordinates": [ [ 789338.551526548340917, 1408714.36035563936457 ], [ 787348.477146126097068, 1408515.352917620446533 ] ] } },
{ "type": "Feature", "properties": { "transect_id": 279 }, "geometry": { "type": "LineString", "coordinates": [ [ 789015.202701725065708, 1407909.537313893204555 ], [ 787765.812606621999294, 1409471.274932783795521 ] ] } },
{ "type": "Feature", "properties": { "transect_id": 280 }, "geometry": { "type": "LineString", "coordinates": [ [ 787529.196351512218826, 1409144.460680523887277 ], [ 789318.050733512151055, 1408250.033489523921162 ] ] } },
{ "type": "Feature", "properties": { "transect_id": 281 }, "geometry": { "type": "LineString", "coordinates": [ [ 787484.474991962197237, 1409055.017961423844099 ], [ 789273.329373962129466, 1408160.590770423877984 ] ] } },
{ "type": "Feature", "properties": { "transect_id": 282 }, "geometry": { "type": "LineString", "coordinates": [ [ 787715.349432884017006, 1407803.345713038695976 ], [ 789088.596498798113316, 1409257.37201815075241 ] ] } },
{ "type": "Feature", "properties": { "transect_id": 283 }, "geometry": { "type": "LineString", "coordinates": [ [ 787788.050748129957356, 1407734.683359750779346 ], [ 789161.297814062214456, 1409188.709664846071973 ] ] } },
{ "type": "Feature", "properties": { "transect_id": 284 }, "geometry": { "type": "LineString", "coordinates": [ [ 788698.373277409817092, 1407412.568570803385228 ], [ 788401.692371553857811, 1409390.441276540514082 ] ] } },
{ "type": "Feature", "properties": { "transect_id": 285 }, "geometry": { "type": "LineString", "coordinates": [ [ 788797.266912708058953, 1407427.402616098057479 ], [ 788500.586006829282269, 1409405.275321831926703 ] ] } },
{ "type": "Feature", "properties": { "transect_id": 286 }, "geometry": { "type": "LineString", "coordinates": [ [ 789294.380951522500254, 1407598.163384245708585 ], [ 788198.409341878374107, 1409271.138647318817675 ] ] } },
{ "type": "Feature", "properties": { "transect_id": 287 }, "geometry": { "type": "LineString", "coordinates": [ [ 789415.44045280420687, 1407684.732101244386286 ], [ 788239.097057458362542, 1409302.204269853886217 ] ] } },
{ "type": "Feature", "properties": { "transect_id": 288 }, "geometry": { "type": "LineString", "coordinates": [ [ 788933.019665105151944, 1407566.314404398435727 ], [ 788734.012227075756527, 1409556.388784819515422 ] ] } },
{ "type": "Feature", "properties": { "transect_id": 289 }, "geometry": { "type": "LineString", "coordinates": [ [ 788344.481677010189742, 1407752.106445373501629 ], [ 789516.721250071190298, 1409372.555266950279474 ] ] } },
{ "type": "Feature", "properties": { "transect_id": 290 }, "geometry": { "type": "LineString", "coordinates": [ [ 788425.504118086420931, 1407693.494466722477227 ], [ 789597.743691153009422, 1409313.943288295529783 ] ] } },
{ "type": "Feature", "properties": { "transect_id": 291 }, "geometry": { "type": "LineString", "coordinates": [ [ 788506.526559173129499, 1407634.882488064235076 ], [ 789678.766132224351168, 1409255.331309647997841 ] ] } },
{ "type": "Feature", "properties": { "transect_id": 292 }, "geometry": { "type": "LineString", "coordinates": [ [ 788587.549000254832208, 1407576.270509409485385 ], [ 789759.788573300465941, 1409196.719330997439101 ] ] } },
{ "type": "Feature", "properties": { "transect_id": 293 }, "geometry": { "type": "LineString", "coordinates": [ [ 788668.571441323379986, 1407517.658530764048919 ], [ 789840.811014389968477, 1409138.107352337101474 ] ] } },
{ "type": "Feature", "properties": { "transect_id": 294 }, "geometry": { "type": "LineString", "coordinates": [ [ 788749.593882402405143, 1407459.046552111161873 ], [ 789921.833455468993634, 1409079.495373684214428 ] ] } },
{ "type": "Feature", "properties": { "transect_id": 295 }, "geometry": { "type": "LineString", "coordinates": [ [ 788514.999809903209098, 1407744.754122326616198 ], [ 790295.086539621581323, 1408656.505861935671419 ] ] } },
{ "type": "Feature", "properties": { "transect_id": 296 }, "geometry": { "type": "LineString", "coordinates": [ [ 788560.587396883754991, 1407655.749785840744153 ], [ 790340.674126602127217, 1408567.501525449799374 ] ] } },
{ "type": "Feature", "properties": { "transect_id": 297 }, "geometry": { "type": "LineString", "coordinates": [ [ 788606.174983866512775, 1407566.745449349982664 ], [ 790386.261713580228388, 1408478.497188968351111 ] ] } },
{ "type": "Feature", "properties": { "transect_id": 298 }, "geometry": { "type": "LineString", "coordinates": [ [ 788651.762570844730362, 1407477.741112868767232 ], [ 790431.849300563102588, 1408389.492852477822453 ] ] } },
{ "type": "Feature", "properties": { "transect_id": 299 }, "geometry": { "type": "LineString", "coordinates": [ [ 788697.35015782515984, 1407388.736776382895187 ], [ 790477.436887543532066, 1408300.488515991950408 ] ] } },
{ "type": "Feature", "properties": { "transect_id": 300 }, "geometry": { "type": "LineString", "coordinates": [ [ 789572.483926875516772, 1406817.764045200077817 ], [ 789771.491364929126576, 1408807.838425618829206 ] ] } },
{ "type": "Feature", "properties": { "transect_id": 301 }, "geometry": { "type": "LineString", "coordinates": [ [ 790671.403609254630283, 1407561.93316759634763 ], [ 788774.037013148888946, 1408194.388699615839869 ] ] } },
{ "type": "Feature", "properties": { "transect_id": 302 }, "geometry": { "type": "LineString", "coordinates": [ [ 788848.402310739853419, 1407474.905721651855856 ], [ 790669.13526566058863, 1408302.511610263958573 ] ] } },
{ "type": "Feature", "properties": { "transect_id": 303 }, "geometry": { "type": "LineString", "coordinates": [ [ 790228.950767425238155, 1406921.154203199548647 ], [ 789395.641346436110325, 1408739.283848986728117 ] ] } },
{ "type": "Feature", "properties": { "transect_id": 304 }, "geometry": { "type": "LineString", "coordinates": [ [ 790319.857249714666978, 1406962.819674249039963 ], [ 789486.547828725539148, 1408780.949320036219433 ] ] } },
{ "type": "Feature", "properties": { "transect_id": 305 }, "geometry": { "type": "LineString", "coordinates": [ [ 790410.7637320040958, 1407004.485145298298448 ], [ 789577.454311014967971, 1408822.614791085477918 ] ] } },
{ "type": "Feature", "properties": { "transect_id": 306 }, "geometry": { "type": "LineString", "coordinates": [ [ 789298.19050595164299, 1407245.808953248430043 ], [ 790838.979148203041404, 1408520.944381314329803 ] ] } },
{ "type": "Feature", "properties": { "transect_id": 307 }, "geometry": { "type": "LineString", "coordinates": [ [ 789361.947277358034626, 1407168.769521132577211 ], [ 790902.735919603612274, 1408443.90494920546189 ] ] } },
{ "type": "Feature", "properties": { "transect_id": 308 }, "geometry": { "type": "LineString", "coordinates": [ [ 789425.704048761515878, 1407091.730089019984007 ], [ 790966.492691007093526, 1408366.865517092868686 ] ] } },
{ "type": "Feature", "properties": { "transect_id": 309 }, "geometry": { "type": "LineString", "coordinates": [ [ 789489.460820165113546, 1407014.690656907623634 ], [ 791030.249462410691194, 1408289.826084980508313 ] ] } },
{ "type": "Feature", "properties": { "transect_id": 310 }, "geometry": { "type": "LineString", "coordinates": [ [ 790705.68019093235489, 1406735.979206932708621 ], [ 789991.405258398852311, 1408604.082876634784043 ] ] } },
{ "type": "Feature", "properties": { "transect_id": 311 }, "geometry": { "type": "LineString", "coordinates": [ [ 790799.085374409216456, 1406771.692953556310385 ], [ 790084.810441892244853, 1408639.796623264439404 ] ] } },
{ "type": "Feature", "properties": { "transect_id": 312 }, "geometry": { "type": "LineString", "coordinates": [ [ 790892.49055789434351, 1406807.406700182938948 ], [ 790178.215625377371907, 1408675.510369891067967 ] ] } },
{ "type": "Feature", "properties": { "transect_id": 313 }, "geometry": { "type": "LineString", "coordinates": [ [ 790205.313131381291896, 1406855.324181538773701 ], [ 791051.084062041714787, 1408667.690461530117318 ] ] } },
{ "type": "Feature", "properties": { "transect_id": 314 }, "geometry": { "type": "LineString", "coordinates": [ [ 790295.931445380789228, 1406813.035635005682707 ], [ 791141.702376041212119, 1408625.401914997026324 ] ] } },
{ "type": "Feature", "properties": { "transect_id": 315 }, "geometry": { "type": "LineString", "coordinates": [ [ 790386.549759380402975, 1406770.747088472824544 ], [ 791232.320690040825866, 1408583.113368464168161 ] ] } },
{ "type": "Feature", "properties": { "transect_id": 316 }, "geometry": { "type": "LineString", "coordinates": [ [ 790477.168073380016722, 1406728.45854193973355 ], [ 791322.939004040439613, 1408540.824821931077167 ] ] } },
{ "type": "Feature", "properties": { "transect_id": 317 }, "geometry": { "type": "LineString", "coordinates": [ [ 791911.029343876405619, 1407553.413532955572009 ], [ 789938.241496210335754, 1407882.211507555097342 ] ] } },
{ "type": "Feature", "properties": { "transect_id": 318 }, "geometry": { "type": "LineString", "coordinates": [ [ 791927.469242606428452, 1407652.052925338968635 ], [ 789954.681394940358587, 1407980.850899938493967 ] ] } },
{ "type": "Feature", "properties": { "transect_id": 319 }, "geometry": { "type": "LineString", "coordinates": [ [ 791943.909141336451285, 1407750.692317722132429 ], [ 789971.121293670381419, 1408079.490292321657762 ] ] } },
{ "type": "Feature", "properties": { "transect_id": 320 }, "geometry": { "type": "LineString", "coordinates": [ [ 791563.171452798764221, 1407184.564455386251211 ], [ 790416.24676408234518, 1408823.028296431526542 ] ] } },
{ "type": "Feature", "properties": { "transect_id": 321 }, "geometry": { "type": "LineString", "coordinates": [ [ 791222.938421508530155, 1407071.165783192962408 ], [ 790921.002443722914904, 1409048.243087022565305 ] ] } },
{ "type": "Feature", "properties": { "transect_id": 322 }, "geometry": { "type": "LineString", "coordinates": [ [ 791022.523614974576049, 1407055.934036946156994 ], [ 791319.20452083053533, 1409033.806742683285847 ] ] } },
{ "type": "Feature", "properties": { "transect_id": 323 }, "geometry": { "type": "LineString", "coordinates": [ [ 792137.566110267420299, 1407533.137392414966598 ], [ 790401.949296111357398, 1408526.93529662839137 ] ] } },
{ "type": "Feature", "properties": { "transect_id": 324 }, "geometry": { "type": "LineString", "coordinates": [ [ 791859.806027847342193, 1408843.682928446680307 ], [ 790531.078350174473599, 1407348.864291090983897 ] ] } },
{ "type": "Feature", "properties": { "transect_id": 325 }, "geometry": { "type": "LineString", "coordinates": [ [ 790920.382840443984605, 1407206.854496975662187 ], [ 791495.078611587290652, 1409122.507067414699122 ] ] } },
{ "type": "Feature", "properties": { "transect_id": 326 }, "geometry": { "type": "LineString", "coordinates": [ [ 792062.055389111163095, 1408775.711822968209162 ], [ 790500.317770224995911, 1407526.321727859554812 ] ] } },
{ "type": "Feature", "properties": { "transect_id": 327 }, "geometry": { "type": "LineString", "coordinates": [ [ 791999.585884355939925, 1408853.798703912645578 ], [ 790437.848265469772741, 1407604.408608803991228 ] ] } },
{ "type": "Feature", "properties": { "transect_id": 328 }, "geometry": { "type": "LineString", "coordinates": [ [ 791068.98283300420735, 1407246.260572066064924 ], [ 791518.701846394105814, 1409195.042963457293808 ] ] } },
{ "type": "Feature", "properties": { "transect_id": 329 }, "geometry": { "type": "LineString", "coordinates": [ [ 792084.321267276071012, 1407540.107704903231934 ], [ 790670.107704902999103, 1408954.321267276303843 ] ] } },
{ "type": "Feature", "properties": { "transect_id": 330 }, "geometry": { "type": "LineString", "coordinates": [ [ 792155.031945392140187, 1407610.818383018486202 ], [ 790740.818383024889044, 1409025.031945397611707 ] ] } },
{ "type": "Feature", "properties": { "transect_id": 331 }, "geometry": { "type": "LineString", "coordinates": [ [ 791703.751799161662348, 1407373.823484712978825 ], [ 791363.937966131488793, 1409344.743716199183837 ] ] } },
{ "type": "Feature", "properties": { "transect_id": 332 }, "geometry": { "type": "LineString", "coordinates": [ [ 791802.297810737043619, 1407390.814176364103332 ], [ 791462.483977705007419, 1409361.734407849842682 ] ] } },
{ "type": "Feature", "properties": { "transect_id": 333 }, "geometry": { "type": "LineString", "coordinates": [ [ 791900.843822311377153, 1407407.804868014995009 ], [ 791561.029989279340953, 1409378.725099500734359 ] ] } },
{ "type": "Feature", "properties": { "transect_id": 334 }, "geometry": { "type": "LineString", "coordinates": [ [ 791460.528302262420766, 1407447.177527218824252 ], [ 792191.833047104417346, 1409308.680514101171866 ] ] } },
{ "type": "Feature", "properties": { "transect_id": 335 }, "geometry": { "type": "LineString", "coordinates": [ [ 791553.603451608447358, 1407410.612289975630119 ], [ 792284.908196446485817, 1409272.115276859374717 ] ] } },
{ "type": "Feature", "properties": { "transect_id": 336 }, "geometry": { "type": "LineString", "coordinates": [ [ 791646.678600952494889, 1407374.047052733367309 ], [ 792377.983345790533349, 1409235.550039617111906 ] ] } },
{ "type": "Feature", "properties": { "transect_id": 337 }, "geometry": { "type": "LineString", "coordinates": [ [ 792491.04949998727534, 1407390.54518410586752 ], [ 791718.773323732777499, 1409235.427160707535222 ] ] } },
{ "type": "Feature", "properties": { "transect_id": 338 }, "geometry": { "type": "LineString", "coordinates": [ [ 792583.293598817428574, 1407429.158992918441072 ], [ 791811.017422562930733, 1409274.040969520108774 ] ] } },
{ "type": "Feature", "properties": { "transect_id": 339 }, "geometry": { "type": "LineString", "coordinates": [ [ 792675.537697647581808, 1407467.772801731014624 ], [ 791903.261521393083967, 1409312.654778332682326 ] ] } },
{ "type": "Feature", "properties": { "transect_id": 340 }, "geometry": { "type": "LineString", "coordinates": [ [ 792767.781796477735043, 1407506.386610543588176 ], [ 791995.505620223237202, 1409351.268587145255879 ] ] } },
{ "type": "Feature", "properties": { "transect_id": 341 }, "geometry": { "type": "LineString", "coordinates": [ [ 792860.025895307888277, 1407545.000419356394559 ], [ 792087.749719053390436, 1409389.882395958062261 ] ] } },
{ "type": "Feature", "properties": { "transect_id": 342 }, "geometry": { "type": "LineString", "coordinates": [ [ 792952.269994140020572, 1407583.614228169899434 ], [ 792179.993817881331779, 1409428.496204769704491 ] ] } },
{ "type": "Feature", "properties": { "transect_id": 343 }, "geometry": { "type": "LineString", "coordinates": [ [ 793044.51409296807833, 1407622.228036981541663 ], [ 792272.237916713580489, 1409467.110013583209366 ] ] } },
{ "type": "Feature", "properties": { "transect_id": 344 }, "geometry": { "type": "LineString", "coordinates": [ [ 793136.758191788336262, 1407660.841845789924264 ], [ 792364.482015553629026, 1409505.723822399973869 ] ] } },
{ "type": "Feature", "properties": { "transect_id": 345 }, "geometry": { "type": "LineString", "coordinates": [ [ 793229.002290628384799, 1407699.455654606688768 ], [ 792456.726114373886958, 1409544.33763120835647 ] ] } },
{ "type": "Feature", "properties": { "transect_id": 346 }, "geometry": { "type": "LineString", "coordinates": [ [ 793902.008174876915291, 1408520.923753664130345 ], [ 791926.482244219165295, 1408832.848900613142177 ] ] } },
{ "type": "Feature", "properties": { "transect_id": 347 }, "geometry": { "type": "LineString", "coordinates": [ [ 793917.604432223597541, 1408619.700050191488117 ], [ 791942.078501567710191, 1408931.62519715167582 ] ] } },
{ "type": "Feature", "properties": { "transect_id": 348 }, "geometry": { "type": "LineString", "coordinates": [ [ 793369.365095439949073, 1409743.803752419771627 ], [ 792448.730766538181342, 1407968.294689517701045 ] ] } },
{ "type": "Feature", "properties": { "transect_id": 349 }, "geometry": { "type": "LineString", "coordinates": [ [ 793280.589642295031808, 1409789.835468865232542 ], [ 792359.955313393264078, 1408014.32640596316196 ] ] } },
{ "type": "Feature", "properties": { "transect_id": 350 }, "geometry": { "type": "LineString", "coordinates": [ [ 793191.814189147669822, 1409835.867185311857611 ], [ 792271.179860250558704, 1408060.358122407458723 ] ] } },
{ "type": "Feature", "properties": { "transect_id": 351 }, "geometry": { "type": "LineString", "coordinates": [ [ 792765.772718498366885, 1409975.87738314573653 ], [ 792513.264159163809381, 1407991.88155969674699 ] ] } },
{ "type": "Feature", "properties": { "transect_id": 352 }, "geometry": { "type": "LineString", "coordinates": [ [ 792666.572927337372676, 1409988.502811111742631 ], [ 792414.064367979997769, 1408004.506987665547058 ] ] } },
{ "type": "Feature", "properties": { "transect_id": 353 }, "geometry": { "type": "LineString", "coordinates": [ [ 792567.37313616508618, 1410001.128239079145715 ], [ 792314.864576807711273, 1408017.132415632950142 ] ] } },
{ "type": "Feature", "properties": { "transect_id": 354 }, "geometry": { "type": "LineString", "coordinates": [ [ 792468.173344992683269, 1410013.753667046548799 ], [ 792215.664785635308363, 1408029.757843600353226 ] ] } },
{ "type": "Feature", "properties": { "transect_id": 355 }, "geometry": { "type": "LineString", "coordinates": [ [ 792368.973553808988072, 1410026.379095015348867 ], [ 792116.464994474430569, 1408042.383271566359326 ] ] } },
{ "type": "Feature", "properties": { "transect_id": 356 }, "geometry": { "type": "LineString", "coordinates": [ [ 792269.773762636585161, 1410039.004522982984781 ], [ 792017.265203302027658, 1408055.008699533995241 ] ] } },
{ "type": "Feature", "properties": { "transect_id": 357 }, "geometry": { "type": "LineString", "coordinates": [ [ 791885.997686771093868, 1410025.224693408701569 ], [ 792203.35387755499687, 1408050.563950858078897 ] ] } },
{ "type": "Feature", "properties": { "transect_id": 358 }, "geometry": { "type": "LineString", "coordinates": [ [ 791787.264649655669928, 1410009.356883872300386 ], [ 792104.620840415125713, 1408034.696141317486763 ] ] } },
{ "type": "Feature", "properties": { "transect_id": 359 }, "geometry": { "type": "LineString", "coordinates": [ [ 791688.53161251579877, 1409993.489074331941083 ], [ 792005.887803299701773, 1408018.828331781318411 ] ] } },
{ "type": "Feature", "properties": { "transect_id": 360 }, "geometry": { "type": "LineString", "coordinates": [ [ 791589.798575399443507, 1409977.62126479530707 ], [ 791907.154766160761937, 1408002.960522240959108 ] ] } },
{ "type": "Feature", "properties": { "transect_id": 361 }, "geometry": { "type": "LineString", "coordinates": [ [ 791491.065538260387257, 1409961.753455255180597 ], [ 791808.421729044290259, 1407987.092712704557925 ] ] } },
{ "type": "Feature", "properties": { "transect_id": 362 }, "geometry": { "type": "LineString", "coordinates": [ [ 792139.08480022684671, 1408144.454741444205865 ], [ 790996.066431873245165, 1409785.646079955855384 ] ] } },
{ "type": "Feature", "properties": { "transect_id": 363 }, "geometry": { "type": "LineString", "coordinates": [ [ 792005.469371445011348, 1409923.461910354206339 ], [ 791167.353016533423215, 1408107.543141348054633 ] ] } },
{ "type": "Feature", "properties": { "transect_id": 364 }, "geometry": { "type": "LineString", "coordinates": [ [ 792021.256222684052773, 1409908.11485800659284 ], [ 790969.974288394092582, 1408206.701829187572002 ] ] } },
{ "type": "Feature", "properties": { "transect_id": 365 }, "geometry": { "type": "LineString", "coordinates": [ [ 792333.934753775596619, 1409604.587443293770775 ], [ 790559.50115130818449, 1408681.881970006274059 ] ] } },
{ "type": "Feature", "properties": { "transect_id": 366 }, "geometry": { "type": "LineString", "coordinates": [ [ 792287.799480113666505, 1409693.309123412473127 ], [ 790513.365877641364932, 1408770.603650134289637 ] ] } },
{ "type": "Feature", "properties": { "transect_id": 367 }, "geometry": { "type": "LineString", "coordinates": [ [ 792171.721368208760396, 1408725.83112645871006 ], [ 790562.573209043359384, 1409913.535720141371712 ] ] } },
{ "type": "Feature", "properties": { "transect_id": 368 }, "geometry": { "type": "LineString", "coordinates": [ [ 792231.106597896548919, 1408806.288534422870725 ], [ 790621.958438722998835, 1409993.993128094356507 ] ] } },
{ "type": "Feature", "properties": { "transect_id": 369 }, "geometry": { "type": "LineString", "coordinates": [ [ 792290.491827580262907, 1408886.745942381443456 ], [ 790681.343668406712823, 1410074.450536052929237 ] ] } },
{ "type": "Feature", "properties": { "transect_id": 370 }, "geometry": { "type": "LineString", "coordinates": [ [ 792349.877057266770862, 1408967.203350343741477 ], [ 790740.728898087632842, 1410154.907944007776678 ] ] } },
{ "type": "Feature", "properties": { "transect_id": 371 }, "geometry": { "type": "LineString", "coordinates": [ [ 792409.26228695048485, 1409047.660758302314207 ], [ 790800.11412777134683, 1410235.365351966349408 ] ] } },
{ "type": "Feature", "properties": { "transect_id": 372 }, "geometry": { "type": "LineString", "coordinates": [ [ 792468.303172949003056, 1409127.65191897097975 ], [ 790859.843701140256599, 1410316.289007214829326 ] ] } },
{ "type": "Feature", "properties": { "transect_id": 373 }, "geometry": { "type": "LineString", "coordinates": [ [ 792071.62836905149743, 1408809.783569627674296 ], [ 791439.172837010817602, 1410707.150165726197883 ] ] } },
{ "type": "Feature", "properties": { "transect_id": 374 }, "geometry": { "type": "LineString", "coordinates": [ [ 792166.49669885658659, 1408841.406346229137853 ], [ 791534.041166815906763, 1410738.77294232766144 ] ] } },
{ "type": "Feature", "properties": { "transect_id": 375 }, "geometry": { "type": "LineString", "coordinates": [ [ 792261.365028663421981, 1408873.029122831299901 ], [ 791628.909496619249694, 1410770.395718928892165 ] ] } },
{ "type": "Feature", "properties": { "transect_id": 376 }, "geometry": { "type": "LineString", "coordinates": [ [ 792356.233358457917348, 1408904.651899429503828 ], [ 791723.777826434699818, 1410802.018495534081012 ] ] } },
{ "type": "Feature", "properties": { "transect_id": 377 }, "geometry": { "type": "LineString", "coordinates": [ [ 793011.719214807846583, 1409543.046468908665702 ], [ 791169.784712667926215, 1410322.326450575375929 ] ] } },
{ "type": "Feature", "properties": { "transect_id": 378 }, "geometry": { "type": "LineString", "coordinates": [ [ 793050.683213891345076, 1409635.143194015603513 ], [ 791208.748711751424707, 1410414.42317568231374 ] ] } },
{ "type": "Feature", "properties": { "transect_id": 379 }, "geometry": { "type": "LineString", "coordinates": [ [ 793089.647212974843569, 1409727.239919122541323 ], [ 791247.7127108349232, 1410506.519900789251551 ] ] } },
{ "type": "Feature", "properties": { "transect_id": 380 }, "geometry": { "type": "LineString", "coordinates": [ [ 793128.611212056712247, 1409819.336644225288182 ], [ 791286.676709920284338, 1410598.616625900380313 ] ] } },
{ "type": "Feature", "properties": { "transect_id": 381 }, "geometry": { "type": "LineString", "coordinates": [ [ 793167.57521114021074, 1409911.433369332225993 ], [ 791325.640709003782831, 1410690.713351007318124 ] ] } },
{ "type": "Feature", "properties": { "transect_id": 382 }, "geometry": { "type": "LineString", "coordinates": [ [ 792936.858875543577597, 1409625.850866542430595 ], [ 791644.974392611766234, 1411152.623437280999497 ] ] } },
{ "type": "Feature", "properties": { "transect_id": 383 }, "geometry": { "type": "LineString", "coordinates": [ [ 793013.197504080599174, 1409690.44509068899788 ], [ 791721.313021148787811, 1411217.217661427566782 ] ] } }
]
}
