{
"type": "FeatureCollection",
"name": "rayong_baseline",
"crs": { "type": "name", "properties": { "name": "urn:ogc:def:crs:OGC:1.3:CRS84" } },
"features": [
{ "type": "Feature", "properties": { "id": "baseline" }, "geometry": { "type": "LineString", "coordinates": [ [ 101.692858805385526, 12.745331767722217 ], [ 101.692618075649747, 12.748676732652063 ], [ 101.694063667341254, 12.746132535292048 ], [ 101.693485757267908, 12.743699294336761 ], [ 101.690670797054494, 12.73857866942642 ], [ 101.685670403732217, 12.735648311572845 ], [ 101.685284257995804, 12.733935795028499 ], [ 101.686927233969698, 12.732654374813345 ], [ 101.698346749626182, 12.733441553813504 ], [ 101.69885295997824, 12.729100174213595 ], [ 101.691805547091732, 12.724022653012256 ], [ 101.68426427725359, 12.724460565766952 ], [ 101.683143969037914, 12.72293615871882 ], [ 101.692642776526668, 12.716154705686401 ], [ 101.69819581127166, 12.719169701242647 ], [ 101.704058638615095, 12.71667079998663 ], [ 101.702605205514587, 12.701057205991289 ], [ 101.700214061716423, 12.701171898102052 ], [ 101.701286245800844, 12.706852263712852 ], [ 101.70010257744697, 12.708038714111668 ], [ 101.702203159295294, 12.715244328787033 ], [ 101.699559730718491, 12.717620060266901 ], [ 101.694373807082002, 12.714511018741337 ], [ 101.690786396989964, 12.714637811983845 ], [ 101.686114809332281, 12.716672664992467 ], [ 101.685316166732164, 12.719481265091614 ], [ 101.680384523828963, 12.723054443399496 ], [ 101.680068647952822, 12.719263395397814 ], [ 101.676566506891646, 12.718756770717613 ], [ 101.675724197982618, 12.717410188299379 ], [ 101.670373342780067, 12.716109081812577 ], [ 101.669277702598322, 12.716933181862968 ], [ 101.668745459453305, 12.718835682830489 ], [ 101.667086399828989, 12.718581372435088 ], [ 101.6677116115969, 12.716768276444023 ], [ 101.665927548632084, 12.713353309454256 ], [ 101.660775869610035, 12.713495427111679 ], [ 101.658058778770453, 12.717678366025417 ], [ 101.655479592924166, 12.71743320976312 ], [ 101.655642950711496, 12.715444074073687 ], [ 101.654276848415734, 12.716812876675853 ], [ 101.655762209545841, 12.718062762407749 ], [ 101.658155494137489, 12.718129098851424 ], [ 101.661250045218424, 12.714845772520318 ], [ 101.665839309168874, 12.713715557801484 ], [ 101.666905205364728, 12.718854216920395 ], [ 101.668751125305988, 12.71937766537827 ], [ 101.671019313068271, 12.716283249834568 ], [ 101.676114022037936, 12.719484058016651 ], [ 101.675849347738847, 12.720570805472544 ], [ 101.673720753432079, 12.719417887504806 ], [ 101.672617549015769, 12.719519360849743 ], [ 101.671612973171975, 12.720252213162182 ], [ 101.67071269193697, 12.722158428351131 ], [ 101.668308057287248, 12.721008248407218 ], [ 101.666377660541585, 12.721208370116543 ], [ 101.660556581775438, 12.727771424223628 ], [ 101.658796029253409, 12.726614685673894 ], [ 101.656863687827226, 12.726634085258031 ], [ 101.655767954211541, 12.727458146374728 ], [ 101.655315392338721, 12.728185412491726 ], [ 101.655232777882475, 12.729089649073027 ], [ 101.656160476103381, 12.729803067110112 ], [ 101.655409289928187, 12.728365152140517 ], [ 101.657049601988703, 12.726812900756599 ], [ 101.660562234355694, 12.728313410034245 ], [ 101.664854929719326, 12.725198663999205 ], [ 101.666748546459559, 12.721475656049233 ], [ 101.670715527682646, 12.722429419123866 ], [ 101.67289642419243, 12.719787565799637 ], [ 101.676037161213358, 12.720930265677271 ], [ 101.678784271735097, 12.719637744772186 ], [ 101.679370480658491, 12.722884027282182 ], [ 101.680297254118003, 12.723507022453859 ], [ 101.6821346734028, 12.723217400486751 ], [ 101.681602528131563, 12.725119910033763 ], [ 101.686770515600813, 12.726512936173988 ], [ 101.689336432384366, 12.725493158992212 ], [ 101.697283944277288, 12.728664478113652 ], [ 101.697578137111691, 12.730377901066051 ], [ 101.695107103738721, 12.731667809242886 ], [ 101.684891462680227, 12.731590972705241 ], [ 101.683084407086028, 12.734771161615368 ], [ 101.685976913020539, 12.73853603791901 ], [ 101.689578018085157, 12.739673844753156 ], [ 101.692858805385526, 12.745331767722217 ] ] } }
]
}
