{
"type": "FeatureCollection",
"name": "rayong_transects",
"crs": { "type": "name", "properties": { "name": "urn:ogc:def:crs:OGC:1.3:CRS84" } },
"features": [
{ "type": "Feature", "properties": { "transect_id": "TR_0000" }, "geometry": { "type": "LineString", "coordinates": [ [ 101.702038448882135, 12.745968176585453 ], [ 101.683679141939379, 12.744695030462612 ] ] } },
{ "type": "Feature", "properties": { "transect_id": "TR_0001" }, "geometry": { "type": "LineString", "coordinates": [ [ 101.701973632629247, 12.746869259782654 ], [ 101.683614259104644, 12.745596122162821 ] ] } },
{ "type": "Feature", "properties": { "transect_id": "TR_0002" }, "geometry": { "type": "LineString", "coordinates": [ [ 101.701908816578253, 12.747770343001717 ], [ 101.6835493764669, 12.746497213884121 ] ] } },
{ "type": "Feature", "properties": { "transect_id": "TR_0003" }, "geometry": { "type": "LineString", "coordinates": [ [ 101.70184400072911, 12.748671426242588 ], [ 101.683484494026104, 12.747398305626556 ] ] } },
{ "type": "Feature", "properties": { "transect_id": "TR_0004" }, "geometry": { "type": "LineString", "coordinates": [ [ 101.684710145311882, 12.744049336168285 ], [ 101.700784320819935, 12.752849633031884 ] ] } },
{ "type": "Feature", "properties": { "transect_id": "TR_0005" }, "geometry": { "type": "LineString", "coordinates": [ [ 101.685158429096589, 12.743260424247771 ], [ 101.701232558928439, 12.752060701144455 ] ] } },
{ "type": "Feature", "properties": { "transect_id": "TR_0006" }, "geometry": { "type": "LineString", "coordinates": [ [ 101.68560671044996, 12.742471512078767 ], [ 101.701680794605991, 12.75127176901136 ] ] } },
{ "type": "Feature", "properties": { "transect_id": "TR_0007" }, "geometry": { "type": "LineString", "coordinates": [ [ 101.68489285706552, 12.746968831146116 ], [ 101.703208039795086, 12.745185167158304 ] ] } },
{ "type": "Feature", "properties": { "transect_id": "TR_0008" }, "geometry": { "type": "LineString", "coordinates": [ [ 101.68487929028062, 12.747248302998518 ], [ 101.702803640843271, 12.743146245151934 ] ] } },
{ "type": "Feature", "properties": { "transect_id": "TR_0009" }, "geometry": { "type": "LineString", "coordinates": [ [ 101.684670373192105, 12.746368549959831 ], [ 101.702594671027441, 12.742266517779457 ] ] } },
{ "type": "Feature", "properties": { "transect_id": "TR_0010" }, "geometry": { "type": "LineString", "coordinates": [ [ 101.685257252513338, 12.74775298091023 ], [ 101.701454277483634, 12.739173057214183 ] ] } },
{ "type": "Feature", "properties": { "transect_id": "TR_0011" }, "geometry": { "type": "LineString", "coordinates": [ [ 101.684820238168371, 12.746957996401653 ], [ 101.701017238395679, 12.738378106229243 ] ] } },
{ "type": "Feature", "properties": { "transect_id": "TR_0012" }, "geometry": { "type": "LineString", "coordinates": [ [ 101.68438322691938, 12.746163010582695 ], [ 101.70058020240414, 12.737583153931205 ] ] } },
{ "type": "Feature", "properties": { "transect_id": "TR_0013" }, "geometry": { "type": "LineString", "coordinates": [ [ 101.683946218766252, 12.745368023453675 ], [ 101.700143169508678, 12.736788200320044 ] ] } },
{ "type": "Feature", "properties": { "transect_id": "TR_0014" }, "geometry": { "type": "LineString", "coordinates": [ [ 101.683509213708604, 12.744573035014554 ], [ 101.69970613970915, 12.735993245396074 ] ] } },
{ "type": "Feature", "properties": { "transect_id": "TR_0015" }, "geometry": { "type": "LineString", "coordinates": [ [ 101.683072211746293, 12.743778045265657 ], [ 101.699269113005187, 12.735198289159257 ] ] } },
{ "type": "Feature", "properties": { "transect_id": "TR_0016" }, "geometry": { "type": "LineString", "coordinates": [ [ 101.682635212879006, 12.74298305420699 ], [ 101.698832089396646, 12.734403331609876 ] ] } },
{ "type": "Feature", "properties": { "transect_id": "TR_0017" }, "geometry": { "type": "LineString", "coordinates": [ [ 101.685277513083548, 12.745938764510829 ], [ 101.69471138434406, 12.730425999645911 ] ] } },
{ "type": "Feature", "properties": { "transect_id": "TR_0018" }, "geometry": { "type": "LineString", "coordinates": [ [ 101.684487349184778, 12.74547571812043 ], [ 101.693921263141277, 12.729962974800957 ] ] } },
{ "type": "Feature", "properties": { "transect_id": "TR_0019" }, "geometry": { "type": "LineString", "coordinates": [ [ 101.683697187847827, 12.745012668777425 ], [ 101.693131144495297, 12.729499947004296 ] ] } },
{ "type": "Feature", "properties": { "transect_id": "TR_0020" }, "geometry": { "type": "LineString", "coordinates": [ [ 101.682907029072638, 12.744549616482065 ], [ 101.692341028406105, 12.729036916256184 ] ] } },
{ "type": "Feature", "properties": { "transect_id": "TR_0021" }, "geometry": { "type": "LineString", "coordinates": [ [ 101.682116872859268, 12.744086561234628 ], [ 101.691550914873673, 12.728573882556871 ] ] } },
{ "type": "Feature", "properties": { "transect_id": "TR_0022" }, "geometry": { "type": "LineString", "coordinates": [ [ 101.681326719207647, 12.743623503035353 ], [ 101.69076080389803, 12.728110845906654 ] ] } },
{ "type": "Feature", "properties": { "transect_id": "TR_0023" }, "geometry": { "type": "LineString", "coordinates": [ [ 101.676580690451559, 12.737135362793031 ], [ 101.694550179350387, 12.73323081500825 ] ] } },
{ "type": "Feature", "properties": { "transect_id": "TR_0024" }, "geometry": { "type": "LineString", "coordinates": [ [ 101.676381842197245, 12.73625335932889 ], [ 101.694351277499379, 12.732348836652546 ] ] } },
{ "type": "Feature", "properties": { "transect_id": "TR_0025" }, "geometry": { "type": "LineString", "coordinates": [ [ 101.679982013387232, 12.726533788685057 ], [ 101.691430769866386, 12.740679397641546 ] ] } },
{ "type": "Feature", "properties": { "transect_id": "TR_0026" }, "geometry": { "type": "LineString", "coordinates": [ [ 101.680702505276813, 12.725971865630163 ], [ 101.692151263582119, 12.740117440955927 ] ] } },
{ "type": "Feature", "properties": { "transect_id": "TR_0027" }, "geometry": { "type": "LineString", "coordinates": [ [ 101.68785228935576, 12.723662524297831 ], [ 101.686562720105698, 12.741684877830052 ] ] } },
{ "type": "Feature", "properties": { "transect_id": "TR_0028" }, "geometry": { "type": "LineString", "coordinates": [ [ 101.688770205727536, 12.723725823063331 ], [ 101.687480702980579, 12.741748168085355 ] ] } },
{ "type": "Feature", "properties": { "transect_id": "TR_0029" }, "geometry": { "type": "LineString", "coordinates": [ [ 101.689688121897177, 12.723789118550917 ], [ 101.688398685654519, 12.741811455058157 ] ] } },
{ "type": "Feature", "properties": { "transect_id": "TR_0030" }, "geometry": { "type": "LineString", "coordinates": [ [ 101.690606037864697, 12.723852410760561 ], [ 101.689316668127063, 12.741874738748397 ] ] } },
{ "type": "Feature", "properties": { "transect_id": "TR_0031" }, "geometry": { "type": "LineString", "coordinates": [ [ 101.691523953629826, 12.723915699692219 ], [ 101.690234650397954, 12.741938019156036 ] ] } },
{ "type": "Feature", "properties": { "transect_id": "TR_0032" }, "geometry": { "type": "LineString", "coordinates": [ [ 101.692441869192109, 12.723978985345827 ], [ 101.69115263246718, 12.742001296281042 ] ] } },
{ "type": "Feature", "properties": { "transect_id": "TR_0033" }, "geometry": { "type": "LineString", "coordinates": [ [ 101.693359784551305, 12.72404226772135 ], [ 101.692070614334469, 12.742064570123372 ] ] } },
{ "type": "Feature", "properties": { "transect_id": "TR_0034" }, "geometry": { "type": "LineString", "coordinates": [ [ 101.69427769970747, 12.724105546818754 ], [ 101.692988595999267, 12.742127840682956 ] ] } },
{ "type": "Feature", "properties": { "transect_id": "TR_0035" }, "geometry": { "type": "LineString", "coordinates": [ [ 101.695195614660079, 12.724168822637985 ], [ 101.693906577461661, 12.742191107959774 ] ] } },
{ "type": "Feature", "properties": { "transect_id": "TR_0036" }, "geometry": { "type": "LineString", "coordinates": [ [ 101.696113529408862, 12.724232095178987 ], [ 101.694824558721393, 12.742254371953781 ] ] } },
{ "type": "Feature", "properties": { "transect_id": "TR_0037" }, "geometry": { "type": "LineString", "coordinates": [ [ 101.697031443953762, 12.724295364441739 ], [ 101.695742539777996, 12.742317632664918 ] ] } },
{ "type": "Feature", "properties": { "transect_id": "TR_0038" }, "geometry": { "type": "LineString", "coordinates": [ [ 101.697949358294593, 12.724358630426192 ], [ 101.696660520631241, 12.742380890093143 ] ] } },
{ "type": "Feature", "properties": { "transect_id": "TR_0039" }, "geometry": { "type": "LineString", "coordinates": [ [ 101.698867272430846, 12.724421893132289 ], [ 101.697578501281086, 12.742444144238421 ] ] } },
{ "type": "Feature", "properties": { "transect_id": "TR_0040" }, "geometry": { "type": "LineString", "coordinates": [ [ 101.689294941538151, 12.731637754012926 ], [ 101.707579615963141, 12.733692301977687 ] ] } },
{ "type": "Feature", "properties": { "transect_id": "TR_0041" }, "geometry": { "type": "LineString", "coordinates": [ [ 101.689399621042696, 12.730740281372446 ], [ 101.707684228857929, 12.732794834974943 ] ] } },
{ "type": "Feature", "properties": { "transect_id": "TR_0042" }, "geometry": { "type": "LineString", "coordinates": [ [ 101.689504300457003, 12.729842808784053 ], [ 101.707788841667167, 12.731897368025294 ] ] } },
{ "type": "Feature", "properties": { "transect_id": "TR_0043" }, "geometry": { "type": "LineString", "coordinates": [ [ 101.689608979781113, 12.728945336247731 ], [ 101.707893454390984, 12.730999901128779 ] ] } },
{ "type": "Feature", "properties": { "transect_id": "TR_0044" }, "geometry": { "type": "LineString", "coordinates": [ [ 101.691091325676737, 12.733969374239113 ], [ 101.706573171840944, 12.72420119650765 ] ] } },
{ "type": "Feature", "properties": { "transect_id": "TR_0045" }, "geometry": { "type": "LineString", "coordinates": [ [ 101.692646018808659, 12.735833407763774 ], [ 101.703534821492994, 12.721268349659798 ] ] } },
{ "type": "Feature", "properties": { "transect_id": "TR_0046" }, "geometry": { "type": "LineString", "coordinates": [ [ 101.691904160345487, 12.735298927564745 ], [ 101.702792995321005, 12.720733895573716 ] ] } },
{ "type": "Feature", "properties": { "transect_id": "TR_0047" }, "geometry": { "type": "LineString", "coordinates": [ [ 101.6911623047977, 12.734764444640428 ], [ 101.70205117205964, 12.720199438762227 ] ] } },
{ "type": "Feature", "properties": { "transect_id": "TR_0048" }, "geometry": { "type": "LineString", "coordinates": [ [ 101.690420452165185, 12.734229958991104 ], [ 101.701309351708801, 12.719664979225598 ] ] } },
{ "type": "Feature", "properties": { "transect_id": "TR_0049" }, "geometry": { "type": "LineString", "coordinates": [ [ 101.689678602447884, 12.733695470617041 ], [ 101.700567534268401, 12.719130516964098 ] ] } },
{ "type": "Feature", "properties": { "transect_id": "TR_0050" }, "geometry": { "type": "LineString", "coordinates": [ [ 101.688936755645742, 12.7331609795185 ], [ 101.699825719738399, 12.718596051977991 ] ] } },
{ "type": "Feature", "properties": { "transect_id": "TR_0051" }, "geometry": { "type": "LineString", "coordinates": [ [ 101.688194911758657, 12.732626485695757 ], [ 101.699083908118681, 12.71806158426755 ] ] } },
{ "type": "Feature", "properties": { "transect_id": "TR_0052" }, "geometry": { "type": "LineString", "coordinates": [ [ 101.687453070786546, 12.732091989149078 ], [ 101.698342099409203, 12.717527113833043 ] ] } },
{ "type": "Feature", "properties": { "transect_id": "TR_0053" }, "geometry": { "type": "LineString", "coordinates": [ [ 101.686711232729337, 12.731557489878725 ], [ 101.697600293609867, 12.716992640674739 ] ] } },
{ "type": "Feature", "properties": { "transect_id": "TR_0054" }, "geometry": { "type": "LineString", "coordinates": [ [ 101.691864333801391, 12.733068386913777 ], [ 101.690777405805946, 12.715033213081833 ] ] } },
{ "type": "Feature", "properties": { "transect_id": "TR_0055" }, "geometry": { "type": "LineString", "coordinates": [ [ 101.690945730583366, 12.733121745406802 ], [ 101.68985886580343, 12.715086554897221 ] ] } },
{ "type": "Feature", "properties": { "transect_id": "TR_0056" }, "geometry": { "type": "LineString", "coordinates": [ [ 101.690027126319848, 12.733175100783207 ], [ 101.688940324756615, 12.715139893600593 ] ] } },
{ "type": "Feature", "properties": { "transect_id": "TR_0057" }, "geometry": { "type": "LineString", "coordinates": [ [ 101.689108521011079, 12.733228453042955 ], [ 101.688021782665714, 12.7151932291919 ] ] } },
{ "type": "Feature", "properties": { "transect_id": "TR_0058" }, "geometry": { "type": "LineString", "coordinates": [ [ 101.688189914657542, 12.733281802185976 ], [ 101.687103239530799, 12.715246561671114 ] ] } },
{ "type": "Feature", "properties": { "transect_id": "TR_0059" }, "geometry": { "type": "LineString", "coordinates": [ [ 101.687271307259437, 12.73333514821223 ], [ 101.686184695352097, 12.715299891038187 ] ] } },
{ "type": "Feature", "properties": { "transect_id": "TR_0060" }, "geometry": { "type": "LineString", "coordinates": [ [ 101.686352698816734, 12.733388491121694 ], [ 101.685266150130175, 12.715353217293053 ] ] } },
{ "type": "Feature", "properties": { "transect_id": "TR_0061" }, "geometry": { "type": "LineString", "coordinates": [ [ 101.685434089329959, 12.733441830914291 ], [ 101.684347603864964, 12.715406540435682 ] ] } },
{ "type": "Feature", "properties": { "transect_id": "TR_0062" }, "geometry": { "type": "LineString", "coordinates": [ [ 101.676630523710401, 12.72951290441925 ], [ 101.691555339593322, 12.718942228577927 ] ] } },
{ "type": "Feature", "properties": { "transect_id": "TR_0063" }, "geometry": { "type": "LineString", "coordinates": [ [ 101.67609214120867, 12.728780304544406 ], [ 101.691016949108203, 12.718209662679291 ] ] } },
{ "type": "Feature", "properties": { "transect_id": "TR_0064" }, "geometry": { "type": "LineString", "coordinates": [ [ 101.677908691937432, 12.715504215578054 ], [ 101.68873245649192, 12.730116006821017 ] ] } },
{ "type": "Feature", "properties": { "transect_id": "TR_0065" }, "geometry": { "type": "LineString", "coordinates": [ [ 101.678652893526049, 12.714972946183988 ], [ 101.689476665564428, 12.729584703473503 ] ] } },
{ "type": "Feature", "properties": { "transect_id": "TR_0066" }, "geometry": { "type": "LineString", "coordinates": [ [ 101.67939709180979, 12.714441675296257 ], [ 101.690220871327526, 12.729053398632336 ] ] } },
{ "type": "Feature", "properties": { "transect_id": "TR_0067" }, "geometry": { "type": "LineString", "coordinates": [ [ 101.680141286788839, 12.713910402915056 ], [ 101.690965073781172, 12.728522092297883 ] ] } },
{ "type": "Feature", "properties": { "transect_id": "TR_0068" }, "geometry": { "type": "LineString", "coordinates": [ [ 101.680885478463281, 12.713379129040671 ], [ 101.691709272925465, 12.727990784470405 ] ] } },
{ "type": "Feature", "properties": { "transect_id": "TR_0069" }, "geometry": { "type": "LineString", "coordinates": [ [ 101.681629666833189, 12.712847853673374 ], [ 101.692453468760505, 12.727459475150162 ] ] } },
{ "type": "Feature", "properties": { "transect_id": "TR_0070" }, "geometry": { "type": "LineString", "coordinates": [ [ 101.682373851898646, 12.71231657681342 ], [ 101.693197661286348, 12.726928164337451 ] ] } },
{ "type": "Feature", "properties": { "transect_id": "TR_0071" }, "geometry": { "type": "LineString", "coordinates": [ [ 101.683118033659639, 12.711785298461173 ], [ 101.69394185050318, 12.726396852032458 ] ] } },
{ "type": "Feature", "properties": { "transect_id": "TR_0072" }, "geometry": { "type": "LineString", "coordinates": [ [ 101.683862212116395, 12.711254018616804 ], [ 101.694686036410957, 12.725865538235562 ] ] } },
{ "type": "Feature", "properties": { "transect_id": "TR_0073" }, "geometry": { "type": "LineString", "coordinates": [ [ 101.684606387269028, 12.710722737280552 ], [ 101.695430219009708, 12.725334222947064 ] ] } },
{ "type": "Feature", "properties": { "transect_id": "TR_0074" }, "geometry": { "type": "LineString", "coordinates": [ [ 101.685350559117467, 12.710191454452801 ], [ 101.696174398299675, 12.724802906167122 ] ] } },
{ "type": "Feature", "properties": { "transect_id": "TR_0075" }, "geometry": { "type": "LineString", "coordinates": [ [ 101.686094727661853, 12.70966017013378 ], [ 101.696918574280872, 12.724271587896059 ] ] } },
{ "type": "Feature", "properties": { "transect_id": "TR_0076" }, "geometry": { "type": "LineString", "coordinates": [ [ 101.686838892902287, 12.709128884323748 ], [ 101.697662746953355, 12.723740268134172 ] ] } },
{ "type": "Feature", "properties": { "transect_id": "TR_0077" }, "geometry": { "type": "LineString", "coordinates": [ [ 101.697476894051022, 12.708456616570913 ], [ 101.688570256573627, 12.724266420877271 ] ] } },
{ "type": "Feature", "properties": { "transect_id": "TR_0078" }, "geometry": { "type": "LineString", "coordinates": [ [ 101.698282075698771, 12.708893799701855 ], [ 101.68937548415299, 12.724703623706489 ] ] } },
{ "type": "Feature", "properties": { "transect_id": "TR_0079" }, "geometry": { "type": "LineString", "coordinates": [ [ 101.699087259751551, 12.709330979816354 ], [ 101.690180714142102, 12.725140823517867 ] ] } },
{ "type": "Feature", "properties": { "transect_id": "TR_0080" }, "geometry": { "type": "LineString", "coordinates": [ [ 101.69989244620902, 12.709768156913984 ], [ 101.690985946541289, 12.725578020311307 ] ] } },
{ "type": "Feature", "properties": { "transect_id": "TR_0081" }, "geometry": { "type": "LineString", "coordinates": [ [ 101.70069763507145, 12.71020533099462 ], [ 101.691791181350268, 12.726015214086422 ] ] } },
{ "type": "Feature", "properties": { "transect_id": "TR_0082" }, "geometry": { "type": "LineString", "coordinates": [ [ 101.701502826338853, 12.710642502058041 ], [ 101.692596418568968, 12.72645240484292 ] ] } },
{ "type": "Feature", "properties": { "transect_id": "TR_0083" }, "geometry": { "type": "LineString", "coordinates": [ [ 101.702308020010875, 12.71107967010381 ], [ 101.6934016581977, 12.726889592580719 ] ] } },
{ "type": "Feature", "properties": { "transect_id": "TR_0084" }, "geometry": { "type": "LineString", "coordinates": [ [ 101.695018279362785, 12.710676108474866 ], [ 101.702347136807546, 12.727248266245843 ] ] } },
{ "type": "Feature", "properties": { "transect_id": "TR_0085" }, "geometry": { "type": "LineString", "coordinates": [ [ 101.695862299871109, 12.710316380063265 ], [ 101.70319119209428, 12.72688850590424 ] ] } },
{ "type": "Feature", "properties": { "transect_id": "TR_0086" }, "geometry": { "type": "LineString", "coordinates": [ [ 101.696706317544184, 12.70995664942947 ], [ 101.704035244541018, 12.726528743338207 ] ] } },
{ "type": "Feature", "properties": { "transect_id": "TR_0087" }, "geometry": { "type": "LineString", "coordinates": [ [ 101.697550332381923, 12.709596916573721 ], [ 101.704879294147688, 12.726168978547989 ] ] } },
{ "type": "Feature", "properties": { "transect_id": "TR_0088" }, "geometry": { "type": "LineString", "coordinates": [ [ 101.698394344384241, 12.709237181496251 ], [ 101.70572334091419, 12.725809211533816 ] ] } },
{ "type": "Feature", "properties": { "transect_id": "TR_0089" }, "geometry": { "type": "LineString", "coordinates": [ [ 101.699238353551067, 12.708877444197299 ], [ 101.70656738484044, 12.725449442295933 ] ] } },
{ "type": "Feature", "properties": { "transect_id": "TR_0090" }, "geometry": { "type": "LineString", "coordinates": [ [ 101.700082359882316, 12.708517704677108 ], [ 101.707411425926395, 12.725089670834576 ] ] } },
{ "type": "Feature", "properties": { "transect_id": "TR_0091" }, "geometry": { "type": "LineString", "coordinates": [ [ 101.694842572400688, 12.716925681836159 ], [ 101.713168975347898, 12.715281291465462 ] ] } },
{ "type": "Feature", "properties": { "transect_id": "TR_0092" }, "geometry": { "type": "LineString", "coordinates": [ [ 101.694758854108727, 12.716026094955312 ], [ 101.713085195366588, 12.714381723190602 ] ] } },
{ "type": "Feature", "properties": { "transect_id": "TR_0093" }, "geometry": { "type": "LineString", "coordinates": [ [ 101.694675137062433, 12.715126507875302 ], [ 101.71300141663572, 12.713482154715866 ] ] } },
{ "type": "Feature", "properties": { "transect_id": "TR_0094" }, "geometry": { "type": "LineString", "coordinates": [ [ 101.694591421261748, 12.71422692059631 ], [ 101.712917639155236, 12.712582586041123 ] ] } },
{ "type": "Feature", "properties": { "transect_id": "TR_0095" }, "geometry": { "type": "LineString", "coordinates": [ [ 101.694507706706588, 12.713327333118185 ], [ 101.712833862925081, 12.711683017166536 ] ] } },
{ "type": "Feature", "properties": { "transect_id": "TR_0096" }, "geometry": { "type": "LineString", "coordinates": [ [ 101.694423993396867, 12.712427745441019 ], [ 101.712750087945153, 12.710783448092039 ] ] } },
{ "type": "Feature", "properties": { "transect_id": "TR_0097" }, "geometry": { "type": "LineString", "coordinates": [ [ 101.694340281332543, 12.711528157564786 ], [ 101.712666314215397, 12.709883878817665 ] ] } },
{ "type": "Feature", "properties": { "transect_id": "TR_0098" }, "geometry": { "type": "LineString", "coordinates": [ [ 101.694256570513531, 12.710628569489447 ], [ 101.712582541735756, 12.70898430934348 ] ] } },
{ "type": "Feature", "properties": { "transect_id": "TR_0099" }, "geometry": { "type": "LineString", "coordinates": [ [ 101.694172860939759, 12.709728981215189 ], [ 101.712498770506102, 12.708084739669323 ] ] } },
{ "type": "Feature", "properties": { "transect_id": "TR_0100" }, "geometry": { "type": "LineString", "coordinates": [ [ 101.694089152611156, 12.708829392741864 ], [ 101.71241500052642, 12.707185169795361 ] ] } },
{ "type": "Feature", "properties": { "transect_id": "TR_0101" }, "geometry": { "type": "LineString", "coordinates": [ [ 101.694005445527637, 12.70792980406952 ], [ 101.712331231796625, 12.706285599721559 ] ] } },
{ "type": "Feature", "properties": { "transect_id": "TR_0102" }, "geometry": { "type": "LineString", "coordinates": [ [ 101.693921739689159, 12.707030215198163 ], [ 101.712247464316633, 12.705386029447936 ] ] } },
{ "type": "Feature", "properties": { "transect_id": "TR_0103" }, "geometry": { "type": "LineString", "coordinates": [ [ 101.693838035095624, 12.706130626127832 ], [ 101.712163698086371, 12.704486458974477 ] ] } },
{ "type": "Feature", "properties": { "transect_id": "TR_0104" }, "geometry": { "type": "LineString", "coordinates": [ [ 101.693754331746959, 12.705231036858509 ], [ 101.712079933105784, 12.703586888301219 ] ] } },
{ "type": "Feature", "properties": { "transect_id": "TR_0105" }, "geometry": { "type": "LineString", "coordinates": [ [ 101.693670629643123, 12.704331447390214 ], [ 101.711996169374785, 12.702687317428156 ] ] } },
{ "type": "Feature", "properties": { "transect_id": "TR_0106" }, "geometry": { "type": "LineString", "coordinates": [ [ 101.693586928783986, 12.703431857722897 ], [ 101.711912406893305, 12.701787746355363 ] ] } },
{ "type": "Feature", "properties": { "transect_id": "TR_0107" }, "geometry": { "type": "LineString", "coordinates": [ [ 101.693503229169551, 12.70253226785675 ], [ 101.711828645661271, 12.700888175082671 ] ] } },
{ "type": "Feature", "properties": { "transect_id": "TR_0108" }, "geometry": { "type": "LineString", "coordinates": [ [ 101.702802532699025, 12.710091803288217 ], [ 101.701904517961921, 12.69204674670889 ] ] } },
{ "type": "Feature", "properties": { "transect_id": "TR_0109" }, "geometry": { "type": "LineString", "coordinates": [ [ 101.701883510238801, 12.710135892751339 ], [ 101.700985559001239, 12.692090820059871 ] ] } },
{ "type": "Feature", "properties": { "transect_id": "TR_0110" }, "geometry": { "type": "LineString", "coordinates": [ [ 101.700964486796352, 12.710179979087231 ], [ 101.700066599059156, 12.69213489028825 ] ] } },
{ "type": "Feature", "properties": { "transect_id": "TR_0111" }, "geometry": { "type": "LineString", "coordinates": [ [ 101.709373512922198, 12.700122696175841 ], [ 101.691279747446245, 12.703414562114025 ] ] } },
{ "type": "Feature", "properties": { "transect_id": "TR_0112" }, "geometry": { "type": "LineString", "coordinates": [ [ 101.70954118889513, 12.701010893124293 ], [ 101.69144736740796, 12.70430278255569 ] ] } },
{ "type": "Feature", "properties": { "transect_id": "TR_0113" }, "geometry": { "type": "LineString", "coordinates": [ [ 101.709708866659966, 12.701899089678452 ], [ 101.69161498915733, 12.705191002604447 ] ] } },
{ "type": "Feature", "properties": { "transect_id": "TR_0114" }, "geometry": { "type": "LineString", "coordinates": [ [ 101.709876546216805, 12.702787285838129 ], [ 101.691782612694524, 12.706079222260426 ] ] } },
{ "type": "Feature", "properties": { "transect_id": "TR_0115" }, "geometry": { "type": "LineString", "coordinates": [ [ 101.710044227565788, 12.703675481603304 ], [ 101.691950238019658, 12.706967441523604 ] ] } },
{ "type": "Feature", "properties": { "transect_id": "TR_0116" }, "geometry": { "type": "LineString", "coordinates": [ [ 101.710211910707073, 12.704563676974104 ], [ 101.692117865132857, 12.707855660393795 ] ] } },
{ "type": "Feature", "properties": { "transect_id": "TR_0117" }, "geometry": { "type": "LineString", "coordinates": [ [ 101.707681586704055, 12.71335158293436 ], [ 101.694534952246656, 12.700709829194651 ] ] } },
{ "type": "Feature", "properties": { "transect_id": "TR_0118" }, "geometry": { "type": "LineString", "coordinates": [ [ 101.707037763817539, 12.713996942589914 ], [ 101.693891114661355, 12.701355157695042 ] ] } },
{ "type": "Feature", "properties": { "transect_id": "TR_0119" }, "geometry": { "type": "LineString", "coordinates": [ [ 101.709059406248599, 12.705933677838781 ], [ 101.691367397923273, 12.710904626065073 ] ] } },
{ "type": "Feature", "properties": { "transect_id": "TR_0120" }, "geometry": { "type": "LineString", "coordinates": [ [ 101.70931259704389, 12.706802127572413 ], [ 101.691620540490604, 12.711773103550872 ] ] } },
{ "type": "Feature", "properties": { "transect_id": "TR_0121" }, "geometry": { "type": "LineString", "coordinates": [ [ 101.709565790130739, 12.707670576665738 ], [ 101.691873685346238, 12.712641580398616 ] ] } },
{ "type": "Feature", "properties": { "transect_id": "TR_0122" }, "geometry": { "type": "LineString", "coordinates": [ [ 101.709818985509372, 12.708539025118736 ], [ 101.692126832490331, 12.713510056608216 ] ] } },
{ "type": "Feature", "properties": { "transect_id": "TR_0123" }, "geometry": { "type": "LineString", "coordinates": [ [ 101.710072183179932, 12.709407472931284 ], [ 101.692379981923111, 12.714378532179678 ] ] } },
{ "type": "Feature", "properties": { "transect_id": "TR_0124" }, "geometry": { "type": "LineString", "coordinates": [ [ 101.710325383142631, 12.710275920103342 ], [ 101.692633133644762, 12.715247007112948 ] ] } },
{ "type": "Feature", "properties": { "transect_id": "TR_0125" }, "geometry": { "type": "LineString", "coordinates": [ [ 101.710578585397656, 12.711144366634896 ], [ 101.692886287655426, 12.716115481407915 ] ] } },
{ "type": "Feature", "properties": { "transect_id": "TR_0126" }, "geometry": { "type": "LineString", "coordinates": [ [ 101.710831789945203, 12.712012812525874 ], [ 101.693139443955346, 12.716983955064546 ] ] } },
{ "type": "Feature", "properties": { "transect_id": "TR_0127" }, "geometry": { "type": "LineString", "coordinates": [ [ 101.708320650350274, 12.721993267383741 ], [ 101.695894308118852, 12.708667456563324 ] ] } },
{ "type": "Feature", "properties": { "transect_id": "TR_0128" }, "geometry": { "type": "LineString", "coordinates": [ [ 101.707641963236426, 12.722603249589715 ], [ 101.695215613445569, 12.709277406281329 ] ] } },
{ "type": "Feature", "properties": { "transect_id": "TR_0129" }, "geometry": { "type": "LineString", "coordinates": [ [ 101.706963272814832, 12.723213230683273 ], [ 101.694536915468362, 12.709887354885742 ] ] } },
{ "type": "Feature", "properties": { "transect_id": "TR_0130" }, "geometry": { "type": "LineString", "coordinates": [ [ 101.706284579085263, 12.723823210664222 ], [ 101.693858214187145, 12.710497302376233 ] ] } },
{ "type": "Feature", "properties": { "transect_id": "TR_0131" }, "geometry": { "type": "LineString", "coordinates": [ [ 101.694570612413287, 12.725213566959827 ], [ 101.704161665826902, 12.709794561232398 ] ] } },
{ "type": "Feature", "properties": { "transect_id": "TR_0132" }, "geometry": { "type": "LineString", "coordinates": [ [ 101.693785289519482, 12.72474276665838 ], [ 101.70337638458227, 12.709323782934524 ] ] } },
{ "type": "Feature", "properties": { "transect_id": "TR_0133" }, "geometry": { "type": "LineString", "coordinates": [ [ 101.692999969223493, 12.724271963428071 ], [ 101.702591105930694, 12.708853001708707 ] ] } },
{ "type": "Feature", "properties": { "transect_id": "TR_0134" }, "geometry": { "type": "LineString", "coordinates": [ [ 101.692214651525447, 12.723801157269239 ], [ 101.701805829872001, 12.708382217555126 ] ] } },
{ "type": "Feature", "properties": { "transect_id": "TR_0135" }, "geometry": { "type": "LineString", "coordinates": [ [ 101.691429336425401, 12.7233303481822 ], [ 101.701020556406135, 12.707911430474006 ] ] } },
{ "type": "Feature", "properties": { "transect_id": "TR_0136" }, "geometry": { "type": "LineString", "coordinates": [ [ 101.690644023923113, 12.722859536167071 ], [ 101.700235285533296, 12.707440640465748 ] ] } },
{ "type": "Feature", "properties": { "transect_id": "TR_0137" }, "geometry": { "type": "LineString", "coordinates": [ [ 101.68985871401874, 12.722388721224217 ], [ 101.699450017253298, 12.706969847530523 ] ] } },
{ "type": "Feature", "properties": { "transect_id": "TR_0138" }, "geometry": { "type": "LineString", "coordinates": [ [ 101.694114076358801, 12.723559394418821 ], [ 101.69345189072429, 12.705504406409023 ] ] } },
{ "type": "Feature", "properties": { "transect_id": "TR_0139" }, "geometry": { "type": "LineString", "coordinates": [ [ 101.693194498534396, 12.723591905018639 ], [ 101.692532376959903, 12.705536901711064 ] ] } },
{ "type": "Feature", "properties": { "transect_id": "TR_0140" }, "geometry": { "type": "LineString", "coordinates": [ [ 101.692274919811581, 12.723624412467402 ], [ 101.691612862297561, 12.705569393866707 ] ] } },
{ "type": "Feature", "properties": { "transect_id": "TR_0141" }, "geometry": { "type": "LineString", "coordinates": [ [ 101.691355340190398, 12.723656916765085 ], [ 101.690693346737675, 12.705601882875916 ] ] } },
{ "type": "Feature", "properties": { "transect_id": "TR_0142" }, "geometry": { "type": "LineString", "coordinates": [ [ 101.693894857836568, 12.723166434094061 ], [ 101.686431275035901, 12.706652242683122 ] ] } },
{ "type": "Feature", "properties": { "transect_id": "TR_0143" }, "geometry": { "type": "LineString", "coordinates": [ [ 101.693053766037139, 12.723532811331511 ], [ 101.685590217123348, 12.707018587841748 ] ] } },
{ "type": "Feature", "properties": { "transect_id": "TR_0144" }, "geometry": { "type": "LineString", "coordinates": [ [ 101.692212671372616, 12.723899186369072 ], [ 101.684749156350478, 12.707384930802617 ] ] } },
{ "type": "Feature", "properties": { "transect_id": "TR_0145" }, "geometry": { "type": "LineString", "coordinates": [ [ 101.691371573843128, 12.724265559206481 ], [ 101.683908092717374, 12.707751271565519 ] ] } },
{ "type": "Feature", "properties": { "transect_id": "TR_0146" }, "geometry": { "type": "LineString", "coordinates": [ [ 101.690530473448689, 12.724631929843518 ], [ 101.683067026224123, 12.708117610130177 ] ] } },
{ "type": "Feature", "properties": { "transect_id": "TR_0147" }, "geometry": { "type": "LineString", "coordinates": [ [ 101.694931295849727, 12.719264087960472 ], [ 101.677205900609991, 12.714406330025229 ] ] } },
{ "type": "Feature", "properties": { "transect_id": "TR_0148" }, "geometry": { "type": "LineString", "coordinates": [ [ 101.694683917446312, 12.720134164184671 ], [ 101.676958459556118, 12.715276401104777 ] ] } },
{ "type": "Feature", "properties": { "transect_id": "TR_0149" }, "geometry": { "type": "LineString", "coordinates": [ [ 101.694436537923835, 12.721004240465541 ], [ 101.676711017379716, 12.716146472238579 ] ] } },
{ "type": "Feature", "properties": { "transect_id": "TR_0150" }, "geometry": { "type": "LineString", "coordinates": [ [ 101.693557322650989, 12.723483933537487 ], [ 101.677095517544402, 12.715406948467429 ] ] } },
{ "type": "Feature", "properties": { "transect_id": "TR_0151" }, "geometry": { "type": "LineString", "coordinates": [ [ 101.690070546886076, 12.727263815186946 ], [ 101.679142106280381, 12.712727414243464 ] ] } },
{ "type": "Feature", "properties": { "transect_id": "TR_0152" }, "geometry": { "type": "LineString", "coordinates": [ [ 101.689330183064243, 12.727800261089333 ], [ 101.678401749001978, 12.713263826238379 ] ] } },
{ "type": "Feature", "properties": { "transect_id": "TR_0153" }, "geometry": { "type": "LineString", "coordinates": [ [ 101.688589815928452, 12.728336705522377 ], [ 101.677661388414293, 12.713800236763721 ] ] } },
{ "type": "Feature", "properties": { "transect_id": "TR_0154" }, "geometry": { "type": "LineString", "coordinates": [ [ 101.687849445478534, 12.728873148485862 ], [ 101.676921024517355, 12.714336645819149 ] ] } },
{ "type": "Feature", "properties": { "transect_id": "TR_0155" }, "geometry": { "type": "LineString", "coordinates": [ [ 101.687109071714588, 12.729409589979372 ], [ 101.676180657310852, 12.714873053404542 ] ] } },
{ "type": "Feature", "properties": { "transect_id": "TR_0156" }, "geometry": { "type": "LineString", "coordinates": [ [ 101.6863686946364, 12.729946030002731 ], [ 101.675440286794839, 12.715409459519529 ] ] } },
{ "type": "Feature", "properties": { "transect_id": "TR_0157" }, "geometry": { "type": "LineString", "coordinates": [ [ 101.671190939271796, 12.723522527217989 ], [ 101.689533289789168, 12.72204959002408 ] ] } },
{ "type": "Feature", "properties": { "transect_id": "TR_0158" }, "geometry": { "type": "LineString", "coordinates": [ [ 101.671115951417789, 12.722622181870802 ], [ 101.68945823972588, 12.721149262624834 ] ] } },
{ "type": "Feature", "properties": { "transect_id": "TR_0159" }, "geometry": { "type": "LineString", "coordinates": [ [ 101.671040964744989, 12.721721836342727 ], [ 101.689383190848631, 12.720248935043927 ] ] } },
{ "type": "Feature", "properties": { "transect_id": "TR_0160" }, "geometry": { "type": "LineString", "coordinates": [ [ 101.670965979253339, 12.720821490633753 ], [ 101.689308143157348, 12.719348607281406 ] ] } },
{ "type": "Feature", "properties": { "transect_id": "TR_0161" }, "geometry": { "type": "LineString", "coordinates": [ [ 101.67805594680938, 12.7280837271026 ], [ 101.681922471496605, 12.710420099339037 ] ] } },
{ "type": "Feature", "properties": { "transect_id": "TR_0162" }, "geometry": { "type": "LineString", "coordinates": [ [ 101.677737486074548, 12.728057170022213 ], [ 101.680420297884325, 12.710183282904794 ] ] } },
{ "type": "Feature", "properties": { "transect_id": "TR_0163" }, "geometry": { "type": "LineString", "coordinates": [ [ 101.676827114609623, 12.727925482006414 ], [ 101.679509992678035, 12.7100515915184 ] ] } },
{ "type": "Feature", "properties": { "transect_id": "TR_0164" }, "geometry": { "type": "LineString", "coordinates": [ [ 101.675916743452419, 12.727793790666947 ], [ 101.678599687777464, 12.709919896812679 ] ] } },
{ "type": "Feature", "properties": { "transect_id": "TR_0165" }, "geometry": { "type": "LineString", "coordinates": [ [ 101.668609474167795, 12.723298973372842 ], [ 101.684291949799245, 12.71384466913941 ] ] } },
{ "type": "Feature", "properties": { "transect_id": "TR_0166" }, "geometry": { "type": "LineString", "coordinates": [ [ 101.668127966643524, 12.72252916667777 ], [ 101.683810424578141, 12.713074896376801 ] ] } },
{ "type": "Feature", "properties": { "transect_id": "TR_0167" }, "geometry": { "type": "LineString", "coordinates": [ [ 101.673073547217257, 12.72607212121024 ], [ 101.677497904761694, 12.70853505791802 ] ] } },
{ "type": "Feature", "properties": { "transect_id": "TR_0168" }, "geometry": { "type": "LineString", "coordinates": [ [ 101.672180338594671, 12.725854943119057 ], [ 101.676604759973912, 12.708317883029256 ] ] } },
{ "type": "Feature", "properties": { "transect_id": "TR_0169" }, "geometry": { "type": "LineString", "coordinates": [ [ 101.671287130910571, 12.725637761704482 ], [ 101.675711616121589, 12.708100704820934 ] ] } },
{ "type": "Feature", "properties": { "transect_id": "TR_0170" }, "geometry": { "type": "LineString", "coordinates": [ [ 101.670393924165381, 12.72542057696673 ], [ 101.674818473204667, 12.70788352329315 ] ] } },
{ "type": "Feature", "properties": { "transect_id": "TR_0171" }, "geometry": { "type": "LineString", "coordinates": [ [ 101.669500718359146, 12.725203388905925 ], [ 101.673925331223472, 12.70766633844609 ] ] } },
{ "type": "Feature", "properties": { "transect_id": "TR_0172" }, "geometry": { "type": "LineString", "coordinates": [ [ 101.668607513492177, 12.72498619752225 ], [ 101.673032190178077, 12.70744915027989 ] ] } },
{ "type": "Feature", "properties": { "transect_id": "TR_0173" }, "geometry": { "type": "LineString", "coordinates": [ [ 101.675604534376689, 12.723554499373007 ], [ 101.664412008615926, 12.709212917749113 ] ] } },
{ "type": "Feature", "properties": { "transect_id": "TR_0174" }, "geometry": { "type": "LineString", "coordinates": [ [ 101.67691146257188, 12.721977124468452 ], [ 101.661644203337644, 12.711889016160567 ] ] } },
{ "type": "Feature", "properties": { "transect_id": "TR_0175" }, "geometry": { "type": "LineString", "coordinates": [ [ 101.677907191772348, 12.720196570298313 ], [ 101.660160913272946, 12.715411711862387 ] ] } },
{ "type": "Feature", "properties": { "transect_id": "TR_0176" }, "geometry": { "type": "LineString", "coordinates": [ [ 101.677663525336897, 12.721067668131713 ], [ 101.659917184039628, 12.716282804761674 ] ] } },
{ "type": "Feature", "properties": { "transect_id": "TR_0177" }, "geometry": { "type": "LineString", "coordinates": [ [ 101.666584005001454, 12.727647348384728 ], [ 101.669423127905333, 12.709796589016083 ] ] } },
{ "type": "Feature", "properties": { "transect_id": "TR_0178" }, "geometry": { "type": "LineString", "coordinates": [ [ 101.659764701897288, 12.724044081106507 ], [ 101.67442381799205, 12.713120981604819 ] ] } },
{ "type": "Feature", "properties": { "transect_id": "TR_0179" }, "geometry": { "type": "LineString", "coordinates": [ [ 101.658663087259214, 12.714836482266334 ], [ 101.676094761583371, 12.720629737053692 ] ] } },
{ "type": "Feature", "properties": { "transect_id": "TR_0180" }, "geometry": { "type": "LineString", "coordinates": [ [ 101.658958172197572, 12.713980833792455 ], [ 101.676389786718445, 12.719774079753901 ] ] } },
{ "type": "Feature", "properties": { "transect_id": "TR_0181" }, "geometry": { "type": "LineString", "coordinates": [ [ 101.659157610792988, 12.720189654201672 ], [ 101.67553277492253, 12.711944535800816 ] ] } },
{ "type": "Feature", "properties": { "transect_id": "TR_0182" }, "geometry": { "type": "LineString", "coordinates": [ [ 101.65873769734182, 12.719385838762046 ], [ 101.675112834140705, 12.71114075345759 ] ] } },
{ "type": "Feature", "properties": { "transect_id": "TR_0183" }, "geometry": { "type": "LineString", "coordinates": [ [ 101.658317786922112, 12.718582022088613 ], [ 101.674692896390937, 12.710336969877597 ] ] } },
{ "type": "Feature", "properties": { "transect_id": "TR_0184" }, "geometry": { "type": "LineString", "coordinates": [ [ 101.657897879533593, 12.717778204181512 ], [ 101.674272961672955, 12.709533185060963 ] ] } },
{ "type": "Feature", "properties": { "transect_id": "TR_0185" }, "geometry": { "type": "LineString", "coordinates": [ [ 101.665612463649865, 12.722399114257522 ], [ 101.665095401857641, 12.704339155802579 ] ] } },
{ "type": "Feature", "properties": { "transect_id": "TR_0186" }, "geometry": { "type": "LineString", "coordinates": [ [ 101.664692636834829, 12.72242450100482 ], [ 101.66417563937955, 12.704364527871741 ] ] } },
{ "type": "Feature", "properties": { "transect_id": "TR_0187" }, "geometry": { "type": "LineString", "coordinates": [ [ 101.663772809179022, 12.722449884589105 ], [ 101.663255876061186, 12.704389896782551 ] ] } },
{ "type": "Feature", "properties": { "transect_id": "TR_0188" }, "geometry": { "type": "LineString", "coordinates": [ [ 101.662852980682672, 12.722475265010351 ], [ 101.662336111902817, 12.704415262534978 ] ] } },
{ "type": "Feature", "properties": { "transect_id": "TR_0189" }, "geometry": { "type": "LineString", "coordinates": [ [ 101.661933151346034, 12.722500642268534 ], [ 101.661416346904659, 12.704440625129005 ] ] } },
{ "type": "Feature", "properties": { "transect_id": "TR_0190" }, "geometry": { "type": "LineString", "coordinates": [ [ 101.666229195182112, 12.720780851680288 ], [ 101.655300326206174, 12.706244538478233 ] ] } },
{ "type": "Feature", "properties": { "transect_id": "TR_0191" }, "geometry": { "type": "LineString", "coordinates": [ [ 101.668028374019173, 12.719131430671807 ], [ 101.652511590119488, 12.709417188171967 ] ] } },
{ "type": "Feature", "properties": { "transect_id": "TR_0192" }, "geometry": { "type": "LineString", "coordinates": [ [ 101.667533643955778, 12.719893110921516 ], [ 101.652016820637741, 12.710178845350981 ] ] } },
{ "type": "Feature", "properties": { "transect_id": "TR_0193" }, "geometry": { "type": "LineString", "coordinates": [ [ 101.667038911214092, 12.720654790793787 ], [ 101.651522048478284, 12.710940502149729 ] ] } },
{ "type": "Feature", "properties": { "transect_id": "TR_0194" }, "geometry": { "type": "LineString", "coordinates": [ [ 101.666544175793888, 12.721416470288453 ], [ 101.65102727364085, 12.711702158568034 ] ] } },
{ "type": "Feature", "properties": { "transect_id": "TR_0195" }, "geometry": { "type": "LineString", "coordinates": [ [ 101.666049437694909, 12.722178149405337 ], [ 101.650532496125237, 12.712463814605721 ] ] } },
{ "type": "Feature", "properties": { "transect_id": "TR_0196" }, "geometry": { "type": "LineString", "coordinates": [ [ 101.656685706780593, 12.726623697969858 ], [ 101.658459215338226, 12.708640591116158 ] ] } },
{ "type": "Feature", "properties": { "transect_id": "TR_0197" }, "geometry": { "type": "LineString", "coordinates": [ [ 101.655769777771027, 12.726536644978603 ], [ 101.657543352840364, 12.708553531504979 ] ] } },
{ "type": "Feature", "properties": { "transect_id": "TR_0198" }, "geometry": { "type": "LineString", "coordinates": [ [ 101.654853848743159, 12.726449588690079 ], [ 101.656627490322848, 12.708466468601062 ] ] } },
{ "type": "Feature", "properties": { "transect_id": "TR_0199" }, "geometry": { "type": "LineString", "coordinates": [ [ 101.646360449779195, 12.716063304142713 ], [ 101.664704462540399, 12.717515247881339 ] ] } },
{ "type": "Feature", "properties": { "transect_id": "TR_0200" }, "geometry": { "type": "LineString", "coordinates": [ [ 101.646434431614537, 12.715162860898543 ], [ 101.664778377918722, 12.716614812318388 ] ] } },
{ "type": "Feature", "properties": { "transect_id": "TR_0201" }, "geometry": { "type": "LineString", "coordinates": [ [ 101.661890023192129, 12.722092573928018 ], [ 101.648744647608225, 12.709448190361369 ] ] } },
{ "type": "Feature", "properties": { "transect_id": "TR_0202" }, "geometry": { "type": "LineString", "coordinates": [ [ 101.661246043807154, 12.722737849310866 ], [ 101.648100653771195, 12.710093434559798 ] ] } },
{ "type": "Feature", "properties": { "transect_id": "TR_0203" }, "geometry": { "type": "LineString", "coordinates": [ [ 101.66053378985437, 12.710180071376323 ], [ 101.648556939450231, 12.723897769324827 ] ] } },
{ "type": "Feature", "properties": { "transect_id": "TR_0204" }, "geometry": { "type": "LineString", "coordinates": [ [ 101.661232432926283, 12.710767954066267 ], [ 101.649255605463622, 12.724485681131144 ] ] } },
{ "type": "Feature", "properties": { "transect_id": "TR_0205" }, "geometry": { "type": "LineString", "coordinates": [ [ 101.656259764749024, 12.709039344661665 ], [ 101.655740298485853, 12.727099362488024 ] ] } },
{ "type": "Feature", "properties": { "transect_id": "TR_0206" }, "geometry": { "type": "LineString", "coordinates": [ [ 101.657179546085274, 12.709064847131009 ], [ 101.656660145664972, 12.727124853861861 ] ] } },
{ "type": "Feature", "properties": { "transect_id": "TR_0207" }, "geometry": { "type": "LineString", "coordinates": [ [ 101.658099326949696, 12.709090346368118 ], [ 101.65757999237259, 12.727150341998797 ] ] } },
{ "type": "Feature", "properties": { "transect_id": "TR_0208" }, "geometry": { "type": "LineString", "coordinates": [ [ 101.651811948418015, 12.711558391269035 ], [ 101.665320046306888, 12.723828828763331 ] ] } },
{ "type": "Feature", "properties": { "transect_id": "TR_0209" }, "geometry": { "type": "LineString", "coordinates": [ [ 101.652436900411473, 12.710895346077434 ], [ 101.665944980143976, 12.723165753208722 ] ] } },
{ "type": "Feature", "properties": { "transect_id": "TR_0210" }, "geometry": { "type": "LineString", "coordinates": [ [ 101.653061849207234, 12.710232300022385 ], [ 101.666569910780254, 12.722502676792727 ] ] } },
{ "type": "Feature", "properties": { "transect_id": "TR_0211" }, "geometry": { "type": "LineString", "coordinates": [ [ 101.653686794805509, 12.709569253104101 ], [ 101.667194838215877, 12.72183959951561 ] ] } },
{ "type": "Feature", "properties": { "transect_id": "TR_0212" }, "geometry": { "type": "LineString", "coordinates": [ [ 101.65431173720637, 12.708906205322984 ], [ 101.667819762451188, 12.721176521377451 ] ] } },
{ "type": "Feature", "properties": { "transect_id": "TR_0213" }, "geometry": { "type": "LineString", "coordinates": [ [ 101.659640371640393, 12.705928728604615 ], [ 101.664118086750392, 12.723452921280291 ] ] } },
{ "type": "Feature", "properties": { "transect_id": "TR_0214" }, "geometry": { "type": "LineString", "coordinates": [ [ 101.66053285731391, 12.705708944128769 ], [ 101.665010623680516, 12.723233110569781 ] ] } },
{ "type": "Feature", "properties": { "transect_id": "TR_0215" }, "geometry": { "type": "LineString", "coordinates": [ [ 101.661425340870551, 12.70548915694617 ], [ 101.665903158490337, 12.723013297148809 ] ] } },
{ "type": "Feature", "properties": { "transect_id": "TR_0216" }, "geometry": { "type": "LineString", "coordinates": [ [ 101.662317822310129, 12.705269367056992 ], [ 101.666795691179686, 12.722793481017536 ] ] } },
{ "type": "Feature", "properties": { "transect_id": "TR_0217" }, "geometry": { "type": "LineString", "coordinates": [ [ 101.663210301632461, 12.705049574461393 ], [ 101.66768822174835, 12.722573662176128 ] ] } },
{ "type": "Feature", "properties": { "transect_id": "TR_0218" }, "geometry": { "type": "LineString", "coordinates": [ [ 101.674959116139107, 12.712411112184457 ], [ 101.656926001881857, 12.716016185955382 ] ] } },
{ "type": "Feature", "properties": { "transect_id": "TR_0219" }, "geometry": { "type": "LineString", "coordinates": [ [ 101.67514275162722, 12.713296287524123 ], [ 101.657109582527539, 12.716901385501425 ] ] } },
{ "type": "Feature", "properties": { "transect_id": "TR_0220" }, "geometry": { "type": "LineString", "coordinates": [ [ 101.675326388998457, 12.71418146243 ], [ 101.657293165052295, 12.717786584615407 ] ] } },
{ "type": "Feature", "properties": { "transect_id": "TR_0221" }, "geometry": { "type": "LineString", "coordinates": [ [ 101.675510028252958, 12.715066636902057 ], [ 101.657476749456265, 12.718671783297298 ] ] } },
{ "type": "Feature", "properties": { "transect_id": "TR_0222" }, "geometry": { "type": "LineString", "coordinates": [ [ 101.675693669390895, 12.715951810940261 ], [ 101.657660335739592, 12.719556981547075 ] ] } },
{ "type": "Feature", "properties": { "transect_id": "TR_0223" }, "geometry": { "type": "LineString", "coordinates": [ [ 101.675877312412382, 12.716836984544587 ], [ 101.657843923902405, 12.720442179364699 ] ] } },
{ "type": "Feature", "properties": { "transect_id": "TR_0224" }, "geometry": { "type": "LineString", "coordinates": [ [ 101.670128525961061, 12.710365441823081 ], [ 101.665021405844627, 12.727722882654431 ] ] } },
{ "type": "Feature", "properties": { "transect_id": "TR_0225" }, "geometry": { "type": "LineString", "coordinates": [ [ 101.671012530441871, 12.710616124557237 ], [ 101.665905472525523, 12.727973571211871 ] ] } },
{ "type": "Feature", "properties": { "transect_id": "TR_0226" }, "geometry": { "type": "LineString", "coordinates": [ [ 101.661642216631762, 12.713610143227445 ], [ 101.676580122272611, 12.724162923850374 ] ] } },
{ "type": "Feature", "properties": { "transect_id": "TR_0227" }, "geometry": { "type": "LineString", "coordinates": [ [ 101.662179697051286, 12.71287691568134 ], [ 101.677117569465508, 12.723429670588187 ] ] } },
{ "type": "Feature", "properties": { "transect_id": "TR_0228" }, "geometry": { "type": "LineString", "coordinates": [ [ 101.662717174589687, 12.712143687620113 ], [ 101.677655013775905, 12.722696416813505 ] ] } },
{ "type": "Feature", "properties": { "transect_id": "TR_0229" }, "geometry": { "type": "LineString", "coordinates": [ [ 101.663254649247193, 12.711410459043949 ], [ 101.678192455204027, 12.72196316252654 ] ] } },
{ "type": "Feature", "properties": { "transect_id": "TR_0230" }, "geometry": { "type": "LineString", "coordinates": [ [ 101.676327535204223, 12.708893322637804 ], [ 101.666407478846978, 12.724110833705424 ] ] } },
{ "type": "Feature", "properties": { "transect_id": "TR_0231" }, "geometry": { "type": "LineString", "coordinates": [ [ 101.677102554865172, 12.709380248901342 ], [ 101.667182537810419, 12.724597783101876 ] ] } },
{ "type": "Feature", "properties": { "transect_id": "TR_0232" }, "geometry": { "type": "LineString", "coordinates": [ [ 101.677877577207269, 12.709867172290082 ], [ 101.667957599459839, 12.725084729622866 ] ] } },
{ "type": "Feature", "properties": { "transect_id": "TR_0233" }, "geometry": { "type": "LineString", "coordinates": [ [ 101.678652602230329, 12.710354092803609 ], [ 101.668732663795481, 12.725571673268277 ] ] } },
{ "type": "Feature", "properties": { "transect_id": "TR_0234" }, "geometry": { "type": "LineString", "coordinates": [ [ 101.679427629934679, 12.710841010441847 ], [ 101.66950773081706, 12.726058614037646 ] ] } },
{ "type": "Feature", "properties": { "transect_id": "TR_0235" }, "geometry": { "type": "LineString", "coordinates": [ [ 101.680202660320035, 12.711327925204342 ], [ 101.670282800524916, 12.726545551930906 ] ] } },
{ "type": "Feature", "properties": { "transect_id": "TR_0236" }, "geometry": { "type": "LineString", "coordinates": [ [ 101.680977693386666, 12.711814837090966 ], [ 101.671057872918865, 12.727032486947641 ] ] } },
{ "type": "Feature", "properties": { "transect_id": "TR_0237" }, "geometry": { "type": "LineString", "coordinates": [ [ 101.684876122469475, 12.722354168315144 ], [ 101.666977122476325, 12.7181528976552 ] ] } },
{ "type": "Feature", "properties": { "transect_id": "TR_0238" }, "geometry": { "type": "LineString", "coordinates": [ [ 101.670889205116779, 12.728201434330575 ], [ 101.679779467192333, 12.71238239342342 ] ] } },
{ "type": "Feature", "properties": { "transect_id": "TR_0239" }, "geometry": { "type": "LineString", "coordinates": [ [ 101.670083496869182, 12.727765039137614 ], [ 101.67897380490858, 12.711946017926048 ] ] } },
{ "type": "Feature", "properties": { "transect_id": "TR_0240" }, "geometry": { "type": "LineString", "coordinates": [ [ 101.671766183106058, 12.728246003415483 ], [ 101.675679918140276, 12.710592308203681 ] ] } },
{ "type": "Feature", "properties": { "transect_id": "TR_0241" }, "geometry": { "type": "LineString", "coordinates": [ [ 101.673665683488281, 12.728496001841592 ], [ 101.6719489364488, 12.710507803166939 ] ] } },
{ "type": "Feature", "properties": { "transect_id": "TR_0242" }, "geometry": { "type": "LineString", "coordinates": [ [ 101.677520465197986, 12.727197242405815 ], [ 101.666543664465451, 12.712695781236214 ] ] } },
{ "type": "Feature", "properties": { "transect_id": "TR_0243" }, "geometry": { "type": "LineString", "coordinates": [ [ 101.679793700260731, 12.724406557877979 ], [ 101.663097417399584, 12.716806946110156 ] ] } },
{ "type": "Feature", "properties": { "transect_id": "TR_0244" }, "geometry": { "type": "LineString", "coordinates": [ [ 101.679406665722638, 12.725226111641593 ], [ 101.662710330641701, 12.71762648423257 ] ] } },
{ "type": "Feature", "properties": { "transect_id": "TR_0245" }, "geometry": { "type": "LineString", "coordinates": [ [ 101.666593756169732, 12.730237023709453 ], [ 101.674654626182786, 12.713995259799347 ] ] } },
{ "type": "Feature", "properties": { "transect_id": "TR_0246" }, "geometry": { "type": "LineString", "coordinates": [ [ 101.665766509572464, 12.729841344005575 ], [ 101.6738274301796, 12.713599596892303 ] ] } },
{ "type": "Feature", "properties": { "transect_id": "TR_0247" }, "geometry": { "type": "LineString", "coordinates": [ [ 101.664939265139282, 12.729445661192745 ], [ 101.673000236335625, 12.713203930878134 ] ] } },
{ "type": "Feature", "properties": { "transect_id": "TR_0248" }, "geometry": { "type": "LineString", "coordinates": [ [ 101.66909150500608, 12.730010775616861 ], [ 101.66715876582191, 12.712043640232224 ] ] } },
{ "type": "Feature", "properties": { "transect_id": "TR_0249" }, "geometry": { "type": "LineString", "coordinates": [ [ 101.668176379130571, 12.730105653099406 ], [ 101.666243700975897, 12.712138498482352 ] ] } },
{ "type": "Feature", "properties": { "transect_id": "TR_0250" }, "geometry": { "type": "LineString", "coordinates": [ [ 101.673060640877949, 12.727422649863056 ], [ 101.659585674326991, 12.715117116910903 ] ] } },
{ "type": "Feature", "properties": { "transect_id": "TR_0251" }, "geometry": { "type": "LineString", "coordinates": [ [ 101.672658790306002, 12.727883187302069 ], [ 101.658779009204892, 12.716019156102064 ] ] } },
{ "type": "Feature", "properties": { "transect_id": "TR_0252" }, "geometry": { "type": "LineString", "coordinates": [ [ 101.672054543610898, 12.728564494462571 ], [ 101.658174740485649, 12.71670043387088 ] ] } },
{ "type": "Feature", "properties": { "transect_id": "TR_0253" }, "geometry": { "type": "LineString", "coordinates": [ [ 101.671450293774583, 12.72924580085277 ], [ 101.657570468627796, 12.717381710867322 ] ] } },
{ "type": "Feature", "properties": { "transect_id": "TR_0254" }, "geometry": { "type": "LineString", "coordinates": [ [ 101.670846040796761, 12.729927106472557 ], [ 101.656966193631192, 12.718062987091036 ] ] } },
{ "type": "Feature", "properties": { "transect_id": "TR_0255" }, "geometry": { "type": "LineString", "coordinates": [ [ 101.670241784677359, 12.730608411321521 ], [ 101.656361915495481, 12.718744262541973 ] ] } },
{ "type": "Feature", "properties": { "transect_id": "TR_0256" }, "geometry": { "type": "LineString", "coordinates": [ [ 101.669637525415993, 12.731289715399607 ], [ 101.655757634220592, 12.719425537219713 ] ] } },
{ "type": "Feature", "properties": { "transect_id": "TR_0257" }, "geometry": { "type": "LineString", "coordinates": [ [ 101.669033263012608, 12.731971018706433 ], [ 101.655153349806227, 12.720106811124193 ] ] } },
{ "type": "Feature", "properties": { "transect_id": "TR_0258" }, "geometry": { "type": "LineString", "coordinates": [ [ 101.668428997466805, 12.73265232124198 ], [ 101.6545490622523, 12.720788084254954 ] ] } },
{ "type": "Feature", "properties": { "transect_id": "TR_0259" }, "geometry": { "type": "LineString", "coordinates": [ [ 101.667824728778584, 12.73333362300575 ], [ 101.653944771558415, 12.72146935661204 ] ] } },
{ "type": "Feature", "properties": { "transect_id": "TR_0260" }, "geometry": { "type": "LineString", "coordinates": [ [ 101.65508853397715, 12.735048985188795 ], [ 101.665325094525542, 12.720034389088353 ] ] } },
{ "type": "Feature", "properties": { "transect_id": "TR_0261" }, "geometry": { "type": "LineString", "coordinates": [ [ 101.654323779778181, 12.734546518519645 ], [ 101.664560377361468, 12.719531946603041 ] ] } },
{ "type": "Feature", "properties": { "transect_id": "TR_0262" }, "geometry": { "type": "LineString", "coordinates": [ [ 101.658747557363654, 12.735649226612521 ], [ 101.658559294708141, 12.717583002899486 ] ] } },
{ "type": "Feature", "properties": { "transect_id": "TR_0263" }, "geometry": { "type": "LineString", "coordinates": [ [ 101.657827362567616, 12.735658472539885 ], [ 101.657639164882923, 12.717592235286521 ] ] } },
{ "type": "Feature", "properties": { "transect_id": "TR_0264" }, "geometry": { "type": "LineString", "coordinates": [ [ 101.661342742446294, 12.734533476986003 ], [ 101.652304570093079, 12.718795005322342 ] ] } },
{ "type": "Feature", "properties": { "transect_id": "TR_0265" }, "geometry": { "type": "LineString", "coordinates": [ [ 101.661689409670032, 12.734384702215801 ], [ 101.650496944990209, 12.720042481219192 ] ] } },
{ "type": "Feature", "properties": { "transect_id": "TR_0266" }, "geometry": { "type": "LineString", "coordinates": [ [ 101.663354687606329, 12.732595137398944 ], [ 101.64764898358257, 12.723176586916781 ] ] } },
{ "type": "Feature", "properties": { "transect_id": "TR_0267" }, "geometry": { "type": "LineString", "coordinates": [ [ 101.664430522231243, 12.729542533745425 ], [ 101.646099700561962, 12.727928566325316 ] ] } },
{ "type": "Feature", "properties": { "transect_id": "TR_0268" }, "geometry": { "type": "LineString", "coordinates": [ [ 101.661346920555516, 12.722316197962099 ], [ 101.649997231072419, 12.736538928483707 ] ] } },
{ "type": "Feature", "properties": { "transect_id": "TR_0269" }, "geometry": { "type": "LineString", "coordinates": [ [ 101.647835200471889, 12.733663244068492 ], [ 101.664211651085978, 12.725418590264969 ] ] } },
{ "type": "Feature", "properties": { "transect_id": "TR_0270" }, "geometry": { "type": "LineString", "coordinates": [ [ 101.647415288150739, 12.732859408706833 ], [ 101.663791711341119, 12.724614787994241 ] ] } },
{ "type": "Feature", "properties": { "transect_id": "TR_0271" }, "geometry": { "type": "LineString", "coordinates": [ [ 101.649378860169477, 12.721524457524684 ], [ 101.662151793185444, 12.734532094808024 ] ] } },
{ "type": "Feature", "properties": { "transect_id": "TR_0272" }, "geometry": { "type": "LineString", "coordinates": [ [ 101.650041381985233, 12.720897525268347 ], [ 101.662814304274278, 12.73390513061633 ] ] } },
{ "type": "Feature", "properties": { "transect_id": "TR_0273" }, "geometry": { "type": "LineString", "coordinates": [ [ 101.659019745494689, 12.717999896836481 ], [ 101.655182777585196, 12.735670079385253 ] ] } },
{ "type": "Feature", "properties": { "transect_id": "TR_0274" }, "geometry": { "type": "LineString", "coordinates": [ [ 101.66161672011269, 12.718912109002497 ], [ 101.654273252465174, 12.735478751989827 ] ] } },
{ "type": "Feature", "properties": { "transect_id": "TR_0275" }, "geometry": { "type": "LineString", "coordinates": [ [ 101.662460480202355, 12.719272548868787 ], [ 101.655117066648828, 12.735839206101037 ] ] } },
{ "type": "Feature", "properties": { "transect_id": "TR_0276" }, "geometry": { "type": "LineString", "coordinates": [ [ 101.663304242229273, 12.719632985562209 ], [ 101.655960882774622, 12.736199657037181 ] ] } },
{ "type": "Feature", "properties": { "transect_id": "TR_0277" }, "geometry": { "type": "LineString", "coordinates": [ [ 101.664148006193642, 12.719993419082659 ], [ 101.656804700842173, 12.736560104797917 ] ] } },
{ "type": "Feature", "properties": { "transect_id": "TR_0278" }, "geometry": { "type": "LineString", "coordinates": [ [ 101.655757569934138, 12.720566354757075 ], [ 101.666696798661135, 12.735095579379754 ] ] } },
{ "type": "Feature", "properties": { "transect_id": "TR_0279" }, "geometry": { "type": "LineString", "coordinates": [ [ 101.656497581528967, 12.720029428530241 ], [ 101.667436816825727, 12.734558619265522 ] ] } },
{ "type": "Feature", "properties": { "transect_id": "TR_0280" }, "geometry": { "type": "LineString", "coordinates": [ [ 101.657237589813803, 12.719492500829963 ], [ 101.668176831675765, 12.734021657678017 ] ] } },
{ "type": "Feature", "properties": { "transect_id": "TR_0281" }, "geometry": { "type": "LineString", "coordinates": [ [ 101.657977594788676, 12.718955571656565 ], [ 101.668916843211363, 12.733484694617445 ] ] } },
{ "type": "Feature", "properties": { "transect_id": "TR_0282" }, "geometry": { "type": "LineString", "coordinates": [ [ 101.658717596453869, 12.718418641010162 ], [ 101.669656851432435, 12.73294773008425 ] ] } },
{ "type": "Feature", "properties": { "transect_id": "TR_0283" }, "geometry": { "type": "LineString", "coordinates": [ [ 101.656686095125849, 12.721037859060393 ], [ 101.67310412668526, 12.729201604172287 ] ] } },
{ "type": "Feature", "properties": { "transect_id": "TR_0284" }, "geometry": { "type": "LineString", "coordinates": [ [ 101.657073453354514, 12.720276008536757 ], [ 101.673538919971989, 12.72834704522637 ] ] } },
{ "type": "Feature", "properties": { "transect_id": "TR_0285" }, "geometry": { "type": "LineString", "coordinates": [ [ 101.657484553187132, 12.719467812833631 ], [ 101.673949970072783, 12.727538832136331 ] ] } },
{ "type": "Feature", "properties": { "transect_id": "TR_0286" }, "geometry": { "type": "LineString", "coordinates": [ [ 101.657895650807831, 12.718659616963205 ], [ 101.674361017962653, 12.726730618881904 ] ] } },
{ "type": "Feature", "properties": { "transect_id": "TR_0287" }, "geometry": { "type": "LineString", "coordinates": [ [ 101.658306746216866, 12.717851420925607 ], [ 101.674772063641853, 12.725922405463216 ] ] } },
{ "type": "Feature", "properties": { "transect_id": "TR_0288" }, "geometry": { "type": "LineString", "coordinates": [ [ 101.669376259223512, 12.71280695031993 ], [ 101.664998346018166, 12.730355373706935 ] ] } },
{ "type": "Feature", "properties": { "transect_id": "TR_0289" }, "geometry": { "type": "LineString", "coordinates": [ [ 101.670269998721864, 12.713021838514049 ], [ 101.665892149453938, 12.730570264962962 ] ] } },
{ "type": "Feature", "properties": { "transect_id": "TR_0290" }, "geometry": { "type": "LineString", "coordinates": [ [ 101.671163739140866, 12.713236723387336 ], [ 101.66678595381353, 12.730785152894356 ] ] } },
{ "type": "Feature", "properties": { "transect_id": "TR_0291" }, "geometry": { "type": "LineString", "coordinates": [ [ 101.672057480480319, 12.713451604939634 ], [ 101.667679759096842, 12.731000037500962 ] ] } },
{ "type": "Feature", "properties": { "transect_id": "TR_0292" }, "geometry": { "type": "LineString", "coordinates": [ [ 101.665206860637824, 12.715179069499964 ], [ 101.676285346137362, 12.729605913177355 ] ] } },
{ "type": "Feature", "properties": { "transect_id": "TR_0293" }, "geometry": { "type": "LineString", "coordinates": [ [ 101.664176514445558, 12.716002976076183 ], [ 101.678474398444052, 12.727378297711589 ] ] } },
{ "type": "Feature", "properties": { "transect_id": "TR_0294" }, "geometry": { "type": "LineString", "coordinates": [ [ 101.664755890824111, 12.715301173517727 ], [ 101.679053748391368, 12.726676467053142 ] ] } },
{ "type": "Feature", "properties": { "transect_id": "TR_0295" }, "geometry": { "type": "LineString", "coordinates": [ [ 101.665335264150315, 12.71459937029007 ], [ 101.679633095283961, 12.725974635728072 ] ] } },
{ "type": "Feature", "properties": { "transect_id": "TR_0296" }, "geometry": { "type": "LineString", "coordinates": [ [ 101.676342756643024, 12.711407570255457 ], [ 101.669947229970433, 12.728348497611639 ] ] } },
{ "type": "Feature", "properties": { "transect_id": "TR_0297" }, "geometry": { "type": "LineString", "coordinates": [ [ 101.677205552751857, 12.711721492075865 ], [ 101.670810084156685, 12.728662430097911 ] ] } },
{ "type": "Feature", "properties": { "transect_id": "TR_0298" }, "geometry": { "type": "LineString", "coordinates": [ [ 101.67806835048242, 12.712035410653611 ], [ 101.671672939968971, 12.728976359338697 ] ] } },
{ "type": "Feature", "properties": { "transect_id": "TR_0299" }, "geometry": { "type": "LineString", "coordinates": [ [ 101.678931149834597, 12.712349325988489 ], [ 101.672535797407193, 12.729290285333773 ] ] } },
{ "type": "Feature", "properties": { "transect_id": "TR_0300" }, "geometry": { "type": "LineString", "coordinates": [ [ 101.672598207185274, 12.712530953890186 ], [ 101.680552041142448, 12.72882338247558 ] ] } },
{ "type": "Feature", "properties": { "transect_id": "TR_0301" }, "geometry": { "type": "LineString", "coordinates": [ [ 101.673427988496712, 12.712140551066719 ], [ 101.681381852993994, 12.728432946987098 ] ] } },
{ "type": "Feature", "properties": { "transect_id": "TR_0302" }, "geometry": { "type": "LineString", "coordinates": [ [ 101.674257766854268, 12.711750146137023 ], [ 101.682211661886754, 12.72804250939056 ] ] } },
{ "type": "Feature", "properties": { "transect_id": "TR_0303" }, "geometry": { "type": "LineString", "coordinates": [ [ 101.687898849108421, 12.718361027705408 ], [ 101.669777949004668, 12.721514637770722 ] ] } },
{ "type": "Feature", "properties": { "transect_id": "TR_0304" }, "geometry": { "type": "LineString", "coordinates": [ [ 101.68805949598314, 12.719250492480837 ], [ 101.669938539186859, 12.722404125570103 ] ] } },
{ "type": "Feature", "properties": { "transect_id": "TR_0305" }, "geometry": { "type": "LineString", "coordinates": [ [ 101.688220144602724, 12.720139956881544 ], [ 101.670099131109666, 12.723293612996233 ] ] } },
{ "type": "Feature", "properties": { "transect_id": "TR_0306" }, "geometry": { "type": "LineString", "coordinates": [ [ 101.68838079496733, 12.721029420907431 ], [ 101.670259724773203, 12.724183100049149 ] ] } },
{ "type": "Feature", "properties": { "transect_id": "TR_0307" }, "geometry": { "type": "LineString", "coordinates": [ [ 101.685091518999982, 12.715781595757639 ], [ 101.674693697064725, 12.730688571919503 ] ] } },
{ "type": "Feature", "properties": { "transect_id": "TR_0308" }, "geometry": { "type": "LineString", "coordinates": [ [ 101.679263063596423, 12.714520900591198 ], [ 101.68218060078955, 12.732359291239606 ] ] } },
{ "type": "Feature", "properties": { "transect_id": "TR_0309" }, "geometry": { "type": "LineString", "coordinates": [ [ 101.680171580139472, 12.714377702974858 ], [ 101.683089175139855, 12.732216071413688 ] ] } },
{ "type": "Feature", "properties": { "transect_id": "TR_0310" }, "geometry": { "type": "LineString", "coordinates": [ [ 101.690899724080111, 12.725996671229984 ], [ 101.673152955454739, 12.721212815343648 ] ] } },
{ "type": "Feature", "properties": { "transect_id": "TR_0311" }, "geometry": { "type": "LineString", "coordinates": [ [ 101.690656103098689, 12.726867772935941 ], [ 101.67290927161271, 12.722083912164978 ] ] } },
{ "type": "Feature", "properties": { "transect_id": "TR_0312" }, "geometry": { "type": "LineString", "coordinates": [ [ 101.684270437382381, 12.716471304371341 ], [ 101.679397378145779, 12.733893292491365 ] ] } },
{ "type": "Feature", "properties": { "transect_id": "TR_0313" }, "geometry": { "type": "LineString", "coordinates": [ [ 101.6851577506919, 12.716710492635036 ], [ 101.680284754322983, 12.73413248563968 ] ] } },
{ "type": "Feature", "properties": { "transect_id": "TR_0314" }, "geometry": { "type": "LineString", "coordinates": [ [ 101.686045065095513, 12.716949677586225 ], [ 101.681172131597862, 12.734371675471916 ] ] } },
{ "type": "Feature", "properties": { "transect_id": "TR_0315" }, "geometry": { "type": "LineString", "coordinates": [ [ 101.686932380593021, 12.717188859224729 ], [ 101.682059509970287, 12.734610861987923 ] ] } },
{ "type": "Feature", "properties": { "transect_id": "TR_0316" }, "geometry": { "type": "LineString", "coordinates": [ [ 101.687819697184338, 12.717428037550421 ], [ 101.682946889439961, 12.734850045187486 ] ] } },
{ "type": "Feature", "properties": { "transect_id": "TR_0317" }, "geometry": { "type": "LineString", "coordinates": [ [ 101.688707014869394, 12.717667212563143 ], [ 101.683834270006628, 12.735089225070427 ] ] } },
{ "type": "Feature", "properties": { "transect_id": "TR_0318" }, "geometry": { "type": "LineString", "coordinates": [ [ 101.683690096704012, 12.717991609144207 ], [ 101.690596219372836, 12.734738081048452 ] ] } },
{ "type": "Feature", "properties": { "transect_id": "TR_0319" }, "geometry": { "type": "LineString", "coordinates": [ [ 101.684543019050764, 12.717652640674904 ], [ 101.69144917935192, 12.734399081310098 ] ] } },
{ "type": "Feature", "properties": { "transect_id": "TR_0320" }, "geometry": { "type": "LineString", "coordinates": [ [ 101.685395938652903, 12.717313669901118 ], [ 101.69230213658193, 12.734060079264717 ] ] } },
{ "type": "Feature", "properties": { "transect_id": "TR_0321" }, "geometry": { "type": "LineString", "coordinates": [ [ 101.693166691559966, 12.717270492020283 ], [ 101.686236382060869, 12.734007285583884 ] ] } },
{ "type": "Feature", "properties": { "transect_id": "TR_0322" }, "geometry": { "type": "LineString", "coordinates": [ [ 101.694019111571976, 12.717610655241298 ], [ 101.687088858093844, 12.734347461417448 ] ] } },
{ "type": "Feature", "properties": { "transect_id": "TR_0323" }, "geometry": { "type": "LineString", "coordinates": [ [ 101.694871533381573, 12.717950815251795 ], [ 101.68794133592894, 12.734687634037964 ] ] } },
{ "type": "Feature", "properties": { "transect_id": "TR_0324" }, "geometry": { "type": "LineString", "coordinates": [ [ 101.695723956988587, 12.71829097205152 ], [ 101.688793815566129, 12.735027803445243 ] ] } },
{ "type": "Feature", "properties": { "transect_id": "TR_0325" }, "geometry": { "type": "LineString", "coordinates": [ [ 101.696576382393019, 12.718631125640307 ], [ 101.689646297005183, 12.735367969639011 ] ] } },
{ "type": "Feature", "properties": { "transect_id": "TR_0326" }, "geometry": { "type": "LineString", "coordinates": [ [ 101.69742880959484, 12.718971276017953 ], [ 101.690498780245932, 12.735708132619019 ] ] } },
{ "type": "Feature", "properties": { "transect_id": "TR_0327" }, "geometry": { "type": "LineString", "coordinates": [ [ 101.698281238593736, 12.719311423184152 ], [ 101.691351265288489, 12.736048292385124 ] ] } },
{ "type": "Feature", "properties": { "transect_id": "TR_0328" }, "geometry": { "type": "LineString", "coordinates": [ [ 101.699133669389695, 12.719651567138717 ], [ 101.692203752132642, 12.73638844893707 ] ] } },
{ "type": "Feature", "properties": { "transect_id": "TR_0329" }, "geometry": { "type": "LineString", "coordinates": [ [ 101.699986101982603, 12.71999170788143 ], [ 101.693056240778304, 12.736728602274637 ] ] } },
{ "type": "Feature", "properties": { "transect_id": "TR_0330" }, "geometry": { "type": "LineString", "coordinates": [ [ 101.706373876558686, 12.727256746197938 ], [ 101.688226057057605, 12.730259546804957 ] ] } },
{ "type": "Feature", "properties": { "transect_id": "TR_0331" }, "geometry": { "type": "LineString", "coordinates": [ [ 101.706526848164074, 12.728147501147561 ], [ 101.688378971371847, 12.731150324442163 ] ] } },
{ "type": "Feature", "properties": { "transect_id": "TR_0332" }, "geometry": { "type": "LineString", "coordinates": [ [ 101.701751003524834, 12.738430691816596 ], [ 101.693110199425362, 12.722479174378288 ] ] } },
{ "type": "Feature", "properties": { "transect_id": "TR_0333" }, "geometry": { "type": "LineString", "coordinates": [ [ 101.700938522615871, 12.73885482938422 ], [ 101.692297743961106, 12.722903278518078 ] ] } },
{ "type": "Feature", "properties": { "transect_id": "TR_0334" }, "geometry": { "type": "LineString", "coordinates": [ [ 101.700126038625868, 12.73927896498375 ], [ 101.691485285420626, 12.723327380691241 ] ] } },
{ "type": "Feature", "properties": { "transect_id": "TR_0335" }, "geometry": { "type": "LineString", "coordinates": [ [ 101.694907617497194, 12.740699899032325 ], [ 101.695048269978088, 12.722633776502969 ] ] } },
{ "type": "Feature", "properties": { "transect_id": "TR_0336" }, "geometry": { "type": "LineString", "coordinates": [ [ 101.693987409098582, 12.740693000023205 ], [ 101.694128127056715, 12.722626864902294 ] ] } },
{ "type": "Feature", "properties": { "transect_id": "TR_0337" }, "geometry": { "type": "LineString", "coordinates": [ [ 101.693067200084116, 12.740686097797713 ], [ 101.693207983519514, 12.722619950089921 ] ] } },
{ "type": "Feature", "properties": { "transect_id": "TR_0338" }, "geometry": { "type": "LineString", "coordinates": [ [ 101.692146990454106, 12.740679192355847 ], [ 101.692287839366713, 12.722613032065849 ] ] } },
{ "type": "Feature", "properties": { "transect_id": "TR_0339" }, "geometry": { "type": "LineString", "coordinates": [ [ 101.691226780208751, 12.740672283697615 ], [ 101.691367694598554, 12.722606110830091 ] ] } },
{ "type": "Feature", "properties": { "transect_id": "TR_0340" }, "geometry": { "type": "LineString", "coordinates": [ [ 101.690306569348337, 12.740665371823011 ], [ 101.690447549215321, 12.722599186382631 ] ] } },
{ "type": "Feature", "properties": { "transect_id": "TR_0341" }, "geometry": { "type": "LineString", "coordinates": [ [ 101.68938635787309, 12.740658456732035 ], [ 101.689527403217241, 12.722592258723477 ] ] } },
{ "type": "Feature", "properties": { "transect_id": "TR_0342" }, "geometry": { "type": "LineString", "coordinates": [ [ 101.688466145783167, 12.740651538424695 ], [ 101.688607256604655, 12.722585327852631 ] ] } },
{ "type": "Feature", "properties": { "transect_id": "TR_0343" }, "geometry": { "type": "LineString", "coordinates": [ [ 101.687545933079022, 12.740644616900981 ], [ 101.68768710937762, 12.722578393770091 ] ] } },
{ "type": "Feature", "properties": { "transect_id": "TR_0344" }, "geometry": { "type": "LineString", "coordinates": [ [ 101.686625719760812, 12.740637692160909 ], [ 101.686766961536506, 12.72257145647586 ] ] } },
{ "type": "Feature", "properties": { "transect_id": "TR_0345" }, "geometry": { "type": "LineString", "coordinates": [ [ 101.685705505828778, 12.740630764204468 ], [ 101.68584681308154, 12.722564515969941 ] ] } },
{ "type": "Feature", "properties": { "transect_id": "TR_0346" }, "geometry": { "type": "LineString", "coordinates": [ [ 101.691159899397519, 12.738218973086251 ], [ 101.678588752837996, 12.725023652923142 ] ] } },
{ "type": "Feature", "properties": { "transect_id": "TR_0347" }, "geometry": { "type": "LineString", "coordinates": [ [ 101.692462443123688, 12.736810715554702 ], [ 101.676389578419347, 12.728009643034712 ] ] } },
{ "type": "Feature", "properties": { "transect_id": "TR_0348" }, "geometry": { "type": "LineString", "coordinates": [ [ 101.692014191768109, 12.737599633423756 ], [ 101.6759412814733, 12.728798540946029 ] ] } },
{ "type": "Feature", "properties": { "transect_id": "TR_0349" }, "geometry": { "type": "LineString", "coordinates": [ [ 101.69156593798354, 12.738388551046134 ], [ 101.675492982097992, 12.72958743860775 ] ] } },
{ "type": "Feature", "properties": { "transect_id": "TR_0350" }, "geometry": { "type": "LineString", "coordinates": [ [ 101.692227464310946, 12.733719246605153 ], [ 101.673949484890244, 12.735833547062521 ] ] } },
{ "type": "Feature", "properties": { "transect_id": "TR_0351" }, "geometry": { "type": "LineString", "coordinates": [ [ 101.690989500050748, 12.730058379601397 ], [ 101.676295450687306, 12.740937018090154 ] ] } },
{ "type": "Feature", "properties": { "transect_id": "TR_0352" }, "geometry": { "type": "LineString", "coordinates": [ [ 101.691543602616235, 12.730779584173524 ], [ 101.676849548058286, 12.741658256534398 ] ] } },
{ "type": "Feature", "properties": { "transect_id": "TR_0353" }, "geometry": { "type": "LineString", "coordinates": [ [ 101.6920977085027, 12.731500786921204 ], [ 101.677403648752104, 12.742379493156701 ] ] } },
{ "type": "Feature", "properties": { "transect_id": "TR_0354" }, "geometry": { "type": "LineString", "coordinates": [ [ 101.692651817710356, 12.732221987844236 ], [ 101.677957752769018, 12.743100727956866 ] ] } },
{ "type": "Feature", "properties": { "transect_id": "TR_0355" }, "geometry": { "type": "LineString", "coordinates": [ [ 101.693205930239429, 12.732943186942418 ], [ 101.678511860109225, 12.743821960934689 ] ] } },
{ "type": "Feature", "properties": { "transect_id": "TR_0356" }, "geometry": { "type": "LineString", "coordinates": [ [ 101.689486060847784, 12.730155036868286 ], [ 101.683846962558007, 12.747352866671715 ] ] } },
{ "type": "Feature", "properties": { "transect_id": "TR_0357" }, "geometry": { "type": "LineString", "coordinates": [ [ 101.690362005873027, 12.730431809439457 ], [ 101.684722968388201, 12.747629647035147 ] ] } },
{ "type": "Feature", "properties": { "transect_id": "TR_0358" }, "geometry": { "type": "LineString", "coordinates": [ [ 101.691237952262, 12.730708578721638 ], [ 101.685598975585947, 12.747906424106304 ] ] } },
{ "type": "Feature", "properties": { "transect_id": "TR_0359" }, "geometry": { "type": "LineString", "coordinates": [ [ 101.692113900014576, 12.730985344714645 ], [ 101.68647498415109, 12.748183197885004 ] ] } },
{ "type": "Feature", "properties": { "transect_id": "TR_0360" }, "geometry": { "type": "LineString", "coordinates": [ [ 101.697883330298581, 12.735736173233304 ], [ 101.681888164437851, 12.744673298669733 ] ] } },
{ "type": "Feature", "properties": { "transect_id": "TR_0361" }, "geometry": { "type": "LineString", "coordinates": [ [ 101.698338559652214, 12.736521225514167 ], [ 101.682343371867063, 12.745458384715652 ] ] } },
{ "type": "Feature", "properties": { "transect_id": "TR_0362" }, "geometry": { "type": "LineString", "coordinates": [ [ 101.698793792154135, 12.737306276406482 ], [ 101.682798582444462, 12.746243469375727 ] ] } },
{ "type": "Feature", "properties": { "transect_id": "TR_0363" }, "geometry": { "type": "LineString", "coordinates": [ [ 101.699249027804498, 12.738091325909929 ], [ 101.683253796170405, 12.747028552649983 ] ] } },
{ "type": "Feature", "properties": { "transect_id": "TR_0364" }, "geometry": { "type": "LineString", "coordinates": [ [ 101.699704266603632, 12.738876374024485 ], [ 101.68370901304506, 12.747813634538138 ] ] } },
{ "type": "Feature", "properties": { "transect_id": "TR_0365" }, "geometry": { "type": "LineString", "coordinates": [ [ 101.700159508551778, 12.739661420750004 ], [ 101.684164233068685, 12.748598715040036 ] ] } },
{ "type": "Feature", "properties": { "transect_id": "TR_0366" }, "geometry": { "type": "LineString", "coordinates": [ [ 101.700614753649134, 12.740446466086233 ], [ 101.684619456241577, 12.749383794155618 ] ] } }
]
}
