{
  "type": "FeatureCollection",
  "features": [
    {
      "type": "Feature",
      "properties": {
        "year": 1985,
        "target_year": 1985,
        "actual_year": 1987,
        "sensor": "landsat-5",
        "actual_acquisition_period": "1987-12-09 to 1987-12-25",
        "acquisition_period": "1987-12-09 to 1987-12-25",
        "scene_count": 2,
        "method": "MNDWI otsu, conservative morphology, edge-connected ocean exterior, corridor-guided continuous trace",
        "threshold": 0.25,
        "mndwi_threshold": 0.25,
        "threshold_candidates": {
          "otsu": {
            "threshold": 0.25,
            "ocean_fraction": 0.3518
          },
          "fixed_zero": {
            "threshold": 0.0,
            "ocean_fraction": 0.3554
          },
          "percentile_60": {
            "threshold": 0.84437,
            "ocean_fraction": 0.1984
          }
        },
        "tide_status": "unverified",
        "source_resolution_m": 30,
        "interpretation": "image-derived water-land boundary, not a true/surveyed shoreline",
        "qa_status": "MVP automated extraction; visual review required",
        "segment_id": 1,
        "length_m": 5983.0
      },
      "geometry": {
        "type": "LineString",
        "coordinates": [
          [
            99.21755132794794,
            9.328880784913087
          ],
          [
            99.21864628497086,
            9.332407610348415
          ],
          [
            99.21974058490237,
            9.334849048452924
          ],
          [
            99.22110655752094,
            9.334848201825908
          ],
          [
            99.22793976911855,
            9.339999454611235
          ],
          [
            99.22794092843263,
            9.3417826681435
          ],
          [
            99.23051610482945,
            9.341897211771862
          ],
          [
            99.23100517543915,
            9.344067658033742
          ],
          [
            99.2323138198219,
            9.344338150218473
          ],
          [
            99.23285459007853,
            9.344609141635077
          ],
          [
            99.2342269569393,
            9.345422275685758
          ],
          [
            99.23450034101378,
            9.345693440705968
          ],
          [
            99.23450066881647,
            9.346183279444778
          ],
          [
            99.23696044966657,
            9.347591225419883
          ],
          [
            99.23794152215406,
            9.347590569518443
          ],
          [
            99.23832665486358,
            9.347861656566678
          ],
          [
            99.23887361854884,
            9.348675324870182
          ],
          [
            99.24051284811034,
            9.3486742184817
          ],
          [
            99.24024011495293,
            9.349362279754933
          ],
          [
            99.24164017760565,
            9.348402108009596
          ],
          [
            99.24297257062227,
            9.349939133395328
          ],
          [
            99.2429727713476,
            9.350228489624515
          ],
          [
            99.24379262861547,
            9.350571398070384
          ],
          [
            99.24406620051514,
            9.351095808724098
          ],
          [
            99.2440671586916,
            9.352470625198524
          ],
          [
            99.24707435899329,
            9.355181995035466
          ],
          [
            99.24816700600064,
            9.354909887686064
          ],
          [
            99.24984439201343,
            9.354908710802022
          ],
          [
            99.25062608659223,
            9.355179504566145
          ],
          [
            99.25089964477715,
            9.35566541323421
          ],
          [
            99.25090009947337,
            9.356299764656008
          ],
          [
            99.25199350283594,
            9.357077950414748
          ],
          [
            99.25250643440769,
            9.357348930615233
          ],
          [
            99.25339320070013,
            9.357348298430304
          ],
          [
            99.25417958662503,
            9.357619080768767
          ]
        ]
      }
    }
  ]
}
