{
  "type": "FeatureCollection",
  "features": [
    {
      "type": "Feature",
      "properties": {
        "year": 2022,
        "target_year": 2022,
        "actual_year": 2022,
        "sensor": "Sentinel-2A, Sentinel-2B",
        "actual_acquisition_period": "2022-02-05 to 2022-04-21",
        "acquisition_period": "2022-02-05 to 2022-04-21",
        "scene_count": 3,
        "method": "MNDWI otsu, conservative morphology, edge-connected ocean exterior, corridor-guided continuous trace",
        "threshold": 0.04297,
        "mndwi_threshold": 0.04297,
        "threshold_candidates": {
          "otsu": {
            "threshold": 0.04297,
            "ocean_fraction": 0.4631
          },
          "fixed_zero": {
            "threshold": 0.0,
            "ocean_fraction": 0.467
          },
          "percentile_60": {
            "threshold": 0.23845,
            "ocean_fraction": 0.3937
          }
        },
        "tide_status": "unverified",
        "source_resolution_m": 20,
        "interpretation": "image-derived water-land boundary, not a true/surveyed shoreline",
        "qa_status": "MVP automated extraction; visual review required",
        "segment_id": 1,
        "length_m": 5967.8
      },
      "geometry": {
        "type": "LineString",
        "coordinates": [
          [
            99.21636694745027,
            9.32797702047809
          ],
          [
            99.21673231654313,
            9.329785771130743
          ],
          [
            99.21746194567095,
            9.331594298668945
          ],
          [
            99.21764474681906,
            9.332679570403572
          ],
          [
            99.21800979071978,
            9.333945627527616
          ],
          [
            99.21855662917285,
            9.334668880805223
          ],
          [
            99.22001536784181,
            9.337381439168515
          ],
          [
            99.22048803401829,
            9.337381146362862
          ],
          [
            99.22110826785391,
            9.337561658348815
          ],
          [
            99.22147264424311,
            9.337742328710874
          ],
          [
            99.22202951283084,
            9.338284672812513
          ],
          [
            99.22256599769963,
            9.338634268002059
          ],
          [
            99.22329464690313,
            9.338826571809888
          ],
          [
            99.22384104202987,
            9.338826228183368
          ],
          [
            99.22493557291268,
            9.34153899361801
          ],
          [
            99.22675713781474,
            9.341899630141157
          ],
          [
            99.22730388948092,
            9.34244197197073
          ],
          [
            99.22894332753599,
            9.342802713558825
          ],
          [
            99.22967186234315,
            9.34280224342924
          ],
          [
            99.23021838223046,
            9.342982786771461
          ],
          [
            99.23204031871926,
            9.343886086542758
          ],
          [
            99.23362527157803,
            9.344970429556573
          ],
          [
            99.23439595463437,
            9.345331715760038
          ],
          [
            99.23477378611094,
            9.346055053915867
          ],
          [
            99.23477396883206,
            9.346327770421736
          ],
          [
            99.23732466057534,
            9.347500533809916
          ],
          [
            99.23768880992571,
            9.347319393442067
          ],
          [
            99.2382495162766,
            9.347319017771206
          ],
          [
            99.23878174880808,
            9.347499557204028
          ],
          [
            99.23914651476639,
            9.348222899130214
          ],
          [
            99.23932865115547,
            9.348222776437725
          ],
          [
            99.23914702970555,
            9.348977208967996
          ],
          [
            99.2391480174908,
            9.350423990554075
          ],
          [
            99.24188280829448,
            9.354371536106788
          ],
          [
            99.2449800664421,
            9.35563568860619
          ],
          [
            99.2469838634006,
            9.35599609298537
          ],
          [
            99.24807708994516,
            9.35653802032624
          ],
          [
            99.24917006224139,
            9.356718151144154
          ],
          [
            99.25062757615149,
            9.357259814454201
          ],
          [
            99.25154583586297,
            9.357440061224956
          ],
          [
            99.25390624377526,
            9.357438379938575
          ],
          [
            99.25427065716013,
            9.357619015514475
          ]
        ]
      }
    }
  ]
}
