{
  "type": "FeatureCollection",
  "features": [
    {
      "type": "Feature",
      "properties": {
        "year": 2023,
        "target_year": 2023,
        "actual_year": 2023,
        "sensor": "Sentinel-2B",
        "actual_acquisition_period": "2023-02-10 to 2023-02-10",
        "acquisition_period": "2023-02-10 to 2023-02-10",
        "scene_count": 1,
        "method": "MNDWI otsu, single tide-stage-constrained scene, conservative morphology, edge-connected ocean exterior, corridor-guided continuous trace",
        "threshold": 0.04297,
        "mndwi_threshold": 0.04297,
        "threshold_candidates": {
          "otsu": {
            "threshold": 0.04297,
            "ocean_fraction": 0.4608
          },
          "fixed_zero": {
            "threshold": 0.0,
            "ocean_fraction": 0.4641
          },
          "percentile_60": {
            "threshold": 0.23298,
            "ocean_fraction": 0.3941
          }
        },
        "tide_status": "SCENE_STAGE_CONSTRAINED_NOT_FULLY_TIDE_NORMALIZED",
        "source_resolution_m": 20,
        "interpretation": "image-derived water-land boundary, not a true/surveyed shoreline",
        "qa_status": "tide-stage sensitivity extraction; visual review required",
        "segment_id": 1,
        "length_m": 6186.8
      },
      "geometry": {
        "type": "LineString",
        "coordinates": [
          [
            99.21636683597386,
            9.327796123234647
          ],
          [
            99.21673231654313,
            9.329785771130743
          ],
          [
            99.21746183358616,
            9.331413401475372
          ],
          [
            99.21800967832381,
            9.333764730364521
          ],
          [
            99.21819203245407,
            9.334126413003283
          ],
          [
            99.21855651648606,
            9.334487983656087
          ],
          [
            99.21983323683813,
            9.337381551826708
          ],
          [
            99.22087326058957,
            9.337380907259245
          ],
          [
            99.22129039893541,
            9.337561545035316
          ],
          [
            99.22220151273919,
            9.33828456535091
          ],
          [
            99.22293026847967,
            9.338645903374301
          ],
          [
            99.2229307284695,
            9.339369491576793
          ],
          [
            99.22311297556449,
            9.339550274351572
          ],
          [
            99.22384092656615,
            9.338645331141263
          ],
          [
            99.22402467619631,
            9.341177774805244
          ],
          [
            99.22493557291268,
            9.34153899361801
          ],
          [
            99.22563710792866,
            9.341719445972833
          ],
          [
            99.22621062128341,
            9.341719081381896
          ],
          [
            99.22675713781474,
            9.341899630141157
          ],
          [
            99.22730388948092,
            9.34244197197073
          ],
          [
            99.22848382769841,
            9.342803009309778
          ],
          [
            99.22985399603894,
            9.342802125663466
          ],
          [
            99.23276909589597,
            9.344247403758823
          ],
          [
            99.23362527157803,
            9.344970429556573
          ],
          [
            99.23439595463437,
            9.345331715760038
          ],
          [
            99.23459128748235,
            9.345512483743208
          ],
          [
            99.23477396883206,
            9.346327770421736
          ],
          [
            99.23732466057534,
            9.347500533809916
          ],
          [
            99.23787094586449,
            9.34731927150883
          ],
          [
            99.23896388482596,
            9.347499434707998
          ],
          [
            99.23902057894709,
            9.348222983909704
          ],
          [
            99.23932865115547,
            9.348222776437725
          ],
          [
            99.23914702970555,
            9.348977208967996
          ],
          [
            99.2391480174908,
            9.350423990554075
          ],
          [
            99.2422470873921,
            9.354371287660046
          ],
          [
            99.24461565969203,
            9.355455043290176
          ],
          [
            99.24698373576084,
            9.355815196419902
          ],
          [
            99.24807696173285,
            9.356357123781295
          ],
          [
            99.24953434358105,
            9.356717895154489
          ],
          [
            99.25026316492595,
            9.357079175073554
          ],
          [
            99.25117621993893,
            9.357259426490605
          ],
          [
            99.25339313521413,
            9.357257850199145
          ],
          [
            99.25408838475467,
            9.357438249549437
          ]
        ]
      }
    }
  ]
}
