{
  "type": "FeatureCollection",
  "features": [
    {
      "type": "Feature",
      "properties": {
        "year": 2024,
        "target_year": 2024,
        "actual_year": 2024,
        "sensor": "Sentinel-2B",
        "actual_acquisition_period": "2024-02-25 to 2024-02-25",
        "acquisition_period": "2024-02-25 to 2024-02-25",
        "scene_count": 1,
        "method": "MNDWI otsu, single tide-stage-constrained scene, conservative morphology, edge-connected ocean exterior, corridor-guided continuous trace",
        "threshold": 0.03516,
        "mndwi_threshold": 0.03516,
        "threshold_candidates": {
          "otsu": {
            "threshold": 0.03516,
            "ocean_fraction": 0.4652
          },
          "fixed_zero": {
            "threshold": 0.0,
            "ocean_fraction": 0.4689
          },
          "percentile_60": {
            "threshold": 0.2277,
            "ocean_fraction": 0.3959
          }
        },
        "tide_status": "SCENE_STAGE_CONSTRAINED_NOT_FULLY_TIDE_NORMALIZED",
        "source_resolution_m": 20,
        "interpretation": "image-derived water-land boundary, not a true/surveyed shoreline",
        "qa_status": "tide-stage sensitivity extraction; visual review required",
        "segment_id": 1,
        "length_m": 5978.1
      },
      "geometry": {
        "type": "LineString",
        "coordinates": [
          [
            99.21636705892894,
            9.3281579177197
          ],
          [
            99.21655007784912,
            9.329604984794846
          ],
          [
            99.21727959366065,
            9.331232615557392
          ],
          [
            99.21764508340955,
            9.333222261933615
          ],
          [
            99.21800990311803,
            9.334126524688875
          ],
          [
            99.21837438696677,
            9.334488095532619
          ],
          [
            99.21910301799873,
            9.334668544609398
          ],
          [
            99.22001536784181,
            9.337381439168515
          ],
          [
            99.22048803401829,
            9.337381146362862
          ],
          [
            99.22147264424311,
            9.337742328710874
          ],
          [
            99.22202951283084,
            9.338284672812513
          ],
          [
            99.22256599769963,
            9.338634268002059
          ],
          [
            99.22329464690313,
            9.338826571809888
          ],
          [
            99.22384104202987,
            9.338826228183368
          ],
          [
            99.22511782217123,
            9.341719775292098
          ],
          [
            99.22604379779554,
            9.34190008458711
          ],
          [
            99.22657500454838,
            9.341899746308517
          ],
          [
            99.2271217559397,
            9.342442088424997
          ],
          [
            99.22848394561045,
            9.342983906251426
          ],
          [
            99.22985411465807,
            9.342983022587708
          ],
          [
            99.23040063491653,
            9.343163565638738
          ],
          [
            99.23222257280324,
            9.344066864432241
          ],
          [
            99.23439607563074,
            9.34551261260011
          ],
          [
            99.23459140858192,
            9.345693380578904
          ],
          [
            99.2347740285153,
            9.346416847569637
          ],
          [
            99.23732466057534,
            9.347500533809916
          ],
          [
            99.2380530818008,
            9.347319149482196
          ],
          [
            99.23805320471159,
            9.347500046254163
          ],
          [
            99.23878174880808,
            9.347499557204028
          ],
          [
            99.23914637127075,
            9.34801268784521
          ],
          [
            99.2391480174908,
            9.350423990554075
          ],
          [
            99.24188280829448,
            9.354371536106788
          ],
          [
            99.2444335196128,
            9.355455168790183
          ],
          [
            99.2469838634006,
            9.35599609298537
          ],
          [
            99.24825923053773,
            9.356537892941612
          ],
          [
            99.25062757615149,
            9.357259814454201
          ],
          [
            99.25154583586297,
            9.357440061224956
          ],
          [
            99.25376275221896,
            9.357438482593933
          ],
          [
            99.25427065716013,
            9.357619015514475
          ]
        ]
      }
    }
  ]
}
