{
  "type": "FeatureCollection",
  "features": [
    {
      "type": "Feature",
      "properties": {
        "year": 2023,
        "target_year": 2023,
        "actual_year": 2023,
        "sensor": "Sentinel-2A, Sentinel-2B",
        "actual_acquisition_period": "2023-01-16 to 2023-04-21",
        "acquisition_period": "2023-01-16 to 2023-04-21",
        "scene_count": 3,
        "method": "MNDWI fixed_zero, conservative morphology, edge-connected ocean exterior, corridor-guided continuous trace",
        "threshold": 0.0,
        "mndwi_threshold": 0.0,
        "threshold_candidates": {
          "otsu": {
            "threshold": -0.06641,
            "ocean_fraction": 0.5078
          },
          "fixed_zero": {
            "threshold": 0.0,
            "ocean_fraction": 0.4298
          },
          "percentile_60": {
            "threshold": 0.11515,
            "ocean_fraction": 0.3066
          }
        },
        "tide_status": "unverified",
        "source_resolution_m": 20,
        "interpretation": "image-derived water-land boundary, not a true/surveyed shoreline",
        "qa_status": "MVP automated extraction; visual review required",
        "segment_id": 1,
        "length_m": 15237.7
      },
      "geometry": {
        "type": "LineString",
        "coordinates": [
          [
            99.950972951957,
            13.30896327136301
          ],
          [
            99.95097486503069,
            13.309453577569396
          ],
          [
            99.95169881598255,
            13.309503036560395
          ],
          [
            99.95373684523484,
            13.30750629346853
          ],
          [
            99.96705139841504,
            13.312699955380841
          ],
          [
            99.96871386737303,
            13.3128744483634
          ],
          [
            99.97037777826655,
            13.313410577981477
          ],
          [
            99.97076006961446,
            13.313409117407476
          ],
          [
            99.97481562993566,
            13.315021024679988
          ],
          [
            99.97908852184914,
            13.321514330199951
          ],
          [
            99.97909070318109,
            13.322056799946445
          ],
          [
            99.97975345793907,
            13.322054243201727
          ],
          [
            99.97966574238473,
            13.32729853525018
          ],
          [
            99.98129754265251,
            13.32747305692768
          ],
          [
            99.98317772985962,
            13.328189083117815
          ],
          [
            99.98391632895984,
            13.328186220561857
          ],
          [
            99.98510975521724,
            13.329085719036135
          ],
          [
            99.98650512378198,
            13.329088761140262
          ],
          [
            99.98650616104692,
            13.329344628187279
          ],
          [
            99.98779975284134,
            13.329595466867474
          ],
          [
            99.98817113216354,
            13.330105762794684
          ],
          [
            99.98817208175997,
            13.330339590937506
          ],
          [
            99.9890938673359,
            13.32997434850129
          ],
          [
            99.98968461964022,
            13.33105699755289
          ],
          [
            99.99020618724533,
            13.331054962578047
          ],
          [
            99.99157408875872,
            13.330507144453511
          ],
          [
            99.99278983266785,
            13.3306832157699
          ],
          [
            99.99538678455855,
            13.33356624302855
          ],
          [
            99.99538900427801,
            13.334108709585744
          ],
          [
            99.99594962849861,
            13.335733934526527
          ],
          [
            99.9970575571443,
            13.33572958171894
          ],
          [
            99.99835236676574,
            13.336266963303109
          ],
          [
            99.99853963387753,
            13.336902430108669
          ],
          [
            99.99854593127483,
            13.33843609993156
          ],
          [
            99.99799864049992,
            13.340065678306408
          ],
          [
            99.99913854863227,
            13.347836654083226
          ],
          [
            99.99951159527282,
            13.348739306508127
          ],
          [
            100.00174471726237,
            13.35288945321378
          ],
          [
            100.02006700729122,
            13.362399988600322
          ],
          [
            100.022095371575,
            13.36166851444052
          ],
          [
            100.02298060443061,
            13.361664939248525
          ],
          [
            100.02487081016962,
            13.362923057456435
          ],
          [
            100.02579800040297,
            13.363823418035842
          ],
          [
            100.02728305005832,
            13.365625626628836
          ],
          [
            100.02895279914156,
            13.367427073891553
          ],
          [
            100.03006469950198,
            13.36832666523075
          ],
          [
            100.03247166422541,
            13.369763438606013
          ],
          [
            100.03395602938373,
            13.371384781486622
          ],
          [
            100.03469937660692,
            13.372466678181766
          ],
          [
            100.03544504687841,
            13.374091030204752
          ],
          [
            100.0374904715879,
            13.377337452618532
          ],
          [
            100.03843170815558,
            13.381492502413952
          ],
          [
            100.0395669834483,
            13.38781661278002
          ],
          [
            100.03994102503722,
            13.388900006458345
          ]
        ]
      }
    }
  ]
}
