{
  "type": "FeatureCollection",
  "features": [
    {
      "type": "Feature",
      "properties": {
        "year": 2024,
        "target_year": 2024,
        "actual_year": 2024,
        "sensor": "Sentinel-2A, Sentinel-2B",
        "actual_acquisition_period": "2024-01-01 to 2024-04-20",
        "acquisition_period": "2024-01-01 to 2024-04-20",
        "scene_count": 3,
        "method": "MNDWI otsu, conservative morphology, edge-connected ocean exterior, corridor-guided continuous trace",
        "threshold": -0.01953,
        "mndwi_threshold": -0.01953,
        "threshold_candidates": {
          "otsu": {
            "threshold": -0.01953,
            "ocean_fraction": 0.479
          },
          "fixed_zero": {
            "threshold": 0.0,
            "ocean_fraction": 0.4226
          },
          "percentile_60": {
            "threshold": 0.18805,
            "ocean_fraction": 0.3474
          }
        },
        "tide_status": "unverified",
        "source_resolution_m": 20,
        "interpretation": "image-derived water-land boundary, not a true/surveyed shoreline",
        "qa_status": "MVP automated extraction; visual review required",
        "segment_id": 1,
        "length_m": 16686.4
      },
      "geometry": {
        "type": "LineString",
        "coordinates": [
          [
            99.9380629545742,
            13.31280864731474
          ],
          [
            99.94452466787226,
            13.312603877811554
          ],
          [
            99.94526112371919,
            13.31205865533616
          ],
          [
            99.94596810646948,
            13.312056023961476
          ],
          [
            99.94894385348194,
            13.30946117031608
          ],
          [
            99.94894476066064,
            13.309694163965498
          ],
          [
            99.94950149153435,
            13.310415394775562
          ],
          [
            99.95005611091054,
            13.310594149235957
          ],
          [
            99.95126005978425,
            13.310227989635896
          ],
          [
            99.95190249308253,
            13.310587238751483
          ],
          [
            99.95245640753006,
            13.310585162990732
          ],
          [
            99.95346796250668,
            13.310219714259155
          ],
          [
            99.95485741088187,
            13.310756978784065
          ],
          [
            99.95689268999682,
            13.311834285579696
          ],
          [
            99.95745059549499,
            13.312847392716321
          ],
          [
            99.95745133586806,
            13.313035805954854
          ],
          [
            99.95837762392523,
            13.31381778738845
          ],
          [
            99.95967295458212,
            13.314536205574369
          ],
          [
            99.95985902018944,
            13.314897156704353
          ],
          [
            99.96078579085767,
            13.315797788039811
          ],
          [
            99.96208113869116,
            13.31651619263527
          ],
          [
            99.96337720904276,
            13.317415414221212
          ],
          [
            99.9672618850718,
            13.319208915409089
          ],
          [
            99.96911336032646,
            13.3204676421472
          ],
          [
            99.971331981348,
            13.321182470363341
          ],
          [
            99.97207272745484,
            13.321722114637858
          ],
          [
            99.97299956789527,
            13.32262269605222
          ],
          [
            99.97411395608611,
            13.324245859037898
          ],
          [
            99.97909070318109,
            13.322056799946445
          ],
          [
            99.97964463925001,
            13.322054663116152
          ],
          [
            99.97929571615994,
            13.327119137358187
          ],
          [
            99.98091697989656,
            13.327474528125576
          ],
          [
            99.98167810536259,
            13.327471585159328
          ],
          [
            99.98320327777407,
            13.328188984138778
          ],
          [
            99.98391632895984,
            13.328186220561857
          ],
          [
            99.98428635978345,
            13.328365611351924
          ],
          [
            99.98576282595234,
            13.328179054770803
          ],
          [
            99.98576444960779,
            13.328579897196816
          ],
          [
            99.98650435644761,
            13.328899475690148
          ],
          [
            99.98650512378198,
            13.329088761140262
          ],
          [
            99.98724476291163,
            13.3293417557008
          ],
          [
            99.98761614070285,
            13.329852052558678
          ],
          [
            99.98761717919751,
            13.330107919504334
          ],
          [
            99.98890848164447,
            13.329794245605088
          ],
          [
            99.98927851815148,
            13.329973628664966
          ],
          [
            99.98983467725053,
            13.330513935977308
          ],
          [
            99.99260444385891,
            13.330503115813707
          ],
          [
            99.99389773938101,
            13.330678878375085
          ],
          [
            99.99630782871013,
            13.333020152223376
          ],
          [
            99.99650515474208,
            13.336112967340172
          ],
          [
            99.9970575571443,
            13.33572958171894
          ],
          [
            99.99835388713535,
            13.336637339950705
          ],
          [
            99.99836201694454,
            13.338617648918296
          ],
          [
            99.9979978982992,
            13.3398848563522
          ],
          [
            99.9989538848076,
            13.347837382049569
          ],
          [
            99.99951159527282,
            13.348739306508127
          ],
          [
            100.0019316224337,
            13.353431187588782
          ],
          [
            100.02154211345113,
            13.361851570710655
          ],
          [
            100.022095371575,
            13.36166851444052
          ],
          [
            100.02298060443061,
            13.361664939248525
          ],
          [
            100.02579800040297,
            13.363823418035842
          ],
          [
            100.02728305005832,
            13.365625626628836
          ],
          [
            100.02895279914156,
            13.367427073891553
          ],
          [
            100.03006469950198,
            13.36832666523075
          ],
          [
            100.03210153771167,
            13.369584125787236
          ],
          [
            100.03377057897801,
            13.37120471662989
          ],
          [
            100.03469937660692,
            13.372466678181766
          ],
          [
            100.03712187699826,
            13.377519786792826
          ],
          [
            100.0382454717661,
            13.38113162269135
          ],
          [
            100.03956775944067,
            13.387997431703946
          ],
          [
            100.03975477994807,
            13.388539128635774
          ]
        ]
      }
    }
  ]
}
