{
  "type": "FeatureCollection",
  "features": [
    {
      "type": "Feature",
      "properties": {
        "year": 2010,
        "target_year": 2010,
        "actual_year": 2009,
        "sensor": "landsat-5",
        "actual_acquisition_period": "2009-01-19 to 2009-12-05",
        "acquisition_period": "2009-01-19 to 2009-12-05",
        "scene_count": 3,
        "method": "MNDWI otsu, conservative morphology, edge-connected ocean exterior, corridor-guided continuous trace",
        "threshold": 0.25,
        "mndwi_threshold": 0.25,
        "threshold_candidates": {
          "otsu": {
            "threshold": 0.25,
            "ocean_fraction": 0.4617
          },
          "fixed_zero": {
            "threshold": 0.0,
            "ocean_fraction": 0.4718
          },
          "percentile_60": {
            "threshold": 0.85016,
            "ocean_fraction": 0.4024
          }
        },
        "tide_status": "unverified",
        "source_resolution_m": 30,
        "interpretation": "image-derived water-land boundary, not a true/surveyed shoreline",
        "qa_status": "MVP automated extraction; visual review required",
        "segment_id": 1,
        "length_m": 5992.7
      },
      "geometry": {
        "type": "LineString",
        "coordinates": [
          [
            99.21618420870676,
            9.326982196283149
          ],
          [
            99.21673242823208,
            9.329966668349611
          ],
          [
            99.21810091156345,
            9.334036020277887
          ],
          [
            99.21837427437616,
            9.33430719837944
          ],
          [
            99.21919402629304,
            9.334578039924681
          ],
          [
            99.2200153111053,
            9.337290990616816
          ],
          [
            99.22041093186427,
            9.337290745584214
          ],
          [
            99.22165483257602,
            9.337832663747912
          ],
          [
            99.22192829289972,
            9.338248910853107
          ],
          [
            99.2227231521327,
            9.338646033195026
          ],
          [
            99.22302185199351,
            9.33945988297664
          ],
          [
            99.22438905781908,
            9.34135844201845
          ],
          [
            99.22684820444704,
            9.341899572022474
          ],
          [
            99.22739495625063,
            9.342441913708592
          ],
          [
            99.22856526053415,
            9.342983853956424
          ],
          [
            99.23002892907934,
            9.342982909464531
          ],
          [
            99.23067389525005,
            9.34325383684326
          ],
          [
            99.23231363996355,
            9.34406680489936
          ],
          [
            99.23331703492099,
            9.344880183652082
          ],
          [
            99.23395357328788,
            9.345151110440671
          ],
          [
            99.23477372551139,
            9.345964605501276
          ],
          [
            99.23559351665584,
            9.346235408097298
          ],
          [
            99.23559367566185,
            9.346471899198022
          ],
          [
            99.23701698618609,
            9.347591187695665
          ],
          [
            99.23840379011408,
            9.347590259527362
          ],
          [
            99.23887310108469,
            9.347916423516851
          ],
          [
            99.23914700873135,
            9.348946486112412
          ],
          [
            99.23914808334882,
            9.350520442655625
          ],
          [
            99.24215601761864,
            9.354371349806783
          ],
          [
            99.24461565969203,
            9.355455043290176
          ],
          [
            99.24707493356377,
            9.355996029588953
          ],
          [
            99.24953440806601,
            9.3568083434153
          ],
          [
            99.25161966805281,
            9.357349560583968
          ],
          [
            99.25339320070013,
            9.357348298430304
          ],
          [
            99.25417958662503,
            9.357619080768767
          ]
        ]
      }
    }
  ]
}
