{
  "type": "FeatureCollection",
  "features": [
    {
      "type": "Feature",
      "properties": {
        "year": 2023,
        "target_year": 2023,
        "actual_year": 2023,
        "sensor": "Sentinel-2A, Sentinel-2B",
        "actual_acquisition_period": "2023-02-10 to 2023-04-06",
        "acquisition_period": "2023-02-10 to 2023-04-06",
        "scene_count": 3,
        "method": "MNDWI otsu, conservative morphology, edge-connected ocean exterior, corridor-guided continuous trace",
        "threshold": 0.02734,
        "mndwi_threshold": 0.02734,
        "threshold_candidates": {
          "otsu": {
            "threshold": 0.02734,
            "ocean_fraction": 0.4637
          },
          "fixed_zero": {
            "threshold": 0.0,
            "ocean_fraction": 0.4663
          },
          "percentile_60": {
            "threshold": 0.22748,
            "ocean_fraction": 0.395
          }
        },
        "tide_status": "unverified",
        "source_resolution_m": 20,
        "interpretation": "image-derived water-land boundary, not a true/surveyed shoreline",
        "qa_status": "MVP automated extraction; visual review required",
        "segment_id": 1,
        "length_m": 5964.9
      },
      "geometry": {
        "type": "LineString",
        "coordinates": [
          [
            99.21636694745027,
            9.32797702047809
          ],
          [
            99.21654996625854,
            9.329424087570114
          ],
          [
            99.21746205775801,
            9.331775195860683
          ],
          [
            99.21800979071978,
            9.333945627527616
          ],
          [
            99.21855662917285,
            9.334668880805223
          ],
          [
            99.22001536784181,
            9.337381439168515
          ],
          [
            99.22048803401829,
            9.337381146362862
          ],
          [
            99.22110826785391,
            9.337561658348815
          ],
          [
            99.22147264424311,
            9.337742328710874
          ],
          [
            99.22202951283084,
            9.338284672812513
          ],
          [
            99.22280019771395,
            9.338645984916878
          ],
          [
            99.22329464690313,
            9.338826571809888
          ],
          [
            99.22384104202987,
            9.338826228183368
          ],
          [
            99.22475343981071,
            9.341539108847408
          ],
          [
            99.22604379779554,
            9.34190008458711
          ],
          [
            99.22675713781474,
            9.341899630141157
          ],
          [
            99.22730388948092,
            9.34244197197073
          ],
          [
            99.22848394561045,
            9.342983906251426
          ],
          [
            99.23003624844547,
            9.342982904726261
          ],
          [
            99.23051693752352,
            9.343163490208106
          ],
          [
            99.23149379654231,
            9.343705546068707
          ],
          [
            99.23204031871926,
            9.343886086542758
          ],
          [
            99.23349811559665,
            9.344970513152374
          ],
          [
            99.23401061291159,
            9.345151072873074
          ],
          [
            99.23459140858192,
            9.345693380578904
          ],
          [
            99.23477396883206,
            9.346327770421736
          ],
          [
            99.23732466057534,
            9.347500533809916
          ],
          [
            99.23787094586449,
            9.34731927150883
          ],
          [
            99.2382495162766,
            9.347319017771206
          ],
          [
            99.23878174880808,
            9.347499557204028
          ],
          [
            99.23914637127075,
            9.34801268784521
          ],
          [
            99.2391480174908,
            9.350423990554075
          ],
          [
            99.24188280829448,
            9.354371536106788
          ],
          [
            99.2444335196128,
            9.355455168790183
          ],
          [
            99.24661945528997,
            9.35581544976687
          ],
          [
            99.24789482123181,
            9.35635725106993
          ],
          [
            99.25008102407958,
            9.357079303494155
          ],
          [
            99.25154583586297,
            9.357440061224956
          ],
          [
            99.25228480802502,
            9.35743953655365
          ],
          [
            99.25281326717034,
            9.357258263839933
          ],
          [
            99.25339313521413,
            9.357257850199145
          ],
          [
            99.25427065716013,
            9.357619015514475
          ]
        ]
      }
    }
  ]
}
