{
  "type": "FeatureCollection",
  "name": "krabi_pdd_plots_97_100_vsd",
  "crs": {
    "type": "name",
    "properties": {
      "name": "urn:ogc:def:crs:OGC:1.3:CRS84"
    }
  },
  "features": [
    {
      "type": "Feature",
      "properties": {
        "plot_code": "97-VSD",
        "province": "กระบี่",
        "district": "คลองท่อม",
        "subdistrict": "ห้วยน้ำขาว",
        "village": "ท่าประดู่",
        "area_rai_attr": 185.58,
        "area_rai_geom_source": 185.6721,
        "source_kind": "existing_project_KML",
        "source_file": "ขอบเขตพื้นที่/VSD/USE/32647/MOC2/กระบี่/97-VSD.kml"
      },
      "geometry": {
        "type": "Polygon",
        "coordinates": [[[99.10007878051135,7.910411037239609],[99.10088612709313,7.909976655698131],[99.100178168188,7.908710444431508],[99.09732873193548,7.905789395164502],[99.09468828373736,7.904116569823886],[99.09449735676765,7.902325587056225],[99.09326328007637,7.90124943941015],[99.09317292159312,7.90287766467253],[99.09278287213192,7.903149119636224],[99.09284662687037,7.904261712308196],[99.09289218742458,7.905148168653113],[99.09395374626843,7.905545936995451],[99.09526935639576,7.90604314697373],[99.09551444863297,7.906640098961476],[99.0957416866296,7.908494391303181],[99.09591439333462,7.909923553429283],[99.09660406002939,7.910601813123209],[99.09752937338192,7.910257865608062],[99.09877219508083,7.909796248997734],[99.09994255210717,7.909823107250646],[99.10007878051135,7.910411037239609]]]
      }
    },
    {
      "type": "Feature",
      "properties": {
        "plot_code": "98-VSD",
        "province": "กระบี่",
        "district": "คลองท่อม",
        "subdistrict": "ห้วยน้ำขาว",
        "village": "ท่าประดู่",
        "area_rai_attr": 153.33,
        "area_rai_geom_source": 153.4363,
        "source_kind": "existing_project_KML",
        "source_file": "ขอบเขตพื้นที่/VSD/USE/32647/MOC2/กระบี่/98-VSD.kml"
      },
      "geometry": {
        "type": "Polygon",
        "coordinates": [[[99.10959808188602,7.95320322814649],[99.1103871488479,7.951999960429874],[99.11009668941074,7.951583941245929],[99.10946155400757,7.95159315480032],[99.10898060916783,7.951385233341909],[99.10888066840818,7.95087870818588],[99.10820008216814,7.950562291616507],[99.10705674077604,7.950191719672148],[99.10656654191246,7.949269198714602],[99.1060945048576,7.948400945547233],[99.10557730205092,7.948310621238251],[99.10554997345258,7.94788548742537],[99.10525960214898,7.94778605927928],[99.10467902681569,7.948247530199411],[99.10406216653581,7.948745190738008],[99.1035271094886,7.949821745776999],[99.10307366771565,7.950726415191978],[99.10183956314542,7.95022016792643],[99.10166730070539,7.950753898473692],[99.10217550219772,7.951124641289197],[99.10551468315617,7.951811269174754],[99.10791056881777,7.953755449654354],[99.10882676934,7.952932064563188],[99.10959808188602,7.95320322814649]]]
      }
    },
    {
      "type": "Feature",
      "properties": {
        "plot_code": "99-VSD",
        "province": "กระบี่",
        "district": "คลองท่อม",
        "subdistrict": "คลองท่อมใต้",
        "village": "วังหิน",
        "area_rai_attr": 205.78,
        "area_rai_geom_source": 205.8635,
        "source_kind": "existing_project_KML",
        "source_file": "ขอบเขตพื้นที่/VSD/USE/32647/MOC2/กระบี่/99-VSD.kml"
      },
      "geometry": {
        "type": "Polygon",
        "coordinates": [[[99.09650322174633,7.945074515176773],[99.09727437421304,7.944757740677233],[99.09650286291686,7.943536768906826],[99.09675668667182,7.942568834883843],[99.09735547687382,7.942396828750701],[99.09734615000485,7.941320408610008],[99.09670196202597,7.941347695839568],[99.09622998162841,7.940597022734438],[99.09544079685537,7.941375123363289],[99.09469676974021,7.941257701581721],[99.09431578094859,7.941628656637251],[99.09234654805482,7.940046123230045],[99.09102154450875,7.938571987807053],[99.08991435316494,7.937323940147795],[99.08979627937488,7.936754094625825],[99.08997766633627,7.936410323377742],[99.09091222921609,7.936581985969949],[99.09155640370511,7.936518526209055],[99.09234572607448,7.936364576663947],[99.09275417386607,7.937079086230882],[99.09449612469643,7.936725917067465],[99.0938517496586,7.935902915986843],[99.08954187915447,7.935116900424645],[99.08761859262398,7.936049003658637],[99.08890755134246,7.938771447544296],[99.09427990699221,7.943464914873969],[99.09568632346509,7.943754051408406],[99.09650322174633,7.945074515176773]]]
      }
    },
    {
      "type": "Feature",
      "properties": {
        "plot_code": "100-VSD",
        "province": "กระบี่",
        "district": "คลองท่อม",
        "subdistrict": "เพหลา",
        "village": "เพหลา",
        "area_rai_attr": 291.51,
        "area_rai_geom_source": 290.2431,
        "source_kind": "existing_project_KML",
        "source_file": "ขอบเขตพื้นที่/VSD/USE/32647/MOC2/กระบี่/100-VSD.kml"
      },
      "geometry": {
        "type": "Polygon",
        "coordinates": [[[99.11832599155133,7.982264184244741],[99.120194709918,7.980418355422786],[99.12031206874703,7.978355936577259],[99.11508459118102,7.975263846149629],[99.11533802732818,7.973002388449515],[99.1138762782677,7.969900169856999],[99.11323221979114,7.970560670638462],[99.11277054562424,7.974540838888632],[99.11364192213705,7.975562747522816],[99.11429606021505,7.97850236958874],[99.11540344940971,7.979795575805213],[99.11485038433784,7.981405836210399],[99.11741839394381,7.981595072454695],[99.11764539272076,7.982110604321006],[99.11832599155133,7.982264184244741]]]
      }
    }
  ]
}
