{"type":"FeatureCollection","name":"surat_thani_37_stc_boundaries","features":[{"type":"Feature","properties":{"name":"แปลง 37-STC เนื้อที่ 200.05 ไร่ จังหวัด สุราษฎร์ธานี","plot_code":"37-STC","moo":7,"village_th":"บ้านเลม็ด","tambon_th":"เลม็ด","amphoe_th":"ไชยา","province_th":"สุราษฎร์ธานี","site_type_th":"พื้นที่เลนงอก","boundary_role":"reference_confirmed_department","source_label":"ยืนยันกรม","reported_rai":200.05,"qgis_rai":196.36,"computed_area_m2_epsg32647":313933.0,"computed_rai_epsg32647":196.21},"geometry":{"type":"Polygon","coordinates":[[[99.22172924060445,9.340292818402846],[99.22242951550608,9.338818069314772],[99.22825956049905,9.341627322764893],[99.23088272968168,9.342313036863962],[99.23332357023907,9.342691326268888],[99.23791539896155,9.345727349322441],[99.23583099885633,9.347284452465797],[99.23422702343967,9.345521768948727],[99.22930762452842,9.342847702913707],[99.22660254086004,9.342234388290859],[99.22172924060445,9.340292818402846]]]}},{"type":"Feature","properties":{"name":"แปลง 37-STC เนื้อที่ 157.55 ไร่ จังหวัด สุราษฎร์ธานี","plot_code":"37-STC","moo":7,"village_th":"บ้านเลม็ด","tambon_th":"เลม็ด","amphoe_th":"ไชยา","province_th":"สุราษฎร์ธานี","site_type_th":"พื้นที่เลนงอก","boundary_role":"current_pdd","source_label":"SHP PDD","reported_rai":157.55,"qgis_rai":157.68,"arcgis_rai":157.56,"computed_area_m2_epsg32647":252094.31,"computed_rai_epsg32647":157.56},"geometry":{"type":"MultiPolygon","coordinates":[[[[99.22826040766061,9.342368963861192],[99.22806996106175,9.342567023666883],[99.22671512455419,9.34225924409591],[99.22694047783285,9.342117747304812],[99.22682388685608,9.341951559265876],[99.22567276388745,9.341620554042784],[99.22546414333726,9.341683313020248],[99.22544578756518,9.341773348089676],[99.2227746544669,9.340708933565965],[99.22325513948091,9.340566799705817],[99.22332351549342,9.340128904353481],[99.22311418225135,9.33967202639707],[99.22253926847995,9.339306540451368],[99.22220621060562,9.339288839985558],[99.22242946999036,9.338818096477821],[99.22825956961161,9.341627331803894],[99.22883562803646,9.341778507828531],[99.22877907309284,9.341844345533246],[99.22887021795607,9.342033903105369],[99.22963699662093,9.341987822405281],[99.22890050241477,9.342124910980909],[99.22826040766061,9.342368963861192]]],[[[99.23791539896155,9.345727349322441],[99.23583099885633,9.347284452465797],[99.23565806033191,9.347094354174228],[99.23607645848908,9.346533513064463],[99.23598070745433,9.346381306731931],[99.23587623654042,9.346181412694632],[99.23569338182668,9.346127518254422],[99.235557544744,9.346018428033897],[99.23535660671513,9.346036189625552],[99.23525677236464,9.346135848546705],[99.23518340044498,9.34657203051458],[99.23466425056976,9.346001689345092],[99.23443714989943,9.34553113647539],[99.23429126626749,9.345404812905315],[99.23331743277686,9.344908222416267],[99.2328396796193,9.344517798448665],[99.2303741952007,9.343172898976574],[99.2294260447248,9.342856725595498],[99.22937814414436,9.342885492008605],[99.22930762452842,9.342847702913707],[99.22878950466003,9.342730209614032],[99.22935196322089,9.342594445620955],[99.23088085677026,9.342594224366708],[99.23217287784726,9.342513896432232],[99.23332357026314,9.342691362448262],[99.23791539896155,9.345727349322441]]]]}}]}