{
  "type": "FeatureCollection",
  "features": [
    {
      "type": "Feature",
      "properties": {
        "indicator": "WATERLINE",
        "role": "HISTORICAL_AND_RECENT_SCREENING",
        "year": 2025,
        "scene_id": "S2C_MSIL2A_20250214T033901_R061_T47PNQ_20250214T090512",
        "acquisition_datetime_bangkok": "2025-02-14T10:39:01.025000+07:00",
        "tide_level_m_msl": 0.8849,
        "tide_target_m_msl": 1.0879,
        "tide_delta_from_target_m": -0.203,
        "tide_status": "modelled_secondary_extrema_cosine",
        "tide_source_tier": "secondary_published_extrema",
        "mndwi_threshold": 0.01953,
        "threshold_method": "otsu",
        "source_resolution_m": 20,
        "confidence": "LOW",
        "interpretation": "image-derived waterline selected near the current tide target; screening only, not tide-normalized or surveyed",
        "segment_id": 1,
        "length_m": 2254.66
      },
      "geometry": {
        "type": "LineString",
        "coordinates": [
          [
            99.98769036364426,
            13.348125794798936
          ],
          [
            99.98769010578124,
            13.34806235605377
          ],
          [
            99.98787477041019,
            13.348061636282203
          ],
          [
            99.98787403528121,
            13.347880813884718
          ],
          [
            99.98805869976192,
            13.34788009398874
          ],
          [
            99.98805796450647,
            13.347699271598742
          ],
          [
            99.98824262883893,
            13.347698551578361
          ],
          [
            99.98824115808591,
            13.347336906810725
          ],
          [
            99.9884258221328,
            13.347336186676047
          ],
          [
            99.98842508663523,
            13.34715536429841
          ],
          [
            99.9886097505339,
            13.34715464403934
          ],
          [
            99.98860901490987,
            13.346973821669193
          ],
          [
            99.9889783423998,
            13.346972380767768
          ],
          [
            99.98897687063499,
            13.346610736060072
          ],
          [
            99.98916153408894,
            13.346610015427835
          ],
          [
            99.9891607980855,
            13.346429193080178
          ],
          [
            99.98934546139122,
            13.346428472323565
          ],
          [
            99.98934472526133,
            13.3462476499834
          ],
          [
            99.9895293884188,
            13.346246929102408
          ],
          [
            99.98952865216245,
            13.346066106769749
          ],
          [
            99.9897133151717,
            13.346065385764383
          ],
          [
            99.9897125787889,
            13.345884563439226
          ],
          [
            99.98989724164991,
            13.345883842309496
          ],
          [
            99.98989650514066,
            13.345703019991843
          ],
          [
            99.99008116785345,
            13.345702298737747
          ],
          [
            99.99007969459296,
            13.345340654114837
          ],
          [
            99.9906336818419,
            13.345338489606391
          ],
          [
            99.99063220780101,
            13.344976845033774
          ],
          [
            99.99081686992086,
            13.344976123282255
          ],
          [
            99.99081613277944,
            13.344795301002152
          ],
          [
            99.99137011866156,
            13.344793134971136
          ],
          [
            99.99136938111907,
            13.344612312718818
          ],
          [
            99.99155404292063,
            13.344611590449663
          ],
          [
            99.99155109231043,
            13.343888301454786
          ],
          [
            99.99192041478227,
            13.343886856594178
          ],
          [
            99.99191893899336,
            13.343525212121605
          ],
          [
            99.99228826087227,
            13.34352376676371
          ],
          [
            99.99228752271958,
            13.343342944543789
          ],
          [
            99.99265684428016,
            13.34334149866834
          ],
          [
            99.99265610586377,
            13.343160676466095
          ],
          [
            99.99284076649037,
            13.343159953336832
          ],
          [
            99.9928400279476,
            13.342979131142123
          ],
          [
            99.99357866979551,
            13.342976237321114
          ],
          [
            99.99357719164426,
            13.342614593005083
          ],
          [
            99.99671641287627,
            13.342602270611474
          ],
          [
            99.9967186371221,
            13.343144736562722
          ],
          [
            99.99690329750787,
            13.343144010475411
          ],
          [
            99.99690552226434,
            13.343686476372554
          ],
          [
            99.99672086146664,
            13.34368720249044
          ],
          [
            99.99672160293676,
            13.343868024461116
          ],
          [
            99.99653694199078,
            13.34386875045473
          ],
          [
            99.99654361447949,
            13.345496148164832
          ],
          [
            99.99709760099235,
            13.34549396950544
          ],
          [
            99.9971020522838,
            13.346578901011046
          ],
          [
            99.99691738929978,
            13.346579627426484
          ],
          [
            99.99691813108274,
            13.346760449345124
          ],
          [
            99.99654880480709,
            13.3467619017929
          ],
          [
            99.99654982970978,
            13.347011827022031
          ]
        ]
      }
    },
    {
      "type": "Feature",
      "properties": {
        "indicator": "WATERLINE",
        "role": "HISTORICAL_AND_RECENT_SCREENING",
        "year": 2025,
        "scene_id": "S2C_MSIL2A_20250214T033901_R061_T47PNQ_20250214T090512",
        "acquisition_datetime_bangkok": "2025-02-14T10:39:01.025000+07:00",
        "tide_level_m_msl": 0.8849,
        "tide_target_m_msl": 1.0879,
        "tide_delta_from_target_m": -0.203,
        "tide_status": "modelled_secondary_extrema_cosine",
        "tide_source_tier": "secondary_published_extrema",
        "mndwi_threshold": 0.01953,
        "threshold_method": "otsu",
        "source_resolution_m": 20,
        "confidence": "LOW",
        "interpretation": "image-derived waterline selected near the current tide target; screening only, not tide-normalized or surveyed",
        "segment_id": 2,
        "length_m": 28045.93
      },
      "geometry": {
        "type": "LineString",
        "coordinates": [
          [
            99.95050319900078,
            13.283174852023588
          ],
          [
            99.95050645251831,
            13.284010784546847
          ],
          [
            99.95106030685635,
            13.284008715888925
          ],
          [
            99.95106101108257,
            13.28418954117185
          ],
          [
            99.95124562931099,
            13.284188851341796
          ],
          [
            99.95124633368432,
            13.284369676612403
          ],
          [
            99.9518001887168,
            13.284367606289969
          ],
          [
            99.95180089351057,
            13.284548431528798
          ],
          [
            99.95198551197045,
            13.28454774114389
          ],
          [
            99.95199538209539,
            13.287079294078163
          ],
          [
            99.95254924315248,
            13.287077221711515
          ],
          [
            99.95254994864996,
            13.2872580468724
          ],
          [
            99.95291918957568,
            13.287256664605767
          ],
          [
            99.95291989535701,
            13.287437489744569
          ],
          [
            99.95310451594085,
            13.287436798400691
          ],
          [
            99.95310592780835,
            13.287798448651014
          ],
          [
            99.95329054865509,
            13.287797757153768
          ],
          [
            99.9532919608379,
            13.288159407374197
          ],
          [
            99.95347658194756,
            13.288158715723574
          ],
          [
            99.95347870071048,
            13.28870119100547
          ],
          [
            99.95366332221975,
            13.288700499191718
          ],
          [
            99.9536647350542,
            13.289062149347146
          ],
          [
            99.9538493568264,
            13.28906145738
          ],
          [
            99.95385147656685,
            13.289603932564384
          ],
          [
            99.95422072090004,
            13.289602548169889
          ],
          [
            99.95422142777461,
            13.289783373206642
          ],
          [
            99.95459067233926,
            13.289781988257019
          ],
          [
            99.95459350103617,
            13.290505288299968
          ],
          [
            99.95477812384964,
            13.290504595585265
          ],
          [
            99.95478024589272,
            13.29104707056088
          ],
          [
            99.95496486910586,
            13.29104637768298
          ],
          [
            99.95496840673798,
            13.291950502541493
          ],
          [
            99.9551530306243,
            13.291949809480862
          ],
          [
            99.95515373831896,
            13.29213063443499
          ],
          [
            99.95552298633359,
            13.292129247892417
          ],
          [
            99.95552369431223,
            13.292310072824415
          ],
          [
            99.95589294255832,
            13.292308685726578
          ],
          [
            99.95589365082097,
            13.29248951063644
          ],
          [
            99.95626289929851,
            13.292488122983327
          ],
          [
            99.95626927659696,
            13.29411554687904
          ],
          [
            99.95608465113266,
            13.294116240860527
          ],
          [
            99.95608535963719,
            13.294297065734588
          ],
          [
            99.95571610840351,
            13.29429845331525
          ],
          [
            99.95571752489703,
            13.294660103094648
          ],
          [
            99.95553289899088,
            13.294660796703589
          ],
          [
            99.95553714790302,
            13.295745746037918
          ],
          [
            99.9553525211657,
            13.295746439571499
          ],
          [
            99.95535393728024,
            13.29610808934832
          ],
          [
            99.95498468322697,
            13.296109476052624
          ],
          [
            99.95498680665682,
            13.296651950756914
          ],
          [
            99.95480217920405,
            13.296652643937392
          ],
          [
            99.95480288689822,
            13.296833468843372
          ],
          [
            99.95424900406655,
            13.29683554761021
          ],
          [
            99.9542518333066,
            13.297558847325195
          ],
          [
            99.95443646147484,
            13.297558154497874
          ],
          [
            99.95444282911015,
            13.299185578616498
          ],
          [
            99.95462745849922,
            13.299184885567376
          ],
          [
            99.95462816620355,
            13.29936571044667
          ],
          [
            99.95481279571894,
            13.299365017253786
          ],
          [
            99.95481350357059,
            13.299545842120718
          ],
          [
            99.95499813321231,
            13.299545148784064
          ],
          [
            99.95499884121129,
            13.29972597363863
          ],
          [
            99.95518347097934,
            13.299725280158206
          ],
          [
            99.95518559544979,
            13.300267754676995
          ],
          [
            99.95537022561781,
            13.300267061033269
          ],
          [
            99.95537376729621,
            13.301171185130347
          ],
          [
            99.95518913644399,
            13.301171878822897
          ],
          [
            99.95519976100229,
            13.303884250869977
          ],
          [
            99.95501512808667,
            13.303884944574953
          ],
          [
            99.95501654459929,
            13.304246594156481
          ],
          [
            99.95427801173683,
            13.304249367713917
          ],
          [
            99.95428013494194,
            13.30479184218378
          ],
          [
            99.95409550128943,
            13.304792535267257
          ],
          [
            99.95409691653819,
            13.305154184920314
          ],
          [
            99.95391228260144,
            13.305154877889233
          ],
          [
            99.95391299010467,
            13.305335702721605
          ],
          [
            99.95372835602052,
            13.305336395566208
          ],
          [
            99.95372906339735,
            13.30551722040573
          ],
          [
            99.95354442916583,
            13.30551791312601
          ],
          [
            99.95354513641625,
            13.305698737972673
          ],
          [
            99.95336050203734,
            13.30569943056863
          ],
          [
            99.95336120916137,
            13.305880255422437
          ],
          [
            99.95317657463507,
            13.30588094789407
          ],
          [
            99.95317728163268,
            13.306061772755012
          ],
          [
            99.952992646959,
            13.306062465102311
          ],
          [
            99.9529933538302,
            13.306243289970393
          ],
          [
            99.95280871900914,
            13.306243982193354
          ],
          [
            99.95280942575391,
            13.306424807068577
          ],
          [
            99.95262479078548,
            13.306425499167197
          ],
          [
            99.95262549740382,
            13.306606324049548
          ],
          [
            99.95225622716171,
            13.306607707864028
          ],
          [
            99.95225834625816,
            13.307150182553878
          ],
          [
            99.95207371071068,
            13.307150874289192
          ],
          [
            99.95207512322018,
            13.307512524088864
          ],
          [
            99.95189048738838,
            13.307513215709555
          ],
          [
            99.95189119352193,
            13.307694040615214
          ],
          [
            99.95170655754276,
            13.307694732111544
          ],
          [
            99.95170796956742,
            13.308056381934511
          ],
          [
            99.95152333330394,
            13.308057073316203
          ],
          [
            99.95152474509662,
            13.3084187231482
          ],
          [
            99.95134010854882,
            13.308419414415246
          ],
          [
            99.95134152010951,
            13.308781064256282
          ],
          [
            99.95115688327739,
            13.30878175540867
          ],
          [
            99.9511575889365,
            13.308962580335002
          ],
          [
            99.950972951957,
            13.308963271363012
          ],
          [
            99.95097365748963,
            13.309144096296462
          ],
          [
            99.95060438322538,
            13.309145477969599
          ],
          [
            99.95060649906442,
            13.309687952812633
          ],
          [
            99.95116041167755,
            13.30968588001428
          ],
          [
            99.9511597059766,
            13.309505055098372
          ],
          [
            99.9518982554332,
            13.309502289528542
          ],
          [
            99.9518968429672,
            13.309140639766719
          ],
          [
            99.95208148003132,
            13.309139948058444
          ],
          [
            99.95208077367708,
            13.308959123183353
          ],
          [
            99.95226541059378,
            13.308958431350703
          ],
          [
            99.9522647041131,
            13.30877760648275
          ],
          [
            99.95244934088241,
            13.308776914525723
          ],
          [
            99.95244792767858,
            13.308415264801457
          ],
          [
            99.95281720063805,
            13.308413880524055
          ],
          [
            99.952816493778,
            13.308233055677492
          ],
          [
            99.9530011301051,
            13.308232363347381
          ],
          [
            99.9530004231186,
            13.308051538507954
          ],
          [
            99.95318505929829,
            13.308050846053485
          ],
          [
            99.95318364508292,
            13.307689196386296
          ],
          [
            99.95336828097828,
            13.307688503817221
          ],
          [
            99.9533675737494,
            13.307507678989467
          ],
          [
            99.95373684523484,
            13.30750629346853
          ],
          [
            99.95373613774262,
            13.307325468657663
          ],
          [
            99.9539207733327,
            13.307324775705808
          ],
          [
            99.95392006571406,
            13.30714395090209
          ],
          [
            99.95410470115672,
            13.307143257825897
          ],
          [
            99.95410399341166,
            13.306962433029323
          ],
          [
            99.95428862870692,
            13.306961739828798
          ],
          [
            99.95428792083544,
            13.306780915039376
          ],
          [
            99.95447255598332,
            13.30678022171452
          ],
          [
            99.95447184798543,
            13.306599396932244
          ],
          [
            99.95465648298588,
            13.306598703483065
          ],
          [
            99.95465577486159,
            13.306417878707943
          ],
          [
            99.95484040971465,
            13.306417185134443
          ],
          [
            99.95483970146395,
            13.306236360366476
          ],
          [
            99.9550243361696,
            13.306235666668655
          ],
          [
            99.9550236277925,
            13.306054841907844
          ],
          [
            99.9553928968985,
            13.306053454129499
          ],
          [
            99.95539218825812,
            13.305872629385613
          ],
          [
            99.95557682265844,
            13.305871935305095
          ],
          [
            99.95557611389168,
            13.30569111056837
          ],
          [
            99.95576074814461,
            13.305690416363547
          ],
          [
            99.95576003925146,
            13.305509591633989
          ],
          [
            99.95594467335698,
            13.305508897304865
          ],
          [
            99.95594396433745,
            13.305328072582467
          ],
          [
            99.95612859829556,
            13.305327378129046
          ],
          [
            99.95612788914966,
            13.305146553413824
          ],
          [
            99.95631252296037,
            13.305145858836106
          ],
          [
            99.95631181368809,
            13.304965034128047
          ],
          [
            99.95649644735141,
            13.304964339426045
          ],
          [
            99.95649573795275,
            13.304783514725159
          ],
          [
            99.95668037146865,
            13.304782819898868
          ],
          [
            99.95667966194364,
            13.304601995205157
          ],
          [
            99.95686429531214,
            13.304601300254586
          ],
          [
            99.95686358566078,
            13.304420475568051
          ],
          [
            99.95704821888188,
            13.304419780493198
          ],
          [
            99.95704750910414,
            13.30423895581384
          ],
          [
            99.95723214217783,
            13.304238260614715
          ],
          [
            99.95723143227374,
            13.304057435942534
          ],
          [
            99.95741606520004,
            13.304056740619139
          ],
          [
            99.95741535516962,
            13.303875915954142
          ],
          [
            99.9575999879485,
            13.30387522050648
          ],
          [
            99.95759927779173,
            13.303694395848664
          ],
          [
            99.95796854304415,
            13.303693004570757
          ],
          [
            99.95796783262418,
            13.30351217992992
          ],
          [
            99.95981415688513,
            13.303505215595377
          ],
          [
            99.959813445107,
            13.303324391049955
          ],
          [
            99.96092123833583,
            13.303320206073797
          ],
          [
            99.96092195093516,
            13.303501030560318
          ],
          [
            99.96147584781754,
            13.303498936233135
          ],
          [
            99.96147656083805,
            13.303679760687576
          ],
          [
            99.96184582564717,
            13.303678363779554
          ],
          [
            99.961846538952,
            13.303859188211728
          ],
          [
            99.96203117147758,
            13.303858489546805
          ],
          [
            99.96203188492986,
            13.304039313966545
          ],
          [
            99.96221651758171,
            13.304038615157737
          ],
          [
            99.96221723118146,
            13.304219439565035
          ],
          [
            99.96258649672718,
            13.304218041525582
          ],
          [
            99.96258721061126,
            13.3043988659106
          ],
          [
            99.96295647638838,
            13.304397467315246
          ],
          [
            99.96295790473584,
            13.304759116038095
          ],
          [
            99.96314253788229,
            13.304758416519643
          ],
          [
            99.96314325220878,
            13.304939240867313
          ],
          [
            99.96351251874364,
            13.304937841408528
          ],
          [
            99.96351323335452,
            13.305118665733904
          ],
          [
            99.96369786674293,
            13.305117965793567
          ],
          [
            99.96369858150128,
            13.30529879010648
          ],
          [
            99.963883215016,
            13.305298090022228
          ],
          [
            99.96388392992182,
            13.305478914322688
          ],
          [
            99.96406856356283,
            13.305478214094515
          ],
          [
            99.96406927861615,
            13.305659038382514
          ],
          [
            99.96443854614014,
            13.305657637504247
          ],
          [
            99.96443926147785,
            13.30583846176993
          ],
          [
            99.96462389536083,
            13.30583776111983
          ],
          [
            99.96462461084604,
            13.306018585373046
          ],
          [
            99.9648092448553,
            13.306017884579015
          ],
          [
            99.96480996048804,
            13.306198708819766
          ],
          [
            99.96499459462358,
            13.306198007881795
          ],
          [
            99.96499531040381,
            13.306378832110076
          ],
          [
            99.96517994466565,
            13.306378131028167
          ],
          [
            99.96518137653176,
            13.306739779457176
          ],
          [
            99.96536601105679,
            13.306739078221455
          ],
          [
            99.96536744323917,
            13.307100726620307
          ],
          [
            99.9655520780274,
            13.307100025230765
          ],
          [
            99.96555279427143,
            13.307280849416411
          ],
          [
            99.96573742918595,
            13.307280147882912
          ],
          [
            99.96573886197969,
            13.307641796226648
          ],
          [
            99.9661081323245,
            13.307640392717895
          ],
          [
            99.96611028241628,
            13.308182865154713
          ],
          [
            99.9662949179835,
            13.30818216316957
          ],
          [
            99.96629563483894,
            13.308362987300088
          ],
          [
            99.96648027053244,
            13.308362285170968
          ],
          [
            99.9664824215733,
            13.308904757517244
          ],
          [
            99.96666705766697,
            13.308904055224385
          ],
          [
            99.96666920921429,
            13.309446527517563
          ],
          [
            99.9668538457081,
            13.309445825060955
          ],
          [
            99.96685456304876,
            13.309626649143587
          ],
          [
            99.96703919966887,
            13.309625946542981
          ],
          [
            99.9670399171571,
            13.309806770613118
          ],
          [
            99.96722455390352,
            13.30980606786852
          ],
          [
            99.96722598918574,
            13.310167715981205
          ],
          [
            99.96741062619539,
            13.310167013082713
          ],
          [
            99.96741780461431,
            13.31197525339086
          ],
          [
            99.9672331662351,
            13.311975956388236
          ],
          [
            99.96723388399856,
            13.312156780414599
          ],
          [
            99.96704924547176,
            13.312157483287725
          ],
          [
            99.96704996310888,
            13.312338307321372
          ],
          [
            99.96686532443448,
            13.312339010070243
          ],
          [
            99.96686604194527,
            13.312519834111168
          ],
          [
            99.96649676429061,
            13.312521239226255
          ],
          [
            99.96649891606496,
            13.313063711392672
          ],
          [
            99.96705283376373,
            13.313061603429878
          ],
          [
            99.96705211608406,
            13.312880779406663
          ],
          [
            99.96945242322451,
            13.312871631078622
          ],
          [
            99.96945314268486,
            13.313052454973162
          ],
          [
            99.96982242082056,
            13.313051045506082
          ],
          [
            99.96982314056551,
            13.313231869378196
          ],
          [
            99.9703770581,
            13.313229754141723
          ],
          [
            99.97037777826655,
            13.313410577981477
          ],
          [
            99.97074705684348,
            13.313409167133244
          ],
          [
            99.97074777729466,
            13.31358999095055
          ],
          [
            99.97167097423495,
            13.313586461432697
          ],
          [
            99.97167025309888,
            13.313405637665031
          ],
          [
            99.9718548923179,
            13.31340493136894
          ],
          [
            99.97185417105553,
            13.313224107608603
          ],
          [
            99.97314664433043,
            13.313219159849345
          ],
          [
            99.97314736655164,
            13.313399983540094
          ],
          [
            99.97351664480783,
            13.313398568667358
          ],
          [
            99.9735173673137,
            13.313579392335603
          ],
          [
            99.97370200656272,
            13.313578684688059
          ],
          [
            99.97370272921628,
            13.313759508343736
          ],
          [
            99.97407200795614,
            13.313758092626284
          ],
          [
            99.97407273089439,
            13.313938916259447
          ],
          [
            99.97425737038523,
            13.31393820818953
          ],
          [
            99.97425809347116,
            13.314119031810124
          ],
          [
            99.97444273308827,
            13.314118323596094
          ],
          [
            99.97444345632192,
            13.314299147204121
          ],
          [
            99.97481273579795,
            13.314297730353665
          ],
          [
            99.97481562993566,
            13.315021024679988
          ],
          [
            99.97555419095092,
            13.315018189209667
          ],
          [
            99.97555346685243,
            13.314837365671874
          ],
          [
            99.97629202714802,
            13.314834528094796
          ],
          [
            99.97629275179449,
            13.315015351592683
          ],
          [
            99.97703131246624,
            13.315012511829043
          ],
          [
            99.97703203767142,
            13.315193335284388
          ],
          [
            99.97740131821682,
            13.315191914577593
          ],
          [
            99.97740204370676,
            13.315372738010348
          ],
          [
            99.9779559648552,
            13.315370605913914
          ],
          [
            99.9779566907669,
            13.31555142931408
          ],
          [
            99.97832597175274,
            13.315550007225609
          ],
          [
            99.9783266979492,
            13.315730830603169
          ],
          [
            99.97851133856298,
            13.315730119347675
          ],
          [
            99.9785120649072,
            13.315910942712627
          ],
          [
            99.97869670564722,
            13.315910231312953
          ],
          [
            99.97869743213921,
            13.316091054665291
          ],
          [
            99.97888207300548,
            13.31609034312144
          ],
          [
            99.97888279964526,
            13.316271166461162
          ],
          [
            99.97906744063776,
            13.316270454773125
          ],
          [
            99.97906889422362,
            13.316632101424727
          ],
          [
            99.97925353547939,
            13.316631389582495
          ],
          [
            99.97925426242547,
            13.316812212894375
          ],
          [
            99.97943890380748,
            13.316811500907946
          ],
          [
            99.97943963090137,
            13.316992324207206
          ],
          [
            99.97962427240961,
            13.316991612076578
          ],
          [
            99.97962499965129,
            13.317172435363215
          ],
          [
            99.97980964128578,
            13.31717172308839
          ],
          [
            99.97981036867526,
            13.317352546362399
          ],
          [
            99.97999501043599,
            13.31735183394337
          ],
          [
            99.97999573797325,
            13.317532657204756
          ],
          [
            99.98018037986024,
            13.317531944641516
          ],
          [
            99.98018256294782,
            13.318074414379964
          ],
          [
            99.98036720523508,
            13.318073701652468
          ],
          [
            99.98036793308954,
            13.318254524883379
          ],
          [
            99.98055257550307,
            13.318253812011662
          ],
          [
            99.98055839982328,
            13.319700397684832
          ],
          [
            99.98037375631344,
            13.319701110636732
          ],
          [
            99.98037448426496,
            13.31988193384416
          ],
          [
            99.9798205532596,
            13.319884071924626
          ],
          [
            99.97982273594538,
            13.320426541621426
          ],
          [
            99.97963809184421,
            13.320427254076527
          ],
          [
            99.97963954674783,
            13.320788900548045
          ],
          [
            99.97945490236178,
            13.320789612888952
          ],
          [
            99.9794563570344,
            13.321151259370058
          ],
          [
            99.97927171236343,
            13.32115197159676
          ],
          [
            99.979273166805,
            13.321513618087453
          ],
          [
            99.97908852184914,
            13.321514330199951
          ],
          [
            99.97908924894901,
            13.321695153451392
          ],
          [
            99.97890460384531,
            13.321695865439663
          ],
          [
            99.97890678479835,
            13.32223833520835
          ],
          [
            99.97946072131083,
            13.322236198750742
          ],
          [
            99.97945999390448,
            13.322055375527151
          ],
          [
            99.97982928458477,
            13.322053950570908
          ],
          [
            99.97982855691505,
            13.321873127364736
          ],
          [
            99.98019784727808,
            13.32187170189157
          ],
          [
            99.98019711934501,
            13.32169087870283
          ],
          [
            99.98222821406246,
            13.321683029112812
          ],
          [
            99.9822274846324,
            13.321502206031797
          ],
          [
            99.98370464250931,
            13.321496487117601
          ],
          [
            99.98370537303592,
            13.321677310118229
          ],
          [
            99.98425930747246,
            13.321675163280391
          ],
          [
            99.98426003842108,
            13.321855986248229
          ],
          [
            99.9844446833487,
            13.321855270357084
          ],
          [
            99.98444541444523,
            13.322036093312251
          ],
          [
            99.98481470454209,
            13.322034661107123
          ],
          [
            99.98481543592361,
            13.322215484039548
          ],
          [
            99.98500008109285,
            13.322214767725557
          ],
          [
            99.98500081262227,
            13.322395590645305
          ],
          [
            99.98518545791777,
            13.322394874187006
          ],
          [
            99.9851861895951,
            13.322575697094074
          ],
          [
            99.98537083501684,
            13.322574980491462
          ],
          [
            99.98537229867819,
            13.322936626277619
          ],
          [
            99.98592623570082,
            13.322934475603859
          ],
          [
            99.985926967959,
            13.323115298462792
          ],
          [
            99.98611161374862,
            13.323114581292966
          ],
          [
            99.98611234615474,
            13.32329540413921
          ],
          [
            99.98666628386972,
            13.323293251793984
          ],
          [
            99.98666701669795,
            13.323474074607365
          ],
          [
            99.98703630872785,
            13.323472639019116
          ],
          [
            99.98703704184112,
            13.323653461809714
          ],
          [
            99.98722168797687,
            13.323652743804118
          ],
          [
            99.98722242123809,
            13.32383356658201
          ],
          [
            99.98759171375119,
            13.323832130147869
          ],
          [
            99.98759244729746,
            13.324012952902965
          ],
          [
            99.98777709367481,
            13.324012234474411
          ],
          [
            99.98777856107412,
            13.324373879956578
          ],
          [
            99.9879632077148,
            13.324373161373572
          ],
          [
            99.9879646754318,
            13.324734806825097
          ],
          [
            99.98833396922893,
            13.324733369215885
          ],
          [
            99.98833470337796,
            13.324914191917529
          ],
          [
            99.98851935039731,
            13.32491347290142
          ],
          [
            99.9885200846943,
            13.325094295590347
          ],
          [
            99.98888937897463,
            13.325092857135116
          ],
          [
            99.98889084814967,
            13.325454502464707
          ],
          [
            99.98907549554772,
            13.325453783015467
          ],
          [
            99.98907696504051,
            13.325815428314396
          ],
          [
            99.98926161270192,
            13.325814708710656
          ],
          [
            99.98926602226412,
            13.326899644484099
          ],
          [
            99.98908137377998,
            13.32690036414851
          ],
          [
            99.98908431315728,
            13.32762365465236
          ],
          [
            99.9898229092226,
            13.327620775027146
          ],
          [
            99.98982364464267,
            13.327801597606118
          ],
          [
            99.99019294288428,
            13.327800156967497
          ],
          [
            99.9901936785895,
            13.327980979523616
          ],
          [
            99.99093227549052,
            13.3279780965943
          ],
          [
            99.99093153923674,
            13.327797274078685
          ],
          [
            99.99185478443201,
            13.327793667445986
          ],
          [
            99.99185552137148,
            13.327974489910925
          ],
          [
            99.99222481964749,
            13.32797304629748
          ],
          [
            99.99222555687217,
            13.328153868739525
          ],
          [
            99.99296415384174,
            13.328150979860464
          ],
          [
            99.99296489162589,
            13.328331802259308
          ],
          [
            99.99333419031942,
            13.32833035699367
          ],
          [
            99.99333492838879,
            13.328511179369597
          ],
          [
            99.99388887675855,
            13.328509010433395
          ],
          [
            99.99388961525027,
            13.328689832776233
          ],
          [
            99.99444356393306,
            13.328687662600808
          ],
          [
            99.99444430284717,
            13.328868484910545
          ],
          [
            99.99481360218861,
            13.328867037435064
          ],
          [
            99.99481434138795,
            13.329047859721854
          ],
          [
            99.99518364095992,
            13.329046411688795
          ],
          [
            99.99518438044451,
            13.32922723395263
          ],
          [
            99.995553680247,
            13.329225785361983
          ],
          [
            99.99555442001684,
            13.329406607602854
          ],
          [
            99.9959237200498,
            13.329405158454604
          ],
          [
            99.99592446010492,
            13.3295859806725
          ],
          [
            99.99629376036837,
            13.32958453096663
          ],
          [
            99.99629450070876,
            13.329765353161553
          ],
          [
            99.99647915096119,
            13.329764628096957
          ],
          [
            99.99647989144971,
            13.329945450279078
          ],
          [
            99.99666454182835,
            13.32994472506998
          ],
          [
            99.99666528246496,
            13.330125547239302
          ],
          [
            99.99684993296981,
            13.330124821885695
          ],
          [
            99.99685067375457,
            13.330305644042213
          ],
          [
            99.99721997500565,
            13.330304192911651
          ],
          [
            99.9972207160757,
            13.330485015045173
          ],
          [
            99.99740536682195,
            13.330484289268215
          ],
          [
            99.99740610804015,
            13.330665111388925
          ],
          [
            99.9975907589126,
            13.330664385467445
          ],
          [
            99.99759150027894,
            13.330845207575347
          ],
          [
            99.99777615127758,
            13.330844481509343
          ],
          [
            99.99777763431753,
            13.331206125696914
          ],
          [
            99.99796228557953,
            13.331205399476174
          ],
          [
            99.99796302725315,
            13.33138622155584
          ],
          [
            99.99814767864135,
            13.331385495190569
          ],
          [
            99.99814916229587,
            13.331747139321651
          ],
          [
            99.99833381394745,
            13.331746412801635
          ],
          [
            99.99833529792028,
            13.332108056901857
          ],
          [
            99.99851994983523,
            13.332107330227092
          ],
          [
            99.9985206919753,
            13.332288152263073
          ],
          [
            99.99870534401644,
            13.332287425443756
          ],
          [
            99.99870682860393,
            13.33264906948747
          ],
          [
            99.99889148090847,
            13.332648342513387
          ],
          [
            99.99889445076407,
            13.333371630528614
          ],
          [
            99.99870979791075,
            13.333372357543539
          ],
          [
            99.99871054026492,
            13.33355317955102
          ],
          [
            99.99852588726343,
            13.3335539064418
          ],
          [
            99.99852737173033,
            13.333915550469346
          ],
          [
            99.99741945184422,
            13.333919909114975
          ],
          [
            99.99741722762997,
            13.333377442886094
          ],
          [
            99.99667861579947,
            13.333380345840334
          ],
          [
            99.99667935664444,
            13.333561167960012
          ],
          [
            99.9964947035222,
            13.333561893372872
          ],
          [
            99.99649692571133,
            13.334104359746794
          ],
          [
            99.99705088628,
            13.33410218301343
          ],
          [
            99.99705385099887,
            13.334825471353126
          ],
          [
            99.9968691969381,
            13.334826197106041
          ],
          [
            99.99686993800803,
            13.335007019194624
          ],
          [
            99.99594666685363,
            13.335010645994602
          ],
          [
            99.99594888807094,
            13.335553112397465
          ],
          [
            99.9963181973889,
            13.335551662019487
          ],
          [
            99.99631893809102,
            13.33573248412818
          ],
          [
            99.9970575571443,
            13.33572958171894
          ],
          [
            99.99705681589327,
            13.335548759651001
          ],
          [
            99.99724147049194,
            13.335548033722938
          ],
          [
            99.99724072911467,
            13.335367211662582
          ],
          [
            99.99779469243317,
            13.335365033102722
          ],
          [
            99.99779543422211,
            13.335545855132485
          ],
          [
            99.99798008877688,
            13.335545128666912
          ],
          [
            99.99798083071403,
            13.335725950683859
          ],
          [
            99.99816548539503,
            13.335725224073705
          ],
          [
            99.99816696957673,
            13.33608686807935
          ],
          [
            99.9983516245212,
            13.336086141314409
          ],
          [
            99.9983627593429,
            13.338798470870397
          ],
          [
            99.99817810233975,
            13.338799197788422
          ],
          [
            99.99818032918891,
            13.339341663659656
          ],
          [
            99.997995671763,
            13.339342390473883
          ],
          [
            99.99799864049992,
            13.34006567830641
          ],
          [
            99.99781398251393,
            13.340066405027022
          ],
          [
            99.99781472458834,
            13.340247226988824
          ],
          [
            99.99763006645411,
            13.340247953585214
          ],
          [
            99.99763080840222,
            13.340428775554598
          ],
          [
            99.99744615011974,
            13.340429502026762
          ],
          [
            99.99744689194154,
            13.34061032400373
          ],
          [
            99.99633894119255,
            13.340614680074884
          ],
          [
            99.99633968220165,
            13.340795502110382
          ],
          [
            99.99615502356782,
            13.34079622766192
          ],
          [
            99.9961557644506,
            13.340977049704994
          ],
          [
            99.99597110566853,
            13.340977775132282
          ],
          [
            99.99597332797077,
            13.341520241276363
          ],
          [
            99.99523469108546,
            13.341523141763322
          ],
          [
            99.99523543132563,
            13.341703963846834
          ],
          [
            99.99486611254267,
            13.341705413304021
          ],
          [
            99.99486759250668,
            13.342067057503893
          ],
          [
            99.99375963424757,
            13.342071402770834
          ],
          [
            99.99375667765835,
            13.341348114116666
          ],
          [
            99.99394133684638,
            13.341347390282266
          ],
          [
            99.99394059758912,
            13.341166568122349
          ],
          [
            99.99412525662893,
            13.341165844163674
          ],
          [
            99.99412303851093,
            13.340623377698723
          ],
          [
            99.99430769712797,
            13.340622653636101
          ],
          [
            99.99430621816278,
            13.340261009333394
          ],
          [
            99.9944908764943,
            13.340260285156676
          ],
          [
            99.99448939729832,
            13.339898640863838
          ],
          [
            99.99467405534435,
            13.339897916573031
          ],
          [
            99.9946725759176,
            13.339536272290077
          ],
          [
            99.99485723367815,
            13.339535547885186
          ],
          [
            99.99485575402066,
            13.33917390361211
          ],
          [
            99.99504041149572,
            13.339173179093144
          ],
          [
            99.9950381916798,
            13.338630712694448
          ],
          [
            99.99522284873214,
            13.338629988071585
          ],
          [
            99.99522136863509,
            13.338268343813064
          ],
          [
            99.99540602540196,
            13.338267619076143
          ],
          [
            99.99540454507422,
            13.337905974827517
          ],
          [
            99.99558920155563,
            13.337905249976545
          ],
          [
            99.9955877209972,
            13.337543605737817
          ],
          [
            99.99577237719316,
            13.3375428807728
          ],
          [
            99.99577089640407,
            13.337181236543978
          ],
          [
            99.99595555231458,
            13.337180511464926
          ],
          [
            99.99595481179922,
            13.336999689356773
          ],
          [
            99.99613946756155,
            13.33699896415351
          ],
          [
            99.99613798628926,
            13.336637319949732
          ],
          [
            99.99632264176613,
            13.336636594632445
          ],
          [
            99.99632041952817,
            13.336094128337727
          ],
          [
            99.9950278338418,
            13.33609920252281
          ],
          [
            99.9950285736162,
            13.336280024694915
          ],
          [
            99.99484391833711,
            13.336280749051136
          ],
          [
            99.99484465798524,
            13.3364615712308
          ],
          [
            99.99466000255796,
            13.336462295462805
          ],
          [
            99.99466074207979,
            13.336643117650025
          ],
          [
            99.99447608650433,
            13.336643841757812
          ],
          [
            99.99447756530637,
            13.337005486144749
          ],
          [
            99.99429290944549,
            13.337006210138478
          ],
          [
            99.99429364872567,
            13.33718703233819
          ],
          [
            99.99410899271662,
            13.337187756207689
          ],
          [
            99.99410973187051,
            13.337368578414953
          ],
          [
            99.99355576336599,
            13.337370749247569
          ],
          [
            99.99355502462384,
            13.337189927009824
          ],
          [
            99.99337036857104,
            13.337190650341748
          ],
          [
            99.99336815282189,
            13.336648183582366
          ],
          [
            99.99373746409312,
            13.336646736845072
          ],
          [
            99.99373450881609,
            13.335923447877233
          ],
          [
            99.99391916388636,
            13.335922724347643
          ],
          [
            99.99391842495722,
            13.335741902109309
          ],
          [
            99.99410307987934,
            13.335741178455498
          ],
          [
            99.9941023408239,
            13.335560356224716
          ],
          [
            99.99447165036088,
            13.335558908534288
          ],
          [
            99.99446721461135,
            13.334473975216678
          ],
          [
            99.99502117636482,
            13.334471802856253
          ],
          [
            99.9950204366999,
            13.334290980658015
          ],
          [
            99.99520509045863,
            13.334290256279312
          ],
          [
            99.9952036108872,
            13.333928611895338
          ],
          [
            99.99538826436057,
            13.333927887402625
          ],
          [
            99.99538678455855,
            13.33356624302855
          ],
          [
            99.99557143774655,
            13.33356551842183
          ],
          [
            99.99557069772476,
            13.333384696241051
          ],
          [
            99.99575535076461,
            13.333383971510154
          ],
          [
            99.99575165013404,
            13.332479860617951
          ],
          [
            99.99593630247696,
            13.332479135803597
          ],
          [
            99.99593556224652,
            13.332298313627499
          ],
          [
            99.99630486662511,
            13.332296863616127
          ],
          [
            99.99630116426549,
            13.331392752798283
          ],
          [
            99.9955625582081,
            13.331395652080019
          ],
          [
            99.99556107843839,
            13.331034007653138
          ],
          [
            99.99519177589266,
            13.331035456447301
          ],
          [
            99.99518881758202,
            13.330312167480782
          ],
          [
            99.99463486532734,
            13.330314339542493
          ],
          [
            99.99463708280939,
            13.330856806362842
          ],
          [
            99.99389847800396,
            13.33085970068658
          ],
          [
            99.99389773938101,
            13.330678878375085
          ],
          [
            99.99242053034273,
            13.330684660493555
          ],
          [
            99.99241979282804,
            13.330503838098222
          ],
          [
            99.99112723530646,
            13.33050889032874
          ],
          [
            99.99112649876287,
            13.330328067859824
          ],
          [
            99.99094184778188,
            13.330328789059607
          ],
          [
            99.99093890226523,
            13.329605499117298
          ],
          [
            99.99038495090281,
            13.329607661789174
          ],
          [
            99.99038863076845,
            13.330511774362447
          ],
          [
            99.9902039796067,
            13.33051249503506
          ],
          [
            99.99020618724533,
            13.33105496257805
          ],
          [
            99.9896522324602,
            13.331057123881013
          ],
          [
            99.98964781975,
            13.329972188589363
          ],
          [
            99.9890938673359,
            13.329974348501288
          ],
          [
            99.98909313233379,
            13.329793525913196
          ],
          [
            99.98872383094428,
            13.329794965162657
          ],
          [
            99.98872309622736,
            13.32961414255173
          ],
          [
            99.98853844565346,
            13.329614861964878
          ],
          [
            99.98853624197946,
            13.329072394086115
          ],
          [
            99.98835159180615,
            13.32907311333463
          ],
          [
            99.98835085740706,
            13.328892290693046
          ],
          [
            99.9877969072333,
            13.328894447602424
          ],
          [
            99.9878005772802,
            13.329798560935737
          ],
          [
            99.98816987877844,
            13.329797123029463
          ],
          [
            99.98817208175997,
            13.330339590937506
          ],
          [
            99.98798743060479,
            13.330340309988108
          ],
          [
            99.98798816481656,
            13.330521132629004
          ],
          [
            99.98780351351333,
            13.33052185155538
          ],
          [
            99.98780498169512,
            13.330883496849525
          ],
          [
            99.98762033010668,
            13.330884215661772
          ],
          [
            99.9876210640767,
            13.331065038315025
          ],
          [
            99.98743641234024,
            13.331065757003037
          ],
          [
            99.98743788003853,
            13.3314274023219
          ],
          [
            99.98725322801684,
            13.331428120895765
          ],
          [
            99.9872539617451,
            13.331608943561372
          ],
          [
            99.98706930957538,
            13.331609662010996
          ],
          [
            99.98707004317733,
            13.331790484684083
          ],
          [
            99.9859621291079,
            13.33179479262124
          ],
          [
            99.98596359469813,
            13.332156438080599
          ],
          [
            99.98540963669384,
            13.332158590296052
          ],
          [
            99.98540743955941,
            13.331616122012402
          ],
          [
            99.98577674408334,
            13.331614687396895
          ],
          [
            99.98577381362513,
            13.33089139639607
          ],
          [
            99.98595846532213,
            13.330890678927126
          ],
          [
            99.98595699988375,
            13.3305290334312
          ],
          [
            99.98614165129557,
            13.330528315848087
          ],
          [
            99.98614018562625,
            13.330166670361875
          ],
          [
            99.98632483675287,
            13.330165952664595
          ],
          [
            99.98632337085263,
            13.329804307188102
          ],
          [
            99.98650802169408,
            13.32980358937667
          ],
          [
            99.98650435644761,
            13.328899475690148
          ],
          [
            99.98687365672639,
            13.328898039765203
          ],
          [
            99.98687145688588,
            13.328355571582472
          ],
          [
            99.98650215742998,
            13.328357007446895
          ],
          [
            99.98650142444579,
            13.328176184693923
          ],
          [
            99.98594747559198,
            13.328178337453034
          ],
          [
            99.98595040594805,
            13.328901628570247
          ],
          [
            99.9842885538638,
            13.328908079957824
          ],
          [
            99.98428635978345,
            13.328365611351924
          ],
          [
            99.98391706002401,
            13.328367043455836
          ],
          [
            99.98391632895984,
            13.328186220561857
          ],
          [
            99.98317772985962,
            13.328189083117815
          ],
          [
            99.98317919090162,
            13.328550728983599
          ],
          [
            99.98262524064002,
            13.328552874550677
          ],
          [
            99.98262451052504,
            13.328372051588948
          ],
          [
            99.98207056057757,
            13.328374195917142
          ],
          [
            99.98206983088484,
            13.328193372922675
          ],
          [
            99.98151588125155,
            13.328195516012016
          ],
          [
            99.98151296423434,
            13.327472223887588
          ],
          [
            99.98058971737237,
            13.327475792816518
          ],
          [
            99.98059044592479,
            13.327656615901688
          ],
          [
            99.9804057963829,
            13.32765732929461
          ],
          [
            99.98040725324583,
            13.328018975477166
          ],
          [
            99.98022260341885,
            13.328019688755834
          ],
          [
            99.98022406005065,
            13.32838133494799
          ],
          [
            99.97967010968219,
            13.3283834740383
          ],
          [
            99.97966792598496,
            13.327841004655987
          ],
          [
            99.97985257570713,
            13.32784029179024
          ],
          [
            99.97985039169549,
            13.327297822414481
          ],
          [
            99.97911179438776,
            13.327300672951523
          ],
          [
            99.97911106695398,
            13.327119849780997
          ],
          [
            99.97837247002244,
            13.327122698129314
          ],
          [
            99.97837174314793,
            13.326941874916153
          ],
          [
            99.97707919906331,
            13.326946854285495
          ],
          [
            99.97707847315948,
            13.326766030999758
          ],
          [
            99.97670917502707,
            13.326767452448125
          ],
          [
            99.97670844940824,
            13.326586629139802
          ],
          [
            99.97615450254042,
            13.326588760275243
          ],
          [
            99.97615595296607,
            13.326950406949168
          ],
          [
            99.97597130371439,
            13.326951117079028
          ],
          [
            99.97597202880618,
            13.327131940422055
          ],
          [
            99.97578737940665,
            13.327132650427604
          ],
          [
            99.97578810437204,
            13.327313473777993
          ],
          [
            99.97560345482464,
            13.327314183659222
          ],
          [
            99.97560417966363,
            13.32749500701698
          ],
          [
            99.97541952996835,
            13.327495716773887
          ],
          [
            99.97542025468096,
            13.327676540139002
          ],
          [
            99.9752356048378,
            13.327677249771588
          ],
          [
            99.97523705402092,
            13.328038896513933
          ],
          [
            99.97505240389275,
            13.328039606032155
          ],
          [
            99.97505747541159,
            13.329305369617915
          ],
          [
            99.97542677757727,
            13.32930395030759
          ],
          [
            99.97543040178417,
            13.33020806697654
          ],
          [
            99.97487644646213,
            13.330210195890087
          ],
          [
            99.97487499757017,
            13.329848549170528
          ],
          [
            99.97469034604902,
            13.329849258519795
          ],
          [
            99.97468889747428,
            13.32948761176986
          ],
          [
            99.97450424621674,
            13.329488320964881
          ],
          [
            99.97450352208261,
            13.329307497576034
          ],
          [
            99.97394956865715,
            13.329309624325314
          ],
          [
            99.97395029237978,
            13.32949044774404
          ],
          [
            99.97376564107937,
            13.329491156401792
          ],
          [
            99.97376636467558,
            13.329671979827863
          ],
          [
            99.9735817132273,
            13.329672688361251
          ],
          [
            99.97358243669706,
            13.329853511794667
          ],
          [
            99.97302848187645,
            13.329855636618763
          ],
          [
            99.9730270357706,
            13.329493989689622
          ],
          [
            99.97228843029055,
            13.329496820828371
          ],
          [
            99.9722898752991,
            13.32985846783706
          ],
          [
            99.972105223628,
            13.32985917530583
          ],
          [
            99.97210594601117,
            13.330039998816194
          ],
          [
            99.97192129419223,
            13.33004070616058
          ],
          [
            99.97192201644891,
            13.330221529678276
          ],
          [
            99.97173736448211,
            13.33022223689827
          ],
          [
            99.97173808661232,
            13.330403060423288
          ],
          [
            99.97155343449766,
            13.330403767518893
          ],
          [
            99.9715541565014,
            13.330584591051238
          ],
          [
            99.97118485196566,
            13.33058600485932
          ],
          [
            99.9711877389901,
            13.331309299042024
          ],
          [
            99.9704491275956,
            13.331312125205043
          ],
          [
            99.97045057007448,
            13.331673772360125
          ],
          [
            99.97026591692479,
            13.331674478584876
          ],
          [
            99.97026663804306,
            13.331855302168426
          ],
          [
            99.97008198474552,
            13.331856008268755
          ],
          [
            99.9700834267397,
            13.33221765544785
          ],
          [
            99.96952946595991,
            13.332219773002272
          ],
          [
            99.96953234843004,
            13.332943067448106
          ],
          [
            99.9686090775065,
            13.332946594216677
          ],
          [
            99.96860979746471,
            13.333127417871143
          ],
          [
            99.96824048874628,
            13.333128827657893
          ],
          [
            99.96824192814584,
            13.333490474998596
          ],
          [
            99.96731865479134,
            13.33349399721317
          ],
          [
            99.96732153097416,
            13.33421729206112
          ],
          [
            99.96769084144556,
            13.334215883499246
          ],
          [
            99.9676915607923,
            13.334396707184924
          ],
          [
            99.96787621614926,
            13.33439600269254
          ],
          [
            99.967878374665,
            13.334938473704227
          ],
          [
            99.96713975152672,
            13.334941290986238
          ],
          [
            99.96714334652145,
            13.335845409484653
          ],
          [
            99.96677403351619,
            13.33584681741826
          ],
          [
            99.96677618981731,
            13.336389288545288
          ],
          [
            99.96696084673697,
            13.336388584616023
          ],
          [
            99.96696228459874,
            13.336750232001215
          ],
          [
            99.96714694178222,
            13.336749527917787
          ],
          [
            99.9671476608663,
            13.33693035159658
          ],
          [
            99.96733231817639,
            13.336929647368866
          ],
          [
            99.96733447590422,
            13.33747211835991
          ],
          [
            99.96714981818239,
            13.337472822617285
          ],
          [
            99.96715053730905,
            13.337653646285633
          ],
          [
            99.96548861609861,
            13.337659978642847
          ],
          [
            99.96548789820723,
            13.337479154885589
          ],
          [
            99.96437995107894,
            13.337483370349691
          ],
          [
            99.96437493190086,
            13.336217603561442
          ],
          [
            99.96400561802793,
            13.33621900750292
          ],
          [
            99.96400346793418,
            13.335676535923936
          ],
          [
            99.9638188113935,
            13.335677237663527
          ],
          [
            99.963818094854,
            13.335496413788787
          ],
          [
            99.96326412558004,
            13.335498518171713
          ],
          [
            99.9632662739952,
            13.336040989876754
          ],
          [
            99.96345093084214,
            13.336040288520612
          ],
          [
            99.96345164713897,
            13.336221112407223
          ],
          [
            99.96382096107554,
            13.33621970927208
          ],
          [
            99.96382311085304,
            13.336762180857132
          ],
          [
            99.96345379609303,
            13.336763584051386
          ],
          [
            99.96345451243225,
            13.336944407927552
          ],
          [
            99.96290053980101,
            13.336946511740509
          ],
          [
            99.96290340361693,
            13.337669807337225
          ],
          [
            99.96240970898793,
            13.337671681313441
          ]
        ]
      }
    },
    {
      "type": "Feature",
      "properties": {
        "indicator": "WATERLINE",
        "role": "HISTORICAL_AND_RECENT_SCREENING",
        "year": 2025,
        "scene_id": "S2C_MSIL2A_20250214T033901_R061_T47PNQ_20250214T090512",
        "acquisition_datetime_bangkok": "2025-02-14T10:39:01.025000+07:00",
        "tide_level_m_msl": 0.8849,
        "tide_target_m_msl": 1.0879,
        "tide_delta_from_target_m": -0.203,
        "tide_status": "modelled_secondary_extrema_cosine",
        "tide_source_tier": "secondary_published_extrema",
        "mndwi_threshold": 0.01953,
        "threshold_method": "otsu",
        "source_resolution_m": 20,
        "confidence": "LOW",
        "interpretation": "image-derived waterline selected near the current tide target; screening only, not tide-normalized or surveyed",
        "segment_id": 3,
        "length_m": 865.3
      },
      "geometry": {
        "type": "LineString",
        "coordinates": [
          [
            99.96364682150035,
            13.33887463146024
          ],
          [
            99.96364346903628,
            13.338028649530822
          ],
          [
            99.96438210231445,
            13.338025841791204
          ],
          [
            99.96438281941415,
            13.338206665599815
          ],
          [
            99.96512145307155,
            13.338203855670212
          ],
          [
            99.96512288840091,
            13.338565503200698
          ],
          [
            99.96530754706323,
            13.338564800362537
          ],
          [
            99.96530826488112,
            13.338745624113999
          ],
          [
            99.96549292367007,
            13.338744921131553
          ],
          [
            99.96549435961221,
            13.339106568606896
          ],
          [
            99.96567901866509,
            13.339105865470291
          ],
          [
            99.96567973678937,
            13.339286689194175
          ],
          [
            99.96604905513777,
            13.339285282497961
          ],
          [
            99.96605121039799,
            13.33982775359469
          ],
          [
            99.96494325275438,
            13.339831972247946
          ],
          [
            99.96494109996506,
            13.339289500973544
          ],
          [
            99.96475644073243,
            13.339290203582335
          ],
          [
            99.9647557232945,
            13.339109379809113
          ],
          [
            99.96390876002603,
            13.339112600648964
          ]
        ]
      }
    },
    {
      "type": "Feature",
      "properties": {
        "indicator": "WATERLINE",
        "role": "HISTORICAL_AND_RECENT_SCREENING",
        "year": 2025,
        "scene_id": "S2C_MSIL2A_20250214T033901_R061_T47PNQ_20250214T090512",
        "acquisition_datetime_bangkok": "2025-02-14T10:39:01.025000+07:00",
        "tide_level_m_msl": 0.8849,
        "tide_target_m_msl": 1.0879,
        "tide_delta_from_target_m": -0.203,
        "tide_status": "modelled_secondary_extrema_cosine",
        "tide_source_tier": "secondary_published_extrema",
        "mndwi_threshold": 0.01953,
        "threshold_method": "otsu",
        "source_resolution_m": 20,
        "confidence": "LOW",
        "interpretation": "image-derived waterline selected near the current tide target; screening only, not tide-normalized or surveyed",
        "segment_id": 4,
        "length_m": 5963.9
      },
      "geometry": {
        "type": "LineString",
        "coordinates": [
          [
            99.96596754208518,
            13.340732204487777
          ],
          [
            99.96605480271099,
            13.340731872036999
          ],
          [
            99.96605408422712,
            13.340551048353756
          ],
          [
            99.96642340445489,
            13.340549640981568
          ],
          [
            99.9664226857071,
            13.340368817315476
          ],
          [
            99.96679200561775,
            13.340367409425312
          ],
          [
            99.96678912963469,
            13.339644114813877
          ],
          [
            99.96752776713187,
            13.339641297578565
          ],
          [
            99.967526328106,
            13.339279650336277
          ],
          [
            99.9684496233652,
            13.339276125866549
          ],
          [
            99.96845250420502,
            13.339999420142753
          ],
          [
            99.96919114241695,
            13.339996597988929
          ],
          [
            99.96919186320265,
            13.340177421511827
          ],
          [
            99.96993050179306,
            13.340174597167508
          ],
          [
            99.96993122313856,
            13.340355420648148
          ],
          [
            99.97122384122173,
            13.340350472800585
          ],
          [
            99.97122528586671,
            13.340712119615109
          ],
          [
            99.97177926570865,
            13.34070999703295
          ],
          [
            99.97177998845902,
            13.340890820406493
          ],
          [
            99.97233396861657,
            13.340888696584607
          ],
          [
            99.97233541497314,
            13.341250343264237
          ],
          [
            99.97252007527884,
            13.34124963503485
          ],
          [
            99.97252079861046,
            13.341430458360803
          ],
          [
            99.97270545904276,
            13.341429749987032
          ],
          [
            99.97270618252239,
            13.341610573300434
          ],
          [
            99.97289084308126,
            13.341609864782274
          ],
          [
            99.97289301399626,
            13.342152334676955
          ],
          [
            99.97233903105182,
            13.342154459917591
          ],
          [
            99.97234120082742,
            13.342696929878247
          ],
          [
            99.97252586223152,
            13.342696221569328
          ],
          [
            99.97252658564875,
            13.34287704487438
          ],
          [
            99.97271124717946,
            13.342876336421059
          ],
          [
            99.97271197074471,
            13.343057159713556
          ],
          [
            99.97326595568451,
            13.343055033517013
          ],
          [
            99.97326233590567,
            13.342150917177618
          ],
          [
            99.97400097959598,
            13.342148080565542
          ],
          [
            99.97399953066103,
            13.341786434091127
          ],
          [
            99.97418419128222,
            13.3417857246219
          ],
          [
            99.97418201754829,
            13.341243254920554
          ],
          [
            99.97492065827831,
            13.341240415818755
          ],
          [
            99.97492138339473,
            13.341421239015295
          ],
          [
            99.97566002450226,
            13.341418397722572
          ],
          [
            99.97565929883667,
            13.341237574565914
          ],
          [
            99.97584395894943,
            13.341236863916606
          ],
          [
            99.97584250737589,
            13.3408752176154
          ],
          [
            99.97602716720333,
            13.340874506851605
          ],
          [
            99.97602644129537,
            13.340693683707066
          ],
          [
            99.9762111009748,
            13.340692972818815
          ],
          [
            99.9762103749403,
            13.340512149681638
          ],
          [
            99.97676435350223,
            13.340510016240227
          ],
          [
            99.97676072143173,
            13.339605900664898
          ],
          [
            99.97657606260823,
            13.339606611896546
          ],
          [
            99.97657533636364,
            13.339425788763656
          ],
          [
            99.97639067766666,
            13.339426499850891
          ],
          [
            99.97638922548427,
            13.339064853557309
          ],
          [
            99.97620456705107,
            13.339065564490165
          ],
          [
            99.97620238926986,
            13.338523095000253
          ],
          [
            99.97638704729127,
            13.338522384097343
          ],
          [
            99.97638414318433,
            13.337799091447478
          ],
          [
            99.97693811553701,
            13.337796958052095
          ],
          [
            99.97693956839251,
            13.338158604322343
          ],
          [
            99.97712422609642,
            13.338157892901762
          ],
          [
            99.97712495267756,
            13.33833871602298
          ],
          [
            99.97730961050796,
            13.338338004458
          ],
          [
            99.9773103372371,
            13.338518827566615
          ],
          [
            99.97749499519401,
            13.338518115857232
          ],
          [
            99.97749717585775,
            13.339060585137423
          ],
          [
            99.97823580922497,
            13.33905773683583
          ],
          [
            99.97823508177724,
            13.338876913785032
          ],
          [
            99.97841973995489,
            13.338876201383593
          ],
          [
            99.97841755726452,
            13.33833373224554
          ],
          [
            99.97878687276392,
            13.338332307099444
          ],
          [
            99.97878614494748,
            13.338151484068211
          ],
          [
            99.97897080254378,
            13.338150771303555
          ],
          [
            99.97897007460085,
            13.337969948279719
          ],
          [
            99.97915473204912,
            13.33796923539067
          ],
          [
            99.97915400397972,
            13.337788412374222
          ],
          [
            99.97952331856943,
            13.337786986212931
          ],
          [
            99.9795225902363,
            13.337606163213898
          ],
          [
            99.97970724737775,
            13.337605449941663
          ],
          [
            99.97970651891814,
            13.337424626950034
          ],
          [
            99.97989117591155,
            13.33742391355341
          ],
          [
            99.97989044732549,
            13.337243090569189
          ],
          [
            99.98007510417087,
            13.337242377048184
          ],
          [
            99.9800736467566,
            13.336880731091938
          ],
          [
            99.9802583033167,
            13.33688001745658
          ],
          [
            99.98025757448852,
            13.336699194484554
          ],
          [
            99.98044223090061,
            13.336698480724827
          ],
          [
            99.98044150194596,
            13.336517657760213
          ],
          [
            99.98062615821001,
            13.336516943876116
          ],
          [
            99.98062542912892,
            13.336336120918919
          ],
          [
            99.98081008524494,
            13.336335406910457
          ],
          [
            99.98080935603741,
            13.336154583960667
          ],
          [
            99.98117866796262,
            13.336153155560641
          ],
          [
            99.98117793849143,
            13.335972332628298
          ],
          [
            99.9813625943006,
            13.33597161823674
          ],
          [
            99.98136186470296,
            13.335790795311816
          ],
          [
            99.98210048728279,
            13.33578793644188
          ],
          [
            99.98210267775488,
            13.336330405088374
          ],
          [
            99.98191802171443,
            13.33633112003755
          ],
          [
            99.98191875175618,
            13.336511942924526
          ],
          [
            99.98154943936841,
            13.336513372439788
          ],
          [
            99.98155016914649,
            13.336694195344226
          ],
          [
            99.98136551279916,
            13.336694909910305
          ],
          [
            99.98136624245079,
            13.336875732822163
          ],
          [
            99.98118158595544,
            13.336876447263885
          ],
          [
            99.98118231548062,
            13.337057270183163
          ],
          [
            99.98081300218303,
            13.337058698683482
          ],
          [
            99.98081446071681,
            13.337420344554316
          ],
          [
            99.98062980377735,
            13.337421058622935
          ],
          [
            99.98063053292319,
            13.33760188156446
          ],
          [
            99.98044587583566,
            13.337602595508704
          ],
          [
            99.98044733388521,
            13.337964241403967
          ],
          [
            99.9802626765124,
            13.337964955233852
          ],
          [
            99.98026559219193,
            13.338688247033117
          ],
          [
            99.979342302421,
            13.33869181436681
          ],
          [
            99.97934303068153,
            13.33887263736018
          ],
          [
            99.97897371442319,
            13.33887406337279
          ],
          [
            99.97897589844585,
            13.339416532397278
          ],
          [
            99.97879123988872,
            13.339417245231989
          ],
          [
            99.97879196778055,
            13.339598068244932
          ],
          [
            99.97860730907539,
            13.339598780955225
          ],
          [
            99.97860803684071,
            13.339779603975561
          ],
          [
            99.97805406024878,
            13.339781741329904
          ],
          [
            99.9780555149881,
            13.340143387422756
          ],
          [
            99.97787085582803,
            13.340144099625352
          ],
          [
            99.97787303760587,
            13.340686568775025
          ],
          [
            99.97676507994856,
            13.340690839347458
          ],
          [
            99.97676798584142,
            13.341414131750238
          ],
          [
            99.97695264602702,
            13.341413420284303
          ],
          [
            99.97695337266438,
            13.341594243368476
          ],
          [
            99.97713803297653,
            13.341593531758111
          ],
          [
            99.97713875976194,
            13.341774354829687
          ],
          [
            99.97750808062854,
            13.341772931185643
          ],
          [
            99.9775088076993,
            13.34195375423462
          ],
          [
            99.97769346825376,
            13.341953042200938
          ],
          [
            99.97769419547258,
            13.342133865237303
          ],
          [
            99.97787885615358,
            13.342133153059176
          ],
          [
            99.97787958352046,
            13.342313976082938
          ],
          [
            99.97843356591079,
            13.342311838711858
          ],
          [
            99.97843065486023,
            13.341588546721145
          ],
          [
            99.9791692956998,
            13.341585695170838
          ],
          [
            99.97917220894713,
            13.342308987001449
          ],
          [
            99.9789875482042,
            13.342309700130727
          ],
          [
            99.97898827640567,
            13.342490523091854
          ],
          [
            99.97843429370035,
            13.342492661703004
          ],
          [
            99.97843720496624,
            13.343215953641456
          ],
          [
            99.9780678820104,
            13.343217378789971
          ],
          [
            99.97806860957915,
            13.343398201788052
          ],
          [
            99.97788394794777,
            13.343398914170617
          ],
          [
            99.97788467538997,
            13.34357973717608
          ],
          [
            99.97770001361053,
            13.343580449434182
          ],
          [
            99.97770074092618,
            13.343761272447031
          ],
          [
            99.97751607899865,
            13.343761984580663
          ],
          [
            99.97751680618774,
            13.343942807600891
          ],
          [
            99.97733214411211,
            13.343943519610047
          ],
          [
            99.97733287117465,
            13.34412434263766
          ],
          [
            99.97714820895096,
            13.344125054522339
          ],
          [
            99.97714893588693,
            13.344305877557325
          ],
          [
            99.97696427351515,
            13.344306589317528
          ],
          [
            99.9769657271447,
            13.344668235399638
          ],
          [
            99.97659640181959,
            13.344669658556567
          ],
          [
            99.976596926821,
            13.344800319543847
          ]
        ]
      }
    },
    {
      "type": "Feature",
      "properties": {
        "indicator": "WATERLINE",
        "role": "HISTORICAL_AND_RECENT_SCREENING",
        "year": 2025,
        "scene_id": "S2C_MSIL2A_20250214T033901_R061_T47PNQ_20250214T090512",
        "acquisition_datetime_bangkok": "2025-02-14T10:39:01.025000+07:00",
        "tide_level_m_msl": 0.8849,
        "tide_target_m_msl": 1.0879,
        "tide_delta_from_target_m": -0.203,
        "tide_status": "modelled_secondary_extrema_cosine",
        "tide_source_tier": "secondary_published_extrema",
        "mndwi_threshold": 0.01953,
        "threshold_method": "otsu",
        "source_resolution_m": 20,
        "confidence": "LOW",
        "interpretation": "image-derived waterline selected near the current tide target; screening only, not tide-normalized or surveyed",
        "segment_id": 5,
        "length_m": 4147.0
      },
      "geometry": {
        "type": "LineString",
        "coordinates": [
          [
            99.9841796463136,
            13.347624314866877
          ],
          [
            99.98417927865577,
            13.347533538351612
          ],
          [
            99.98436394307882,
            13.347532821165917
          ],
          [
            99.98436321059226,
            13.347351998569033
          ],
          [
            99.98454787486712,
            13.347351281258897
          ],
          [
            99.98454714225404,
            13.347170458669465
          ],
          [
            99.9847318063807,
            13.34716974123489
          ],
          [
            99.98473034091235,
            13.346808096068314
          ],
          [
            99.98491500475345,
            13.34680737851938
          ],
          [
            99.98491427189818,
            13.346626555942237
          ],
          [
            99.98509893559111,
            13.346625838268876
          ],
          [
            99.98509820260934,
            13.346445015699192
          ],
          [
            99.98528286615405,
            13.346444297901407
          ],
          [
            99.98528139994833,
            13.346082652774335
          ],
          [
            99.98546606320753,
            13.346081934862205
          ],
          [
            99.9854653299836,
            13.345901112304825
          ],
          [
            99.9856499930946,
            13.345900394268282
          ],
          [
            99.98564925974416,
            13.345719571718359
          ],
          [
            99.98583392270699,
            13.34571885355741
          ],
          [
            99.985832455764,
            13.345357208469881
          ],
          [
            99.9860171184413,
            13.345356490194606
          ],
          [
            99.98601638484872,
            13.345175667656997
          ],
          [
            99.98620104737785,
            13.34517494925732
          ],
          [
            99.9862003136588,
            13.344994126727178
          ],
          [
            99.98638497603973,
            13.34499340820311
          ],
          [
            99.9863842421942,
            13.344812585680437
          ],
          [
            99.98656890442695,
            13.344811867031975
          ],
          [
            99.98656743649383,
            13.344450221998958
          ],
          [
            99.98675209844106,
            13.344449503236193
          ],
          [
            99.98675136435345,
            13.344268680725852
          ],
          [
            99.9869360261525,
            13.344267961838705
          ],
          [
            99.98693529193844,
            13.344087139335839
          ],
          [
            99.98711995358931,
            13.344086420324311
          ],
          [
            99.98711848491912,
            13.343724775330918
          ],
          [
            99.9873031462845,
            13.34372405620511
          ],
          [
            99.98730241182838,
            13.343543233714584
          ],
          [
            99.98748707304557,
            13.343542514464406
          ],
          [
            99.98748560389132,
            13.3431808694957
          ],
          [
            99.98767026482301,
            13.343180150131253
          ],
          [
            99.98766953012488,
            13.342999327653077
          ],
          [
            99.9878541909084,
            13.34299860816427
          ],
          [
            99.98785345608381,
            13.342817785693576
          ],
          [
            99.98803811671917,
            13.342817066080414
          ],
          [
            99.98803738176815,
            13.342636243617209
          ],
          [
            99.98822204225532,
            13.342635523879693
          ],
          [
            99.9882205721113,
            13.342273878965642
          ],
          [
            99.98840523231299,
            13.342273159113882
          ],
          [
            99.98840449712,
            13.342092336663038
          ],
          [
            99.98858915717351,
            13.342091616686936
          ],
          [
            99.98858842185409,
            13.341910794243587
          ],
          [
            99.98877308175942,
            13.341910074143145
          ],
          [
            99.98877161087866,
            13.341548429268817
          ],
          [
            99.98895627049852,
            13.341547709054147
          ],
          [
            99.98895553493716,
            13.341366886623174
          ],
          [
            99.98914019440886,
            13.341366166284178
          ],
          [
            99.98913945872108,
            13.3411853438607
          ],
          [
            99.9893241180446,
            13.341184623397378
          ],
          [
            99.98932191063477,
            13.340642156141598
          ],
          [
            99.98895259280056,
            13.34064359687313
          ],
          [
            99.98895112179756,
            13.340281951982426
          ],
          [
            99.98728919347619,
            13.340288428438114
          ],
          [
            99.98728625654262,
            13.339565138261673
          ],
          [
            99.98747091473938,
            13.339564419233572
          ],
          [
            99.98746871174147,
            13.33902195160408
          ],
          [
            99.98802268503115,
            13.339019793804146
          ],
          [
            99.98802562403064,
            13.339743083850397
          ],
          [
            99.98894891537466,
            13.339739484626763
          ],
          [
            99.98894965083808,
            13.339920307081265
          ],
          [
            99.99024225922352,
            13.339915262451632
          ],
          [
            99.99024373210484,
            13.340276907211154
          ],
          [
            99.9904283906766,
            13.340276185991831
          ],
          [
            99.9904291272709,
            13.340457008357546
          ],
          [
            99.9909831033326,
            13.34045484386263
          ],
          [
            99.99098384034961,
            13.340635666195352
          ],
          [
            99.99135315794413,
            13.340634222506326
          ],
          [
            99.99135389524662,
            13.340815044816162
          ],
          [
            99.99172321307206,
            13.340813600569142
          ],
          [
            99.99172468825893,
            13.341175245140427
          ],
          [
            99.99190934742984,
            13.341174522794985
          ],
          [
            99.99191082293494,
            13.341536167335532
          ],
          [
            99.99246480120594,
            13.341533999431736
          ],
          [
            99.99246701578107,
            13.342076466131655
          ],
          [
            99.99191303627444,
            13.342078634126743
          ],
          [
            99.99191156070385,
            13.341716989601881
          ],
          [
            99.99117292230721,
            13.341719878298662
          ],
          [
            99.99117365953786,
            13.341900700602949
          ],
          [
            99.99098899977415,
            13.341901422451171
          ],
          [
            99.99098973687842,
            13.342082244762969
          ],
          [
            99.9908050769665,
            13.34208296648688
          ],
          [
            99.99080655093313,
            13.342444611122904
          ],
          [
            99.99043723052738,
            13.342446054207885
          ],
          [
            99.99043870398843,
            13.342807698873962
          ],
          [
            99.9902540434946,
            13.342808420235032
          ],
          [
            99.99025551672462,
            13.3431700649109
          ],
          [
            99.98988619515502,
            13.343171507270162
          ],
          [
            99.9898876678794,
            13.343533151976061
          ],
          [
            99.98970300680364,
            13.343533872974243
          ],
          [
            99.98970447929695,
            13.343895517689925
          ],
          [
            99.98951981793566,
            13.34389623857388
          ],
          [
            99.98952055406134,
            13.344077060937916
          ],
          [
            99.98933589255185,
            13.344077781697521
          ],
          [
            99.98933883661414,
            13.344801071167982
          ],
          [
            99.98878485037245,
            13.344803232761333
          ],
          [
            99.98878411475253,
            13.344622410367302
          ],
          [
            99.98786080481877,
            13.344626010282868
          ],
          [
            99.98786153975206,
            13.344806832727416
          ],
          [
            99.98767687759535,
            13.344807552317208
          ],
          [
            99.98767761240218,
            13.344988374769242
          ],
          [
            99.98749295009728,
            13.344989094234656
          ],
          [
            99.98749441946887,
            13.34535073915107
          ],
          [
            99.98730975687845,
            13.345351458502197
          ],
          [
            99.98731049144321,
            13.345532280966578
          ],
          [
            99.98712582870456,
            13.345533000193315
          ],
          [
            99.98712656314285,
            13.345713822665175
          ],
          [
            99.98694190025601,
            13.345714541767522
          ],
          [
            99.98694336889051,
            13.34607618672358
          ],
          [
            99.98675870571813,
            13.34607690571162
          ],
          [
            99.98675943991432,
            13.346257728195814
          ],
          [
            99.98657477659374,
            13.346258447059451
          ],
          [
            99.98657551066344,
            13.346439269551121
          ],
          [
            99.98639084719466,
            13.346439988290355
          ],
          [
            99.98639158113788,
            13.346620810789492
          ],
          [
            99.98620691752087,
            13.346621529404317
          ],
          [
            99.98620838516518,
            13.34698317441492
          ],
          [
            99.98602372126263,
            13.346983892915413
          ],
          [
            99.98602445496371,
            13.347164715426873
          ],
          [
            99.98583979091296,
            13.347165433802951
          ],
          [
            99.98584052448753,
            13.347346256321876
          ],
          [
            99.98565586028856,
            13.347346974573528
          ],
          [
            99.98565732719554,
            13.34770861962369
          ],
          [
            99.985472662711,
            13.347709337760993
          ],
          [
            99.9854732845999,
            13.34786268111801
          ]
        ]
      }
    }
  ]
}
