{
  "type": "FeatureCollection",
  "features": [
    {
      "type": "Feature",
      "properties": {
        "year": 1990,
        "target_year": 1990,
        "actual_year": 1990,
        "sensor": "landsat-5",
        "actual_acquisition_period": "1990-03-04 to 1990-12-17",
        "acquisition_period": "1990-03-04 to 1990-12-17",
        "scene_count": 3,
        "method": "MNDWI otsu, conservative morphology, edge-connected ocean exterior, corridor-guided continuous trace",
        "threshold": 0.25,
        "mndwi_threshold": 0.25,
        "threshold_candidates": {
          "otsu": {
            "threshold": 0.25,
            "ocean_fraction": 0.4747
          },
          "fixed_zero": {
            "threshold": 0.0,
            "ocean_fraction": 0.4825
          },
          "percentile_60": {
            "threshold": 0.81146,
            "ocean_fraction": 0.3937
          }
        },
        "tide_status": "unverified",
        "source_resolution_m": 30,
        "interpretation": "image-derived water-land boundary, not a true/surveyed shoreline",
        "qa_status": "MVP automated extraction; visual review required",
        "segment_id": 1,
        "length_m": 5771.3
      },
      "geometry": {
        "type": "LineString",
        "coordinates": [
          [
            99.2161852111398,
            9.328610271502043
          ],
          [
            99.2164598865951,
            9.331019496292555
          ],
          [
            99.21728065764437,
            9.332951138860468
          ],
          [
            99.21782822301985,
            9.334850224916668
          ],
          [
            99.21946891822829,
            9.33729132830817
          ],
          [
            99.21946915630377,
            9.337671803618464
          ],
          [
            99.22220294557516,
            9.340545778544335
          ],
          [
            99.22856526053415,
            9.342983853956424
          ],
          [
            99.2293077132815,
            9.342983375611931
          ],
          [
            99.23067407382308,
            9.343525182206344
          ],
          [
            99.2323138198219,
            9.344338150218473
          ],
          [
            99.23286058377319,
            9.344880483125126
          ],
          [
            99.23368037099186,
            9.34515129025096
          ],
          [
            99.23450052259724,
            9.345964785957833
          ],
          [
            99.23450066881647,
            9.346183279444778
          ],
          [
            99.23696044966657,
            9.347591225419883
          ],
          [
            99.23794152215406,
            9.347590569518443
          ],
          [
            99.23832665486358,
            9.347861656566678
          ],
          [
            99.23887361854884,
            9.348675324870182
          ],
          [
            99.23887487696861,
            9.350520626565192
          ],
          [
            99.24297602221073,
            9.354913479543248
          ],
          [
            99.24488905963537,
            9.355726199760753
          ],
          [
            99.2462681228102,
            9.355996590418203
          ],
          [
            99.24707493356377,
            9.355996029588953
          ],
          [
            99.25035423534815,
            9.357079110828192
          ],
          [
            99.25161966805281,
            9.357349560583968
          ],
          [
            99.25339320070013,
            9.357348298430304
          ],
          [
            99.25417958662503,
            9.357619080768767
          ]
        ]
      }
    }
  ]
}
