{
  "type": "FeatureCollection",
  "features": [
    {
      "type": "Feature",
      "properties": {
        "year": 2000,
        "target_year": 2000,
        "actual_year": 2000,
        "sensor": "landsat-5, landsat-7",
        "actual_acquisition_period": "2000-02-12 to 2000-12-12",
        "acquisition_period": "2000-02-12 to 2000-12-12",
        "scene_count": 3,
        "method": "MNDWI otsu, conservative morphology, edge-connected ocean exterior, corridor-guided continuous trace",
        "threshold": 0.25,
        "mndwi_threshold": 0.25,
        "threshold_candidates": {
          "otsu": {
            "threshold": 0.25,
            "ocean_fraction": 0.4687
          },
          "fixed_zero": {
            "threshold": 0.0,
            "ocean_fraction": 0.4752
          },
          "percentile_60": {
            "threshold": 0.88417,
            "ocean_fraction": 0.3816
          }
        },
        "tide_status": "unverified",
        "source_resolution_m": 30,
        "interpretation": "image-derived water-land boundary, not a true/surveyed shoreline",
        "qa_status": "MVP automated extraction; visual review required",
        "segment_id": 1,
        "length_m": 5860.4
      },
      "geometry": {
        "type": "LineString",
        "coordinates": [
          [
            99.21645863780759,
            9.328994372195513
          ],
          [
            99.2167334335344,
            9.331594743236794
          ],
          [
            99.21810158627561,
            9.335121403205761
          ],
          [
            99.21902360817033,
            9.336477565552135
          ],
          [
            99.21948587890944,
            9.336477280509044
          ],
          [
            99.2199486600819,
            9.337291031854624
          ],
          [
            99.22220088240614,
            9.33728963145481
          ],
          [
            99.22247580016446,
            9.340002916513743
          ],
          [
            99.2232959140574,
            9.340816439226185
          ],
          [
            99.22438905781908,
            9.34135844201845
          ],
          [
            99.22684838003259,
            9.342170917478992
          ],
          [
            99.22856526053415,
            9.342983853956424
          ],
          [
            99.22954103958146,
            9.342983224965032
          ],
          [
            99.23051717545776,
            9.343525284030477
          ],
          [
            99.23094727491002,
            9.343525004738547
          ],
          [
            99.23231363996355,
            9.34406680489936
          ],
          [
            99.23331703492099,
            9.344880183652082
          ],
          [
            99.23450015943584,
            9.34542209544996
          ],
          [
            99.23477387190094,
            9.34618309898393
          ],
          [
            99.23696044966657,
            9.347591225419883
          ],
          [
            99.23832649554124,
            9.347627447824891
          ],
          [
            99.23914700873135,
            9.348946486112412
          ],
          [
            99.23914808334882,
            9.350520442655625
          ],
          [
            99.24242941483763,
            9.354642508258726
          ],
          [
            99.25161966805281,
            9.357349560583968
          ],
          [
            99.25339320070013,
            9.357348298430304
          ],
          [
            99.25417958662503,
            9.357619080768767
          ]
        ]
      }
    }
  ]
}
