{
  "type": "FeatureCollection",
  "features": [
    {
      "type": "Feature",
      "properties": {
        "year": 2025,
        "target_year": 2025,
        "actual_year": 2025,
        "sensor": "Sentinel-2A, Sentinel-2C",
        "actual_acquisition_period": "2025-02-14 to 2025-04-07",
        "acquisition_period": "2025-02-14 to 2025-04-07",
        "scene_count": 3,
        "method": "MNDWI otsu, conservative morphology, edge-connected ocean exterior, corridor-guided continuous trace",
        "threshold": 0.04297,
        "mndwi_threshold": 0.04297,
        "threshold_candidates": {
          "otsu": {
            "threshold": 0.04297,
            "ocean_fraction": 0.463
          },
          "fixed_zero": {
            "threshold": 0.0,
            "ocean_fraction": 0.466
          },
          "percentile_60": {
            "threshold": 0.21332,
            "ocean_fraction": 0.394
          }
        },
        "tide_status": "unverified",
        "source_resolution_m": 20,
        "interpretation": "image-derived water-land boundary, not a true/surveyed shoreline",
        "qa_status": "MVP automated extraction; visual review required",
        "segment_id": 1,
        "length_m": 6018.5
      },
      "geometry": {
        "type": "LineString",
        "coordinates": [
          [
            99.21636694745027,
            9.32797702047809
          ],
          [
            99.21673220485644,
            9.329604873910034
          ],
          [
            99.21746194567095,
            9.331594298668945
          ],
          [
            99.21764474681906,
            9.332679570403572
          ],
          [
            99.21800979071978,
            9.333945627527616
          ],
          [
            99.21837438696677,
            9.334488095532619
          ],
          [
            99.2185600977161,
            9.334487981455315
          ],
          [
            99.21983335021895,
            9.33756244893095
          ],
          [
            99.22019749884319,
            9.337381326417031
          ],
          [
            99.22048803401829,
            9.337381146362862
          ],
          [
            99.22147264424311,
            9.337742328710874
          ],
          [
            99.22202951283084,
            9.338284672812513
          ],
          [
            99.22256599769963,
            9.338634268002059
          ],
          [
            99.2231958259047,
            9.338826633868484
          ],
          [
            99.22384104202987,
            9.338826228183368
          ],
          [
            99.22475343981071,
            9.341539108847408
          ],
          [
            99.22675713781474,
            9.341899630141157
          ],
          [
            99.22730388948092,
            9.34244197197073
          ],
          [
            99.22848394561045,
            9.342983906251426
          ],
          [
            99.23003624844547,
            9.342982904726261
          ],
          [
            99.23222257280324,
            9.344066864432241
          ],
          [
            99.23349811559665,
            9.344970513152374
          ],
          [
            99.23401061291159,
            9.345151072873074
          ],
          [
            99.23459140858192,
            9.345693380578904
          ],
          [
            99.2353200705831,
            9.345873795546328
          ],
          [
            99.23593720361819,
            9.345873386197622
          ],
          [
            99.23623105245757,
            9.34632680440001
          ],
          [
            99.23732466057534,
            9.347500533809916
          ],
          [
            99.2380530818008,
            9.347319149482196
          ],
          [
            99.23805320471159,
            9.347500046254163
          ],
          [
            99.23878174880808,
            9.347499557204028
          ],
          [
            99.23914637127075,
            9.34801268784521
          ],
          [
            99.2391480174908,
            9.350423990554075
          ],
          [
            99.24188280829448,
            9.354371536106788
          ],
          [
            99.2449800664421,
            9.35563568860619
          ],
          [
            99.2469838634006,
            9.35599609298537
          ],
          [
            99.24771268072821,
            9.356357378265075
          ],
          [
            99.25080673402188,
            9.357259687859214
          ],
          [
            99.25154583586297,
            9.357440061224956
          ],
          [
            99.25376275221896,
            9.357438482593933
          ],
          [
            99.25427065716013,
            9.357619015514475
          ]
        ]
      }
    }
  ]
}
