{
  "type": "FeatureCollection",
  "features": [
    {
      "type": "Feature",
      "properties": {
        "year": 2026,
        "target_year": 2026,
        "actual_year": 2026,
        "sensor": "Sentinel-2B, Sentinel-2C",
        "actual_acquisition_period": "2026-03-01 to 2026-04-30",
        "acquisition_period": "2026-03-01 to 2026-04-30",
        "scene_count": 3,
        "method": "MNDWI otsu, conservative morphology, edge-connected ocean exterior, corridor-guided continuous trace",
        "threshold": 0.01953,
        "mndwi_threshold": 0.01953,
        "threshold_candidates": {
          "otsu": {
            "threshold": 0.01953,
            "ocean_fraction": 0.4646
          },
          "fixed_zero": {
            "threshold": 0.0,
            "ocean_fraction": 0.4662
          },
          "percentile_60": {
            "threshold": 0.23129,
            "ocean_fraction": 0.3952
          }
        },
        "tide_status": "unverified",
        "source_resolution_m": 20,
        "interpretation": "image-derived water-land boundary, not a true/surveyed shoreline",
        "qa_status": "MVP automated extraction; visual review required",
        "segment_id": 1,
        "length_m": 6155.3
      },
      "geometry": {
        "type": "LineString",
        "coordinates": [
          [
            99.2161842643927,
            9.327072644910325
          ],
          [
            99.21654996625854,
            9.329424087570114
          ],
          [
            99.21746216984734,
            9.33195609305058
          ],
          [
            99.21764508340955,
            9.333222261933615
          ],
          [
            99.2181921449485,
            9.3343073101605
          ],
          [
            99.21837438696677,
            9.334488095532619
          ],
          [
            99.21910301799873,
            9.334668544609398
          ],
          [
            99.21983335021895,
            9.33756244893095
          ],
          [
            99.22019749884319,
            9.337381326417031
          ],
          [
            99.22048803401829,
            9.337381146362862
          ],
          [
            99.22147264424311,
            9.337742328710874
          ],
          [
            99.22202951283084,
            9.338284672812513
          ],
          [
            99.22256599769963,
            9.338634268002059
          ],
          [
            99.22329464690313,
            9.338826571809888
          ],
          [
            99.22384104202987,
            9.338826228183368
          ],
          [
            99.22457130670641,
            9.341539223983467
          ],
          [
            99.22604379779554,
            9.34190008458711
          ],
          [
            99.22657500454838,
            9.341899746308517
          ],
          [
            99.2271217559397,
            9.342442088424997
          ],
          [
            99.22848394561045,
            9.342983906251426
          ],
          [
            99.22985411465807,
            9.342983022587708
          ],
          [
            99.23040063491653,
            9.343163565638738
          ],
          [
            99.2305828877906,
            9.34334434440617
          ],
          [
            99.2318581844884,
            9.343886205442798
          ],
          [
            99.23349811559665,
            9.344970513152374
          ],
          [
            99.23422689648504,
            9.345331827264395
          ],
          [
            99.23459140858192,
            9.345693380578904
          ],
          [
            99.2347740285153,
            9.346416847569637
          ],
          [
            99.23732466057534,
            9.347500533809916
          ],
          [
            99.2380530818008,
            9.347319149482196
          ],
          [
            99.23805320471159,
            9.347500046254163
          ],
          [
            99.23878174880808,
            9.347499557204028
          ],
          [
            99.23914637127075,
            9.34801268784521
          ],
          [
            99.2391480174908,
            9.350423990554075
          ],
          [
            99.2424293522035,
            9.354552059938433
          ],
          [
            99.24352256749346,
            9.355094001650114
          ],
          [
            99.2449800664421,
            9.35563568860619
          ],
          [
            99.2469838634006,
            9.35599609298537
          ],
          [
            99.24825923053773,
            9.356537892941612
          ],
          [
            99.24953434358105,
            9.356717895154489
          ],
          [
            99.25008102407958,
            9.357079303494155
          ],
          [
            99.25154583586297,
            9.357440061224956
          ],
          [
            99.25376275221896,
            9.357438482593933
          ],
          [
            99.25427065716013,
            9.357619015514475
          ]
        ]
      }
    }
  ]
}
